[{"name":"Hamons, Foy Lee","street":"502 State Highway 110 N ","city":"Whitehouse","state":"TX","zipCode":"75791-3040","phone":"(903) 839-6069","fax":"(903) 839-4268","webSite":""},{"name":"Hamorsky, Jennifer Ann","street":"2650 Firewheel Dr ","city":"Flower Mound","state":"TX","zipCode":"75028-4601","phone":"(972) 539-0608","fax":"(972) 539-8899","webSite":""},{"name":"Hampton Dental Pllc","street":"8177 Pitkin Rd ","city":"Frisco","state":"TX","zipCode":"75034-4958","phone":"(302) 983-4426","fax":"","webSite":""},{"name":"Asana Dental","street":"1434 N Central Expy Ste 121 Suite 201","city":"Mckinney","state":"TX","zipCode":"75070-3108","phone":"(972) 542-4402","fax":"","webSite":""},{"name":"Hampton, Darian Lamont","street":"3610 N Josey Ln Suite 104","city":"Carrollton","state":"TX","zipCode":"75007-3100","phone":"(972) 395-9292","fax":"","webSite":""},{"name":"Hampton, Kirk N","street":"10995 Plano Road Suite 102","city":"Dallas","state":"TX","zipCode":"75238","phone":"(214) 553-8303","fax":"(214) 553-8311","webSite":""},{"name":"Han, Ji Youn","street":"8300 Homestead Rd Ste 3 ","city":"Houston","state":"TX","zipCode":"77028-2149","phone":"(713) 631-3700","fax":"","webSite":""},{"name":"Han, Xiaoyan","street":"13316 Westhermer Rd. Suite 200 Delicate Dental Care, Pa","city":"Houston","state":"TX","zipCode":"77077","phone":"(281) 759-5050","fax":"(281) 759-5051","webSite":""},{"name":"Hanak, Gregory","street":"2700 W Anderson Ln Ste 418","city":"Austin","state":"TX","zipCode":"78757-1159","phone":"(512) 334-9894","fax":"","webSite":""},{"name":"Hancock, Jeff Kyle","street":"11010 Quaker Ave ","city":"Lubbock","state":"TX","zipCode":"79424-8316","phone":"(806) 797-6453","fax":"(806) 791-2273","webSite":""},{"name":"Hancock, Jeffrey Bishop","street":"1125 N University Dr ","city":"Nacogdoches","state":"TX","zipCode":"75961-4248","phone":"(936) 564-2005","fax":"(936) 564-9776","webSite":""},{"name":"Hancock, Larry Bishop","street":"1125 N University Dr ","city":"Nacogdoches","state":"TX","zipCode":"75961-4248","phone":"(936) 564-2005","fax":"(936) 564-9776","webSite":""},{"name":"Hancock, Ronald Sammy","street":"1125 N University Dr ","city":"Nacogdoches","state":"TX","zipCode":"75961-4248","phone":"(936) 564-2005","fax":"(936) 564-9776","webSite":""},{"name":"Handley, Ronald Ray","street":"10730 Barker Cypress Rd Suite A","city":"Cypress","state":"TX","zipCode":"77433-1870","phone":"(281) 304-4744","fax":"(281) 304-4790","webSite":""},{"name":"Handy, Ken B,","street":"1502 N Zaragoza Rd ","city":"El Paso","state":"TX","zipCode":"79936-7905","phone":"(480) 607-9999","fax":"","webSite":""},{"name":"Haneef, Salma","street":"3501 Fm 407 E Ste 200 ","city":"Lantana","state":"TX","zipCode":"76226-9769","phone":"(940) 489-1660","fax":"","webSite":""},{"name":"Hanesworth, John Albert","street":"1445 Somerset Rd #4","city":"San Antonio","state":"TX","zipCode":"78211-3007","phone":"(210) 922-4275","fax":"(210) 922-4275","webSite":""},{"name":"Haney, George Brooks","street":"2400 Lakeside Blvd Suite 700","city":"Richardson","state":"TX","zipCode":"75082-4341","phone":"(972) 644-9595","fax":"(972) 644-9597","webSite":""},{"name":"Haney, Robert Randolph","street":"401 B Fifth St ","city":"Waxahachie","state":"TX","zipCode":"75165","phone":"(972) 937-9671","fax":"(972) 937-9672","webSite":""},{"name":"Hanftwurzel, Bryan","street":"2410 Stanley Road Dentac Suite 200J","city":"Fort Sam Houston","state":"TX","zipCode":"78234-6230","phone":"(210) 295-2743","fax":"(210) 295-2602","webSite":""},{"name":"Hangal, Supritha","street":"3200 Andrews Hwy Suite 400","city":"Midland","state":"TX","zipCode":"79701-3896","phone":"(888) 988-4066","fax":"(847) 496-7603","webSite":""},{"name":"Hani Tabaei Zavareh, Neda","street":"10900 Twisted Elm Dr ","city":"Austin","state":"TX","zipCode":"78726-2369","phone":"(415) 636-0304","fax":"","webSite":""},{"name":"Oral Health Solutions","street":"5340 Belt Line Rd ","city":"Dallas","state":"TX","zipCode":"75254-7682","phone":"(469) 547-2250","fax":"(469) 547-2264","webSite":""},{"name":"Hanle, Arlen John","street":"4105 Westbank Dr #103","city":"Austin","state":"TX","zipCode":"78746","phone":"(512) 327-6908","fax":"(512) 327-6695","webSite":""},{"name":"Hanna, Jamilee D","street":"12335 Hymeadow Dr Suite 250","city":"Austin","state":"TX","zipCode":"78750-1934","phone":"(512) 250-5012","fax":"(512) 219-8510","webSite":""},{"name":"Hanna, Kelly Don","street":"5604 Mcardle Rd ","city":"Corpus Christi","state":"TX","zipCode":"78412-3427","phone":"(361) 993-0421","fax":"(361) 985-9299","webSite":""},{"name":"Spring Smiles Dental Group And Orthodontics","street":"2150 Fm 2920 Rd Ste A ","city":"Spring","state":"TX","zipCode":"77388-3681","phone":"(281) 350-1837","fax":"(281) 353-2490","webSite":""},{"name":"Hansard, Richard Franklin","street":"701 Ave C ","city":"Valley Mills","state":"TX","zipCode":"76689","phone":"(254) 932-6404","fax":"(254) 932-6404","webSite":""},{"name":"Hansen, Bennett Lee","street":"10600 Bellaire Blvd Suite 102","city":"Houston","state":"TX","zipCode":"77072-5231","phone":"(281) 495-9080","fax":"","webSite":""},{"name":"Hansen, Cecil","street":"3326 Elsie Faye Heggins St # 100 ","city":"Dallas","state":"TX","zipCode":"75215-4437","phone":"(214) 718-1429","fax":"","webSite":""},{"name":"Hansen, Fred M","street":"909 Frostwood Dr Ste 160 ","city":"Houston","state":"TX","zipCode":"77024-2308","phone":"(713) 461-6161","fax":"","webSite":""},{"name":"Hansen, Jarom","street":"Bldg 39033 Support Ave ","city":"Fort Hood","state":"TX","zipCode":"76544-4752","phone":"(254) 288-7830","fax":"","webSite":""},{"name":"Hansen, Kyle S","street":"2771 E Broad St Ste 221 ","city":"Mansfield","state":"TX","zipCode":"76063-9157","phone":"(972) 975-2606","fax":"","webSite":""},{"name":"Hansen-Bunch, Marcie Ann","street":"1110 W Shore Dr Ste 300E ","city":"Richardson","state":"TX","zipCode":"75080-4054","phone":"(972) 235-3675","fax":"(972) 235-3905","webSite":""},{"name":"Hanson, William Grant","street":"6013 Wedgwood Dr ","city":"Fort Worth","state":"TX","zipCode":"76133-2770","phone":"(817) 292-1442","fax":"(817) 292-1503","webSite":""},{"name":"Hao Cheng Pllc","street":"415 Westheimer Rd Ste 209 ","city":"Houston","state":"TX","zipCode":"77006-3058","phone":"(512) 560-5649","fax":"","webSite":""},{"name":"Hao, Jin","street":"2640 E League City Pkwy Ste 108 ","city":"League City","state":"TX","zipCode":"77573","phone":"(281) 334-5109","fax":"","webSite":""},{"name":"Hapii Dental","street":"9300 Lamar Blvd Suite A","city":"Austin","state":"TX","zipCode":"78753-4104","phone":"(512) 832-6840","fax":"","webSite":""},{"name":"Happy Dental, P.A.","street":"5713 Bissonnet St Suite D&E","city":"Bellaire","state":"TX","zipCode":"77401-4726","phone":"(713) 378-4322","fax":"","webSite":""},{"name":"Happy Teeth Dental Centers","street":"4731 E Lancaster Ave ","city":"Fort Worth","state":"TX","zipCode":"76103-3835","phone":"(817) 496-0400","fax":"(817) 887-4600","webSite":""},{"name":"Happy Teeth Dental Centers Of Dallas Pc","street":"2020 N Masters Dr Suite #100 ","city":"Dallas","state":"TX","zipCode":"75217","phone":"(972) 285-2600","fax":"","webSite":""},{"name":"Happy Teeth Dental Centers Of Mesquite Pc","street":"525 N Galloway Ave Suite 507","city":"Mesquite","state":"TX","zipCode":"75149","phone":"(972) 285-2600","fax":"(972) 285-2605","webSite":""},{"name":"Haque, Nazia H","street":"701 W Bailey Boswell Rd Suite A","city":"Saginaw","state":"TX","zipCode":"76179-1007","phone":"(817) 367-6453","fax":"(817) 847-1194","webSite":""},{"name":"Harapanahalli, Savitha","street":"1125 Legacy Dr Ste 200 ","city":"Frisco","state":"TX","zipCode":"75034-1943","phone":"(972) 668-8200","fax":"(972) 668-7575","webSite":""},{"name":"Hardcastle, Michael","street":"761 S Macarthur Blvd Ste 117","city":"Coppell","state":"TX","zipCode":"75019-4227","phone":"(972) 393-9700","fax":"","webSite":""},{"name":"Hardee, Clinton Roy","street":"3501 S Soncy Rd Suite 123","city":"Amarillo","state":"TX","zipCode":"79119-6407","phone":"(806) 352-2800","fax":"(806) 352-8592","webSite":""},{"name":"Harden, Celie Ruhnke","street":"11623 Angus Rd #11","city":"Austin","state":"TX","zipCode":"78759","phone":"(512) 338-4420","fax":"(512) 338-1549","webSite":""},{"name":"Harden, Jan Raymond","street":"2539 S Gessner Rd #1","city":"Houston","state":"TX","zipCode":"77063-2034","phone":"(713) 784-4050","fax":"(713) 784-5035","webSite":""},{"name":"Harden, Jeffrey","street":"3400 Bissonnet St Ste 200 ","city":"Houston","state":"TX","zipCode":"77005-2100","phone":"(713) 524-9373","fax":"(713) 524-7946","webSite":""},{"name":"Harden, Matthew Curtis","street":"2014 Justin Rd Ste 110","city":"Highland Village","state":"TX","zipCode":"75077","phone":"(972) 317-3000","fax":"(972) 317-9151","webSite":""},{"name":"Hardin, Jordan Gregory","street":"4515 Van Winkle Dr ","city":"Amarillo","state":"TX","zipCode":"79119-6423","phone":"(806) 358-0368","fax":"","webSite":""},{"name":"Hardy Oak Family Dentistry Pllc","street":"23522 Wilderness Oak Ste 107 ","city":"San Antonio","state":"TX","zipCode":"78258-2409","phone":"(213) 440-2132","fax":"","webSite":""},{"name":"Hardy, Mark King","street":"90 Wilson Rd ","city":"Humble","state":"TX","zipCode":"77338-3922","phone":"(281) 446-7353","fax":"","webSite":""},{"name":"Hardy, Robert Granville","street":"5068 W Plano Pkwy Suite 210","city":"Plano","state":"TX","zipCode":"75093-4408","phone":"(972) 818-8080","fax":"(972) 818-8485","webSite":""},{"name":"Hardy, Timothy James","street":"17020 San Pedro Ave Suite 130","city":"San Antonio","state":"TX","zipCode":"78232-2263","phone":"(210) 494-1717","fax":"(210) 494-1127","webSite":""},{"name":"Hargis, Cynthia Lafond","street":"401 W San Augustine ","city":"Deer Park","state":"TX","zipCode":"77536-4029","phone":"(281) 930-8744","fax":"(281) 930-1248","webSite":""},{"name":"Hargis, Sam Edward","street":"820 Nolana #D ","city":"Mcallen","state":"TX","zipCode":"78504","phone":"(956) 686-1681","fax":"","webSite":""},{"name":"Hargis, Theral Brent","street":"1011 N 4Th St ","city":"Longview","state":"TX","zipCode":"75601-4738","phone":"(903) 753-0570","fax":"","webSite":""},{"name":"Hariharan, Govind","street":"5024 N Jupiter Rd ","city":"Garland","state":"TX","zipCode":"75044-5465","phone":"(972) 414-6432","fax":"(972) 530-2402","webSite":""},{"name":"Harkins, Hancock And Johnston Dentistry","street":"11010 Quaker Ave ","city":"Lubbock","state":"TX","zipCode":"79424-8316","phone":"(806) 797-6453","fax":"(806) 791-2273","webSite":""},{"name":"Harkins, Joe A","street":"11010 Quaker Ave ","city":"Lubbock","state":"TX","zipCode":"79424-8316","phone":"(806) 767-6453","fax":"(806) 791-2273","webSite":""},{"name":"Harlan, Curt R","street":"714 W Goodwin St ","city":"Pleasanton","state":"TX","zipCode":"78064-4018","phone":"(830) 569-4746","fax":"(830) 281-4700","webSite":""},{"name":"Harlin, Justin Blake","street":"3600 Hulen St Bldg. D","city":"Fort Worth","state":"TX","zipCode":"76107-6863","phone":"(817) 732-6622","fax":"(817) 732-6639","webSite":""},{"name":"Harlingen Heights Dental","street":"2310 Spur 54 Ste 6 ","city":"Harlingen","state":"TX","zipCode":"78552-0095","phone":"(956) 392-9497","fax":"","webSite":""},{"name":"Harman, Kurt","street":"900 Corsicana Hwy ","city":"Hillsboro","state":"TX","zipCode":"76645-2928","phone":"(254) 582-8191","fax":"","webSite":""},{"name":"Harmon, Dana K","street":"8400 Blanco Rd Ste. 208","city":"San Antonio","state":"TX","zipCode":"78216-3055","phone":"(210) 349-5867","fax":"(210) 349-5869","webSite":""},{"name":"Harmon, John Bradley","street":"3631 Maplewood Ave Suite #3","city":"Wichita Falls","state":"TX","zipCode":"76308-2149","phone":"(940) 692-1530","fax":"(940) 723-8550","webSite":""},{"name":"Harmon, Mimi Butterfly","street":"2000 Boca Chica Blvd. Ste 300","city":"Brownsville","state":"TX","zipCode":"78521","phone":"(956) 550-9982","fax":"(956) 550-9519","webSite":""},{"name":"Harmony Dental","street":"8209 Fuqua St. #D ","city":"Houston","state":"TX","zipCode":"77089","phone":"(713) 944-4901","fax":"(713) 944-4900","webSite":""},{"name":"Harmony Family Dental","street":"3804 Broadway St ","city":"Houston","state":"TX","zipCode":"77017-3023","phone":"(713) 644-2494","fax":"(713) 644-2475","webSite":""},{"name":"Harold H. Reed Jr Dds Inc","street":"1614 Scripture St Ste 13 ","city":"Denton","state":"TX","zipCode":"76201-3838","phone":"(940) 387-5655","fax":"","webSite":""},{"name":"Harounpour, Sanaz","street":"1800 Bomar St ","city":"Marshall","state":"TX","zipCode":"75670-6728","phone":"(903) 938-5900","fax":"","webSite":""},{"name":"Harpalani, Monti","street":"11560 Fm 1960 Rd W Ste 200 ","city":"Houston","state":"TX","zipCode":"77065-4257","phone":"(281) 809-4902","fax":"(281) 477-7497","webSite":""},{"name":"Harper, Alan E.","street":"3626 Aldine Mail Rt. ","city":"Houston","state":"TX","zipCode":"77039","phone":"(281) 442-0912","fax":"","webSite":""},{"name":"Harper, Eugene Windle","street":"711 Hospital Dr ","city":"Andrews","state":"TX","zipCode":"79714-3616","phone":"(432) 523-3194","fax":"(432) 523-6446","webSite":""},{"name":"Harper, Kimberly D","street":"3204 N Macarthur Blvd Ste C ","city":"Irving","state":"TX","zipCode":"75062-8804","phone":"(972) 258-6462","fax":"(972) 258-6477","webSite":""},{"name":"Harrell, Milvern R","street":"374 Casa Linda Plz ","city":"Dallas","state":"TX","zipCode":"75218-3414","phone":"(214) 324-0233","fax":"(214) 328-4941","webSite":""},{"name":"Harrell, Raymond King","street":"6502 Garth Rd Ste 100","city":"Baytown","state":"TX","zipCode":"77521-9888","phone":"(713) 490-8880","fax":"(713) 490-6464","webSite":""},{"name":"Harrell, Sean Michael","street":"5555 N Mesa St Ste 100 ","city":"El Paso","state":"TX","zipCode":"79912-5492","phone":"(915) 584-4433","fax":"(915) 584-2716","webSite":""},{"name":"Harrell, Tyson","street":"1628 Crabb River Rd Suite B","city":"Richmond","state":"TX","zipCode":"77469-5634","phone":"(281) 937-1671","fax":"(281) 545-2572","webSite":""},{"name":"Killeen Dental Group","street":"421 N 38Th St ","city":"Killeen","state":"TX","zipCode":"76543-4153","phone":"(254) 634-0234","fax":"","webSite":""},{"name":"Spring Creek Dental Group","street":"24230 Kuykendahl Road Suite 300","city":"Spring","state":"TX","zipCode":"77389","phone":"(281) 255-2224","fax":"(281) 255-2228","webSite":""},{"name":"Harris, Brandi Burgan","street":"117 N Grafton St ","city":"Dublin","state":"TX","zipCode":"76446-1907","phone":"(254) 445-2442","fax":"","webSite":""},{"name":"Harris, Christiana","street":"938 E Highway 67 ","city":"Duncanville","state":"TX","zipCode":"75137-2706","phone":"(972) 572-5990","fax":"","webSite":""},{"name":"Harris, David S","street":"1760 Rufe Snow Dr ","city":"Keller","state":"TX","zipCode":"76248-5628","phone":"(817) 498-3889","fax":"(817) 281-2810","webSite":""},{"name":"Harris, Devon Jarrod","street":"7333 E Hwy 290 ","city":"Austin","state":"TX","zipCode":"78723-1526","phone":"(512) 453-3879","fax":"","webSite":""},{"name":"Harris, Edgar G","street":"7320 N Mo Pac #200","city":"Austin","state":"TX","zipCode":"78731","phone":"(512) 345-5885","fax":"(512) 345-5647","webSite":""},{"name":"Harris, Gary L.","street":"9400 N Central Expy Ste 220","city":"Dallas","state":"TX","zipCode":"75231-5061","phone":"(214) 368-0514","fax":"(214) 368-3426","webSite":""},{"name":"Harris, Isaiah L","street":"1723 N Avenue K ","city":"Freeport","state":"TX","zipCode":"77541-3605","phone":"(979) 233-1581","fax":"(979) 233-8355","webSite":""},{"name":"Harris, James Patrick","street":"809 Singleton Blvd ","city":"Dallas","state":"TX","zipCode":"75212-4014","phone":"(214) 651-8739","fax":"(214) 379-2281","webSite":""},{"name":"Harris, John Croom","street":"4200 Bryant Irvin Rd Ste 107","city":"Benbrook","state":"TX","zipCode":"76109-4212","phone":"(817) 732-4041","fax":"","webSite":""},{"name":"Harris, Michael Eugene","street":"421 N 38Th St ","city":"Killeen","state":"TX","zipCode":"76543-4153","phone":"(254) 634-0234","fax":"(254) 634-0234","webSite":""},{"name":"Harris, Richard B.","street":"7058 Fm 1960 Rd E ","city":"Humble","state":"TX","zipCode":"77346-2704","phone":"(281) 852-2288","fax":"(281) 852-0574","webSite":""},{"name":"Harris, Seth Adam","street":"308 Main St Ste A ","city":"Marble Falls","state":"TX","zipCode":"78654-5715","phone":"(830) 798-0844","fax":"(830) 798-0744","webSite":""},{"name":"Harris, Stacey Cameron","street":"977 State Highway 121 Suite 190","city":"Allen","state":"TX","zipCode":"75013-6016","phone":"(972) 727-4800","fax":"(972) 727-4802","webSite":""},{"name":"Harris, Suzan Vannella","street":"2300 E Rancier Ave Suite 110","city":"Killeen","state":"TX","zipCode":"76543","phone":"(254) 781-8177","fax":"","webSite":""},{"name":"Harrison, Craig Edward","street":"3302 Gaston Ave ","city":"Dallas","state":"TX","zipCode":"75246-2013","phone":"(214) 828-8170","fax":"","webSite":""},{"name":"Harrison, Crista Kay","street":"2299 Northwest Loop ","city":"Stephenville","state":"TX","zipCode":"76401-1701","phone":"(254) 968-6300","fax":"","webSite":""},{"name":"Harrison, Gregory Erron","street":"1801 4Th Ave ","city":"Canyon","state":"TX","zipCode":"79015-3853","phone":"(806) 655-1104","fax":"(806) 655-7453","webSite":""},{"name":"Harrison, Jana Lee","street":"6940 Coit Rd Suite 200","city":"Plano","state":"TX","zipCode":"75023-1004","phone":"(972) 491-2677","fax":"(972) 491-3121","webSite":""},{"name":"Harrison, Robert M.","street":"5703 Martin Luther King Blvd. ","city":"Houston","state":"TX","zipCode":"77021","phone":"(713) 644-6594","fax":"(713) 644-1477","webSite":""},{"name":"Harrison, Robin Lynn","street":"2299 Northwest Loop ","city":"Stephenville","state":"TX","zipCode":"76401-1701","phone":"(254) 968-6300","fax":"","webSite":""},{"name":"Harrison, Thomas C","street":"21715 Kingsland Blvd Suite 105","city":"Katy","state":"TX","zipCode":"77450-2543","phone":"(281) 492-6064","fax":"","webSite":""},{"name":"Harrison, Waun Ross","street":"2126 Virginia St Suite 1","city":"Grand Prairie","state":"TX","zipCode":"75051-3764","phone":"(972) 264-2466","fax":"(972) 264-2469","webSite":""},{"name":"Harroff, Kristen Michelle","street":"15731 Fm 2920 Rd ","city":"Tomball","state":"TX","zipCode":"77377-6149","phone":"(281) 516-9919","fax":"","webSite":""},{"name":"Vintage Park Dentistry","street":"10850 Louetta Rd. Suite 800","city":"Houston","state":"TX","zipCode":"77070","phone":"(623) 640-1153","fax":"","webSite":""},{"name":"Hart, Dwayne Eugene","street":"2253 N Loop 336 W Suite A","city":"Conroe","state":"TX","zipCode":"77304-3586","phone":"(936) 539-2121","fax":"","webSite":""},{"name":"Hart, Robert L.","street":"407 Forest Grove Dr ","city":"Richardson","state":"TX","zipCode":"75080-1835","phone":"(972) 566-6447","fax":"(972) 566-6392","webSite":""},{"name":"Hart, Tyler R","street":"110 W Collin St ","city":"Leonard","state":"TX","zipCode":"75452-2642","phone":"(903) 587-0506","fax":"(903) 587-0509","webSite":""},{"name":"Hartley, Katrina L","street":"3252 Fall Creek Hwy ","city":"Granbury","state":"TX","zipCode":"76049-7979","phone":"(817) 326-5717","fax":"(817) 326-5714","webSite":""},{"name":"Hartman, Amanda","street":"1583 E Common St Ste 202 ","city":"New Braunfels","state":"TX","zipCode":"78130-3174","phone":"(830) 629-1954","fax":"","webSite":""},{"name":"Harvard Avenue Dental Care Pa","street":"3131 Harvard Avenue Suite 107","city":"Dallas","state":"TX","zipCode":"75205","phone":"(214) 521-2258","fax":"(214) 521-3425","webSite":""},{"name":"Harvest Dental, Pllc","street":"1704 W Audie Murphy Pkwy ","city":"Farmersville","state":"TX","zipCode":"75442-2753","phone":"(469) 812-7100","fax":"(469) 519-0610","webSite":""},{"name":"Hasan, Syed Asad","street":"7575 San Felipe St #300","city":"Houston","state":"TX","zipCode":"77063-1711","phone":"(713) 782-2234","fax":"","webSite":""},{"name":"Haseloff, Andrea Beth","street":"1862 Tx-46 Suite 101","city":"New Braunfels","state":"TX","zipCode":"78132","phone":"(830) 308-5567","fax":"","webSite":""},{"name":"Hashem, Mohannad","street":"5105 Eldorado Pkwy Suite 150","city":"Frisco","state":"TX","zipCode":"75034-8674","phone":"(214) 387-0745","fax":"","webSite":""},{"name":"Hashmi Dental Group, Inc.","street":"1214 E Houston St ","city":"Cleveland","state":"TX","zipCode":"77327-4754","phone":"(281) 593-3300","fax":"","webSite":""},{"name":"Hashmi, Zayd M","street":"6300 West Loop S Ste 650 ","city":"Bellaire","state":"TX","zipCode":"77401-2997","phone":"(713) 663-7960","fax":"(713) 663-6948","webSite":""},{"name":"Big Country Family Dental","street":"601 S 1St St ","city":"Haskell","state":"TX","zipCode":"79521-5635","phone":"(940) 864-3485","fax":"(940) 864-3653","webSite":""},{"name":"Haslet Family Dental Pllc","street":"2412 Avondale Haslet Ro. Suite 100","city":"Fort Worth","state":"TX","zipCode":"76052","phone":"(682) 990-2800","fax":"","webSite":""},{"name":"Hassan, Mohamed","street":"3811 Center St ","city":"Deer Park","state":"TX","zipCode":"77536-6596","phone":"(281) 479-7333","fax":"","webSite":""},{"name":"Hassan, Richard G","street":"5892B Eastex Fwy ","city":"Beaumont","state":"TX","zipCode":"77708-4824","phone":"(830) 278-5604","fax":"(830) 278-1836","webSite":""},{"name":"Hasse, Brian Lee","street":"1211 Loop 11 ","city":"Wichita Falls","state":"TX","zipCode":"76306-6800","phone":"(940) 855-3435","fax":"(940) 855-3835","webSite":""},{"name":"Hassinger, Mark W","street":"6937 Bell St Ste. B","city":"Amarillo","state":"TX","zipCode":"79109-7018","phone":"(806) 353-1704","fax":"(806) 353-9477","webSite":""},{"name":"Hassler, Brian","street":"2401 S Stemmons Fwy Ste 1258 ","city":"Lewisville","state":"TX","zipCode":"75067-2321","phone":"(214) 221-4867","fax":"","webSite":""},{"name":"Hasson, Kenneth A","street":"17240 Mill Forest Rd Ste C ","city":"Webster","state":"TX","zipCode":"77598-4366","phone":"(281) 204-8100","fax":"","webSite":""},{"name":"Hastings, Christopher R","street":"2810 Dacy Ln ","city":"Kyle","state":"TX","zipCode":"78640-6322","phone":"(512) 268-8900","fax":"(512) 268-2250","webSite":""},{"name":"Hastings, David Neal","street":"2606 Bens Branch Drive A ","city":"Kingwood","state":"TX","zipCode":"77339","phone":"(281) 358-3843","fax":"","webSite":""},{"name":"Hatashima, Andrew","street":"2604 Aldrich St ","city":"Austin","state":"TX","zipCode":"78723-3484","phone":"(512) 843-7768","fax":"","webSite":""},{"name":"Hatch, Brian","street":"15950 Eldorado Pkwy Suite 100","city":"Frisco","state":"TX","zipCode":"75035-5802","phone":"(972) 542-5438","fax":"","webSite":""},{"name":"Hatcher, John Daniel","street":"3421 Burke Rd ","city":"Pasadena","state":"TX","zipCode":"77504-1975","phone":"(713) 944-2836","fax":"(713) 944-8620","webSite":""},{"name":"Hatchett And Thompson Dds","street":"408 Wynn Dr ","city":"Jacksonville","state":"TX","zipCode":"75766-4976","phone":"(903) 586-6829","fax":"","webSite":""},{"name":"Hatfield, Lawrence J.","street":"220 W Guadalupe St ","city":"La Grange","state":"TX","zipCode":"78945-1926","phone":"(979) 206-2221","fax":"(979) 206-2225","webSite":""},{"name":"Hathaway, Jennifer Ann","street":"1719 Broadmoor Dr ","city":"Bryan","state":"TX","zipCode":"77802-5210","phone":"(979) 776-6884","fax":"(979) 774-3008","webSite":""},{"name":"Hathuc, Nguyen Bao","street":"462 S Mason Rd Ste 200 ","city":"Katy","state":"TX","zipCode":"77450-2450","phone":"(281) 395-3555","fax":"","webSite":""},{"name":"Hattaway, Richard Shad","street":"6452 Broadway Boulevard ","city":"Garland","state":"TX","zipCode":"75043","phone":"(972) 226-6945","fax":"(972) 226-6608","webSite":""},{"name":"Hatten, John H","street":"603 E 6Th St ","city":"Odessa","state":"TX","zipCode":"79761-4528","phone":"(432) 332-8300","fax":"(432) 332-8301","webSite":""},{"name":"Hausenfluck, Denise","street":"1214 Dixieland Rd Suite #4","city":"Harlingen","state":"TX","zipCode":"78552-3351","phone":"(956) 428-5322","fax":"(956) 428-7986","webSite":""},{"name":"Hauser, Adam Jordan","street":"1202 E Sonterra Blvd Suite 402","city":"San Antonio","state":"TX","zipCode":"78258-4089","phone":"(210) 341-4409","fax":"","webSite":""},{"name":"Hauser, David N","street":"3120 S Alameda St ","city":"Corpus Christi","state":"TX","zipCode":"78404-2506","phone":"(361) 887-6200","fax":"(361) 887-8084","webSite":""},{"name":"Murphy Dental","street":"170 E Fm 544 100","city":"Murphy","state":"TX","zipCode":"75094-4000","phone":"(972) 422-5959","fax":"(972) 422-5994","webSite":""},{"name":"Hawkins, Aaron Brent","street":"3611 S Georgia St ","city":"Amarillo","state":"TX","zipCode":"79109-4847","phone":"(806) 353-4361","fax":"","webSite":""},{"name":"Hawkins, Chet Baron","street":"1250 Bay Area Blvd ","city":"Houston","state":"TX","zipCode":"77058-2545","phone":"(281) 488-4242","fax":"(281) 488-5516","webSite":""},{"name":"Hawkins, Kasey Amanda","street":"3004 N Closner Blvd Suite C","city":"Edinburg","state":"TX","zipCode":"78541-7237","phone":"(956) 383-8833","fax":"","webSite":""},{"name":"Hawkins, Robert L.","street":"100 S Magnolia St ","city":"Pottsboro","state":"TX","zipCode":"75076-3058","phone":"(903) 786-9667","fax":"(903) 786-9691","webSite":""},{"name":"Hay, John Morgan","street":"1800 Bering Dr Ste 650 ","city":"Houston","state":"TX","zipCode":"77057-3170","phone":"(713) 784-2952","fax":"(713) 784-3331","webSite":""},{"name":"Hayashi, Richard J","street":"901 S Mo Pac Expy Bldg 1 Ste 470 ","city":"Austin","state":"TX","zipCode":"78746-5776","phone":"(512) 327-6947","fax":"(512) 329-6472","webSite":""},{"name":"Hayes General & Cosmetic Dentistry","street":"717 N Holland Rd Ste 120 ","city":"Mansfield","state":"TX","zipCode":"76063-8684","phone":"(682) 518-5003","fax":"(682) 518-0116","webSite":""},{"name":"Hayes, Carter","street":"2430 S Interstate 35 E Ste 178 ","city":"Denton","state":"TX","zipCode":"76205-4944","phone":"(940) 891-0389","fax":"","webSite":""},{"name":"Hayes, Scott","street":"717 N Holland Rd Suite 120","city":"Mansfield","state":"TX","zipCode":"76063-9006","phone":"(682) 518-5003","fax":"(682) 518-0116","webSite":""},{"name":"Gentle Dental","street":"3740 S University Dr Suite 203","city":"Fort Worth","state":"TX","zipCode":"76109-3700","phone":"(817) 924-0223","fax":"","webSite":""},{"name":"Haynes Dental Pllc","street":"1530 Texas Ave S 300","city":"College Station","state":"TX","zipCode":"77840-3329","phone":"(979) 599-5554","fax":"","webSite":""},{"name":"Haynes, Milburn Sidney","street":"4330 Mcknight Rd ","city":"Texarkana","state":"TX","zipCode":"75503-0923","phone":"(903) 838-9700","fax":"(903) 832-3505","webSite":""},{"name":"Haynes, Morgan","street":"245 Interstate 45 S Ste D ","city":"Huntsville","state":"TX","zipCode":"77340-4986","phone":"(936) 649-8137","fax":"","webSite":""},{"name":"Hays, Bart Wayne","street":"2040 Fm 663 Ste 420 ","city":"Midlothian","state":"TX","zipCode":"76065-6509","phone":"(972) 528-4802","fax":"","webSite":""},{"name":"Hays, Michael Patrick","street":"2954 Carrington Rd ","city":"Fort Bliss","state":"TX","zipCode":"79916","phone":"(915) 742-3303","fax":"","webSite":""},{"name":"Hays, Stephen Craig","street":"3330 N Galloway Ave Ste 158","city":"Mesquite","state":"TX","zipCode":"75150-4728","phone":"(972) 613-0004","fax":"","webSite":""},{"name":"Hcdc Professionals Pllc","street":"7007 North Fwy Suite 400","city":"Houston","state":"TX","zipCode":"77076-1324","phone":"(713) 481-9500","fax":"(713) 481-9534","webSite":""},{"name":"He, Howard","street":"1404 Brown Trl Ste C ","city":"Bedford","state":"TX","zipCode":"76022-6417","phone":"(817) 510-2960","fax":"","webSite":""},{"name":"He, Jing","street":"5416 Basswood Blvd ","city":"Fort Worth","state":"TX","zipCode":"76137-4400","phone":"(817) 656-1215","fax":"(877) 230-8349","webSite":""},{"name":"Dental Republic","street":"3211 W Northwest Hwy Ste 100","city":"Dallas","state":"TX","zipCode":"75220-5944","phone":"(214) 351-0590","fax":"","webSite":""},{"name":"Healthsync Dental","street":"1331 W Grand Pkwy N 145","city":"Katy","state":"TX","zipCode":"77493-2710","phone":"(832) 436-0351","fax":"(800) 652-8206","webSite":""},{"name":"Healthy Dental, Pa","street":"16506 Fm 529 Rd Suite 117","city":"Houston","state":"TX","zipCode":"77095-1416","phone":"(281) 656-2500","fax":"(281) 656-2518","webSite":""},{"name":"Healthy Smile Dental, Pa","street":"20300 Franz Rd Suite #1","city":"Katy","state":"TX","zipCode":"77449-5600","phone":"(832) 321-4210","fax":"(832) 321-4392","webSite":""},{"name":"Healthy Smiles Pllc","street":"1123 E 9Th St Suite 10-A","city":"Mission","state":"TX","zipCode":"78572-4404","phone":"(956) 581-7000","fax":"","webSite":""},{"name":"Heard, Rachel Catherine","street":"107 Professional Park Dr ","city":"Victoria","state":"TX","zipCode":"77904-2351","phone":"(361) 575-4508","fax":"","webSite":""},{"name":"Heard, Richard Holmes","street":"107 Professional Park Dr ","city":"Victoria","state":"TX","zipCode":"77904-2351","phone":"(361) 575-4508","fax":"(361) 575-8112","webSite":""},{"name":"Heart Dental Pllc","street":"345 W Fm 544 Ste 100B ","city":"Murphy","state":"TX","zipCode":"75094-4408","phone":"(469) 969-0169","fax":"","webSite":""},{"name":"Riverside Dental Clinic","street":"225 W Waco Dr ","city":"Waco","state":"TX","zipCode":"76707-3836","phone":"(254) 750-5487","fax":"","webSite":""},{"name":"Virginia Parkway Dental Care","street":"2411 Virginia Pkwy Ste 2 ","city":"Mckinney","state":"TX","zipCode":"75071-3508","phone":"(972) 540-2800","fax":"(972) 542-1182","webSite":""},{"name":"Gemma Tanglao Dalton, D.D.S.","street":"2307 Central Dr ","city":"Bedford","state":"TX","zipCode":"76021-7748","phone":"(817) 571-1667","fax":"(817) 887-1212","webSite":""},{"name":"Granbury Dental Center- Pecan Plantation","street":"9205 Plantation Blvd Ste 105 ","city":"Granbury","state":"TX","zipCode":"76049-4109","phone":"(817) 579-1114","fax":"(817) 573-9090","webSite":""},{"name":"Heath, Willaim Andrew","street":"128 Chaffee Road ","city":"Fort Bliss","state":"TX","zipCode":"79906-3811","phone":"(915) 569-2111","fax":"","webSite":""},{"name":"Heather Feray Bohan Dds Pa","street":"720 Lawrence St Suite 200","city":"Tomball","state":"TX","zipCode":"77375","phone":"(281) 357-5002","fax":"(281) 255-3016","webSite":""},{"name":"Heaton, Bevan Wayne","street":"1501 W. Miller Road Suite 180","city":"Garland","state":"TX","zipCode":"75041","phone":"(972) 696-9273","fax":"(972) 271-1969","webSite":""},{"name":"Heaton, Jarom Cooper","street":"1608 Oak Forest Dr ","city":"Round Rock","state":"TX","zipCode":"78681-1513","phone":"(512) 909-3171","fax":"","webSite":""},{"name":"Heaton, Travis Glenn","street":"4700 Kinsey Dr ","city":"Tyler","state":"TX","zipCode":"75703-1009","phone":"(903) 245-9413","fax":"","webSite":""},{"name":"Asana Dental","street":"1434 N Central Expy Suite 121","city":"Mckinney","state":"TX","zipCode":"75070-3106","phone":"(972) 542-4402","fax":"(972) 542-2553","webSite":""},{"name":"Hebron Family Dental & Orthodontics","street":"2501 E Hebron Pkwy Suite 500","city":"Carrollton","state":"TX","zipCode":"75010-4468","phone":"(972) 306-2400","fax":"","webSite":""},{"name":"Hebron Smiles","street":"1745 E Hebron Pkwy 120&124","city":"Carrollton","state":"TX","zipCode":"75010-2143","phone":"(267) 442-8765","fax":"","webSite":""},{"name":"Heck, Annalisa Marie","street":"6801 S Ih 35 Suite 1-D","city":"Austin","state":"TX","zipCode":"78744-4824","phone":"(512) 608-4420","fax":"(512) 608-4424","webSite":""},{"name":"Heck, Matthew James","street":"4410 E Riverside Dr ","city":"Austin","state":"TX","zipCode":"78741-4799","phone":"(512) 282-7200","fax":"(512) 282-7204","webSite":""},{"name":"Hector Alvarez D.D.S.,P.A.","street":"1606 E Garrison St ","city":"Eagle Pass","state":"TX","zipCode":"78852-4932","phone":"(830) 757-1500","fax":"","webSite":""},{"name":"Hector Lopez, D.D.S., P.C.","street":"4151 Jaime Zapata Memorial Hwy Suite 210","city":"Laredo","state":"TX","zipCode":"78043-4725","phone":"(956) 727-3593","fax":"(956) 791-3743","webSite":""},{"name":"Heczko, William G","street":"26 Hwy 27 ","city":"Comfort","state":"TX","zipCode":"78013-0568","phone":"(830) 995-2834","fax":"(830) 995-3518","webSite":""},{"name":"Hedayat Anbar D.D.S.. Pa","street":"4520 Frankford Rd Ste 900 ","city":"Dallas","state":"TX","zipCode":"75287-6859","phone":"(972) 818-5551","fax":"","webSite":""},{"name":"Hedayat, Kasra","street":"811 S Central Expy ","city":"Richardson","state":"TX","zipCode":"75080-7415","phone":"(972) 235-0300","fax":"","webSite":""},{"name":"Hederman, John Joseph","street":"2548 Memorial Blvd ","city":"Port Arthur","state":"TX","zipCode":"77640-2825","phone":"(409) 983-1161","fax":"(409) 983-4933","webSite":""},{"name":"Hedge, Thomas K","street":"800 Bering Dr Ste 340 ","city":"Houston","state":"TX","zipCode":"77057-2131","phone":"(713) 782-4174","fax":"(713) 583-1265","webSite":""},{"name":"Hedgecock, Michelle Renee","street":"1008 Mopac Circle Suite 100","city":"Austin","state":"TX","zipCode":"78746-7874","phone":"(512) 501-2385","fax":"(512) 233-2636","webSite":""},{"name":"Affordable Smiles","street":"23741 Hwy 59 Ste #1","city":"Porter","state":"TX","zipCode":"77365","phone":"(281) 354-2540","fax":"","webSite":""},{"name":"Hedrick, Jennifer Diane","street":"3121 N George Bush Fwy Suite 113","city":"Garland","state":"TX","zipCode":"75040-2752","phone":"(469) 368-9889","fax":"","webSite":""},{"name":"Heerssen, Nancy E","street":"3300 Bee Cave Road, Ste. 290 ","city":"Austin","state":"TX","zipCode":"78746","phone":"(512) 327-2131","fax":"(512) 327-4581","webSite":""},{"name":"Hegde, Kirankumar","street":"708 Paluxy Rd Suite B","city":"Granbury","state":"TX","zipCode":"76048-2396","phone":"(817) 573-4600","fax":"","webSite":""},{"name":"Heggen, Jessica Cathryne","street":"2221 Harwood Rd ","city":"Bedford","state":"TX","zipCode":"76021","phone":"(817) 283-2871","fax":"(817) 283-1762","webSite":""},{"name":"Heggie, Stephen Turner","street":"3023 Thousand Oaks Dr Ste 110 ","city":"San Antonio","state":"TX","zipCode":"78247-3557","phone":"(210) 497-6700","fax":"(210) 497-6706","webSite":""},{"name":"Hegmann, William Todd","street":"4410 Texas Blvd ","city":"Texarkana","state":"TX","zipCode":"75503-3015","phone":"(903) 794-9974","fax":"(903) 793-6067","webSite":""},{"name":"Heguigorri, Oswaldo","street":"191 E Price Rd ","city":"Brownsville","state":"TX","zipCode":"78521-3527","phone":"(956) 548-7400","fax":"(956) 621-3689","webSite":""},{"name":"Heights Dental Center","street":"201 W Fm 2410 Rd Suite D","city":"Harker Heights","state":"TX","zipCode":"76548-1709","phone":"(254) 699-3359","fax":"(254) 699-0597","webSite":""},{"name":"The Heights Modern Dentistry","street":"1911 Taylor Street Suite D","city":"Houston","state":"TX","zipCode":"77007","phone":"(713) 868-4488","fax":"(713) 861-1116","webSite":""},{"name":"Heinkel, Chrysalis Autry","street":"11021 Old Corpus Christi Hwy ","city":"San Antonio","state":"TX","zipCode":"78223-9363","phone":"(210) 633-0057","fax":"(888) 633-2279","webSite":""},{"name":"Heinnich, David J","street":"103 North Llano ","city":"Fredericksburg","state":"TX","zipCode":"78624","phone":"(830) 997-2550","fax":"(830) 997-2550","webSite":""},{"name":"Heinrich, Robert Allen","street":"1583 Common St Ste 102 ","city":"New Braunfels","state":"TX","zipCode":"78130-3174","phone":"(830) 608-1818","fax":"(830) 608-1273","webSite":""},{"name":"Heinrich-Null, Lisa Ann","street":"507 E Brazos St ","city":"Victoria","state":"TX","zipCode":"77901-5261","phone":"(361) 575-8735","fax":"(361) 572-9840","webSite":""},{"name":"Heizer, Jonathan Ray","street":"915 W Pearl St ","city":"Granbury","state":"TX","zipCode":"76048-2051","phone":"(817) 573-3724","fax":"(817) 573-9251","webSite":""},{"name":"Helal, Ramzey A","street":"7002 Riverbrook Dr Suite 800","city":"Sugar Land","state":"TX","zipCode":"77479-6530","phone":"(281) 343-5656","fax":"(281) 343-5657","webSite":""},{"name":"Heller, Grant","street":"112 Professional Park Dr ","city":"Victoria","state":"TX","zipCode":"77904-2351","phone":"(361) 575-0237","fax":"(361) 572-9807","webSite":""},{"name":"Hello Dental-Princeton Pllc","street":"200 S. Beauchamp Blvd Suite 104","city":"Princeton","state":"TX","zipCode":"75407","phone":"(972) 736-6226","fax":"","webSite":""},{"name":"Helmer, Otice Z","street":"2951 Oak Park Cir ","city":"Fort Worth","state":"TX","zipCode":"76109-1893","phone":"(817) 924-1111","fax":"(817) 924-2888","webSite":""},{"name":"Helmick, Sussan Annita","street":"1812 Durham Dr Ste A ","city":"Houston","state":"TX","zipCode":"77007-2256","phone":"(832) 673-0999","fax":"(281) 657-2406","webSite":""},{"name":"Helotes Cosmetic & Family Dentistry, Pllc","street":"12800 Bandera Rd Suite 100","city":"Helotes","state":"TX","zipCode":"78023-4682","phone":"(210) 372-9090","fax":"","webSite":""},{"name":"Helotes Dental Associates","street":"11866 Bandera Rd ","city":"Helotes","state":"TX","zipCode":"78023-4132","phone":"(210) 695-1105","fax":"","webSite":""},{"name":"Hemani, Moiz","street":"6734 Westheimer Lakes North Dr Ste 103 ","city":"Katy","state":"TX","zipCode":"77494-5713","phone":"(281) 394-2929","fax":"","webSite":""},{"name":"Hemann, Alyson Ilustre","street":"6910 Chetwood Dr Ste B ","city":"Houston","state":"TX","zipCode":"77081-5612","phone":"(281) 451-7886","fax":"","webSite":""},{"name":"Hempstead Dental","street":"641 10Th St Suite C","city":"Hempstead","state":"TX","zipCode":"77445-4528","phone":"(479) 799-5317","fax":"","webSite":""},{"name":"Hemrajani, Savita","street":"50 Sugar Creek Center Blvd Suite 150","city":"Sugar Land","state":"TX","zipCode":"77478-3544","phone":"(832) 947-6800","fax":"","webSite":""},{"name":"Henderson, Chasity Ann","street":"8550 S Braeswood Blvd Suite B","city":"Houston","state":"TX","zipCode":"77071-1109","phone":"(713) 778-0999","fax":"(713) 490-6755","webSite":""},{"name":"Henderson, Danny Lamar","street":"5756 South Staples Suite A","city":"Corpus Christi","state":"TX","zipCode":"78413-3782","phone":"(361) 994-1242","fax":"(361) 994-1864","webSite":""},{"name":"Henderson, Kenneth Mango","street":"8608 Preston Rd Suite 112","city":"Plano","state":"TX","zipCode":"75024-3316","phone":"(888) 749-3297","fax":"","webSite":""},{"name":"Henderson, Luke Anthony","street":"259 E Colorado St ","city":"La Grange","state":"TX","zipCode":"78945-2243","phone":"(979) 968-9451","fax":"","webSite":""},{"name":"Henderson, Robert E.","street":"824 E Redd Rd Ste. 1-B","city":"El Paso","state":"TX","zipCode":"79912-7262","phone":"(915) 833-0303","fax":"","webSite":""},{"name":"Henderson, Robert Michael","street":"6222 W 9Th Ave Amarillo College Dental Clinic","city":"Amarillo","state":"TX","zipCode":"79106-0701","phone":"(806) 356-3639","fax":"","webSite":""},{"name":"Henderson, William Kelly","street":"405 W Broadway St ","city":"Fritch","state":"TX","zipCode":"79036-8636","phone":"(806) 587-3389","fax":"(806) 857-9186","webSite":""},{"name":"Hendricks, Kristen Campbell","street":"1912 W Pecan St Suite A103","city":"Pflugerville","state":"TX","zipCode":"78660-3561","phone":"(512) 989-3200","fax":"(512) 989-3201","webSite":""},{"name":"Hendricks, Robert K","street":"1912 W Pecan St Suite A103","city":"Pflugerville","state":"TX","zipCode":"78660-3561","phone":"(512) 989-3200","fax":"(512) 989-3201","webSite":""},{"name":"Hendrickson, Matthew B","street":"2415 S Austin Ave Ste 101","city":"Denison","state":"TX","zipCode":"75020-7741","phone":"(903) 327-8540","fax":"","webSite":""},{"name":"Big Smiles Family Dentistry","street":"5826 Broadway Blvd Suite 100","city":"Garland","state":"TX","zipCode":"75043-5820","phone":"(214) 957-0457","fax":"","webSite":""},{"name":"Henegar, Anthony Brent","street":"7475 Las Colinas Blvd ","city":"Irving","state":"TX","zipCode":"75063-7561","phone":"(972) 594-6915","fax":"(972) 409-0587","webSite":""},{"name":"Henegar, Arthur W","street":"3460 W Walnut St Suite 600","city":"Garland","state":"TX","zipCode":"75042-7151","phone":"(214) 703-3700","fax":"","webSite":""},{"name":"Henehan, Matthew Thomas","street":"17330 Spring Cypress Rd Ste 115 ","city":"Cypress","state":"TX","zipCode":"77429-4294","phone":"(281) 256-3222","fax":"","webSite":""},{"name":"Henley, Daryl Glenn","street":"11530 Grant Rd ","city":"Cypress","state":"TX","zipCode":"77429-5861","phone":"(281) 890-6966","fax":"(281) 870-7907","webSite":""},{"name":"Hennessy, Bernard Joseph","street":"4441 Service Drive Hqs, Usa Dentac","city":"Ft Hood","state":"TX","zipCode":"76544-5054","phone":"(254) 287-2705","fax":"(254) 287-1786","webSite":""},{"name":"Hennington, David R","street":"2425 Williams Dr Ste E","city":"Georgetown","state":"TX","zipCode":"78628-3201","phone":"(512) 863-6888","fax":"(512) 869-8934","webSite":""},{"name":"Henry A Campbell D D S P A","street":"3730 N Josey Ln Ste 102 ","city":"Carrollton","state":"TX","zipCode":"75007-2486","phone":"(972) 939-2888","fax":"(972) 939-2891","webSite":""},{"name":"1St Smile Dental Care","street":"2810 E Trinity Mills Rd Ste 179 ","city":"Carrollton","state":"TX","zipCode":"75006-2351","phone":"(972) 416-2700","fax":"(972) 416-2722","webSite":""},{"name":"Chu Dental Group","street":"11309 Bandera Rd Suite 101","city":"San Antonio","state":"TX","zipCode":"78250-2601","phone":"(210) 684-8033","fax":"(210) 684-8056","webSite":""},{"name":"Comfort Care Dental","street":"2763 Fm 35 ","city":"Royse City","state":"TX","zipCode":"75189-2803","phone":"(972) 635-9919","fax":"(972) 635-9918","webSite":""},{"name":"Henry, Cyril","street":"1001 E Milam St ","city":"Mexia","state":"TX","zipCode":"76667-2502","phone":"(201) 364-2564","fax":"","webSite":""},{"name":"Henry, Samuel Scott","street":"279 South Hwy 46 ","city":"Seguin","state":"TX","zipCode":"78155","phone":"(830) 372-2852","fax":"(830) 372-3133","webSite":""},{"name":"Henry, Walter Andrew","street":"4431 68Th Street Usa Dentac","city":"Ft Hood","state":"TX","zipCode":"76544","phone":"(254) 287-2705","fax":"(254) 287-1786","webSite":""},{"name":"Henry, Walter Mark","street":"418 W Upshur Ave ","city":"Gladewater","state":"TX","zipCode":"75647-2124","phone":"(903) 845-2238","fax":"(903) 845-2343","webSite":""},{"name":"Henslee, Robert W","street":"916 Coronado Boulevard ","city":"Universal City","state":"TX","zipCode":"78148","phone":"(210) 658-3131","fax":"(210) 658-9033","webSite":""},{"name":"Hensley, Jennifer Michele","street":"3850 S New Braunfels Ave ","city":"San Antonio","state":"TX","zipCode":"78223-1709","phone":"(210) 384-2104","fax":"","webSite":""},{"name":"Henson, Susan Elizabeth","street":"811 N Water St ","city":"Burnet","state":"TX","zipCode":"78611-1725","phone":"(512) 756-4256","fax":"","webSite":""},{"name":"Henwood, Robbie Wayne","street":"9240 Guilbeau Rd 128","city":"San Antonio","state":"TX","zipCode":"78250-3089","phone":"(210) 681-5999","fax":"(210) 681-6061","webSite":""},{"name":"Heo, Chung Rok","street":"3940 W Wheatland Rd ","city":"Dallas","state":"TX","zipCode":"75237-3468","phone":"(972) 227-6453","fax":"","webSite":""},{"name":"Hepworth, Clark","street":"4965 W Commerce St ","city":"San Antonio","state":"TX","zipCode":"78237-1508","phone":"(210) 702-3206","fax":"","webSite":""},{"name":"Herber, Paula","street":"15040 Fairfield Village Square Dr Ste 240","city":"Cypress","state":"TX","zipCode":"77433-5952","phone":"(281) 256-6190","fax":"","webSite":""},{"name":"Herbst, James R.","street":"2401 Fountain View Dr Suite 106","city":"Houston","state":"TX","zipCode":"77057-4827","phone":"(713) 266-2265","fax":"(173) 266-1560","webSite":""},{"name":"Hereford Dental Pllc","street":"701 N 25 Mile Ave 110","city":"Hereford","state":"TX","zipCode":"79045-3054","phone":"(806) 363-6690","fax":"","webSite":""},{"name":"Hereford, Valencia","street":"1101 Melbourne Rd Suite 2105","city":"Hurst","state":"TX","zipCode":"76053-6205","phone":"(817) 268-4867","fax":"","webSite":""},{"name":"Heritage Dental","street":"9590 Marbach Rd ","city":"San Antonio","state":"TX","zipCode":"78245-1825","phone":"(210) 673-9051","fax":"(210) 673-9053","webSite":""},{"name":"Heritage Dental Center","street":"1420 S Ellison Dr ","city":"San Antonio","state":"TX","zipCode":"78245-1523","phone":"(210) 673-9051","fax":"(210) 673-9053","webSite":""},{"name":"Heritage Dental Group","street":"747 Highway 287 N ","city":"Mansfield","state":"TX","zipCode":"76063-2619","phone":"(817) 473-0244","fax":"","webSite":""},{"name":"Heritage Modern Dentistry","street":"3400 Texas Sage Trail Suite 500 ","city":"Fort Worth","state":"TX","zipCode":"76177","phone":"(817) 750-1300","fax":"(817) 750-1301","webSite":""},{"name":"Heritage Trace Dental, Pa","street":"4160 Heritage Trace Pkwy Suite 408","city":"Keller","state":"TX","zipCode":"76248-1312","phone":"(817) 741-4288","fax":"","webSite":""},{"name":"Herman, Sarah Marie","street":"4235 W Northwest Hwy Suite 600","city":"Dallas","state":"TX","zipCode":"75220-5047","phone":"(214) 351-0070","fax":"","webSite":""},{"name":"Hermstein, Jennifer H","street":"17240 Mill Forest Rd Suite C","city":"Webster","state":"TX","zipCode":"77598-4370","phone":"(281) 204-8100","fax":"(281) 204-8104","webSite":""},{"name":"Hernandez Dental Care, Inc","street":"2106 W University Dr ","city":"Edinburg","state":"TX","zipCode":"78539-2862","phone":"(956) 318-0700","fax":"(956) 318-0781","webSite":""},{"name":"Hernandez Mercado, Jose Milton","street":"12341 Fm 1960 Rd W Ste A ","city":"Houston","state":"TX","zipCode":"77065","phone":"(281) 377-5483","fax":"","webSite":""},{"name":"Hernandez, Alisha Marie","street":"2989 Central Blvd ","city":"Brownsville","state":"TX","zipCode":"78520-8958","phone":"(956) 542-8777","fax":"","webSite":""},{"name":"Hernandez, Claudia","street":"1116 E 8Th St Ste 4 ","city":"Weslaco","state":"TX","zipCode":"78596-7288","phone":"(956) 968-1090","fax":"(956) 447-9449","webSite":""},{"name":"Hernandez, David","street":"9006 Forest Xing Suite A","city":"The Woodlands","state":"TX","zipCode":"77381-1185","phone":"(281) 367-6558","fax":"(281) 419-7508","webSite":""},{"name":"Hernandez, Emilio O","street":"2989 Central Blvd ","city":"Brownsville","state":"TX","zipCode":"78520-8958","phone":"(956) 542-8777","fax":"(956) 542-8548","webSite":""},{"name":"Hernandez, Fred","street":"100 Medical Dr ","city":"Palestine","state":"TX","zipCode":"75801-4780","phone":"(903) 729-7286","fax":"(903) 729-6395","webSite":""},{"name":"Hernandez, Ivis A","street":"10497 Town And Country Way Suite 914","city":"Houston","state":"TX","zipCode":"77024","phone":"(713) 468-5800","fax":"(713) 468-5800","webSite":""},{"name":"Hernandez, Jackeline Marie","street":"5330 E Mockingbird Ln Ste 120 ","city":"Dallas","state":"TX","zipCode":"75206-0941","phone":"(214) 821-5011","fax":"","webSite":""},{"name":"Hernandez, Joe William","street":"1347 Fair Ave ","city":"San Antonio","state":"TX","zipCode":"78223-1437","phone":"(210) 533-8191","fax":"(210) 533-5928","webSite":""},{"name":"Hernandez, Joel","street":"2106 W University Dr ","city":"Edinburg","state":"TX","zipCode":"78539-2862","phone":"(956) 318-0700","fax":"(956) 318-0781","webSite":""},{"name":"Herndon, James K","street":"17110 Dallas Pkwy Ste 140 ","city":"Dallas","state":"TX","zipCode":"75248-1127","phone":"(972) 407-1333","fax":"(972) 407-1681","webSite":""},{"name":"Herod, Otto L","street":"1621 Pat Booker Rd ","city":"Universal City","state":"TX","zipCode":"78148-3432","phone":"(210) 654-9094","fax":"(210) 655-9292","webSite":""},{"name":"Heron, Victoria C","street":"200 E Southlake Blvd Ste 30 ","city":"Southlake","state":"TX","zipCode":"76092-6239","phone":"(817) 481-7999","fax":"","webSite":""},{"name":"Herren, Robert W","street":"13601 Preston Rd 350E","city":"Dallas","state":"TX","zipCode":"75240-4911","phone":"(972) 239-1962","fax":"","webSite":""},{"name":"Herrera, Amary","street":"5851 Long Prairie Rd Ste 101 ","city":"Flower Mound","state":"TX","zipCode":"75028-5636","phone":"(972) 539-7252","fax":"","webSite":""},{"name":"Herrera, Lorena Castro Campos","street":"16631 Coit Rd Ste 114 ","city":"Dallas","state":"TX","zipCode":"75248-1795","phone":"(214) 484-5978","fax":"","webSite":""},{"name":"Herrera, Rodolfo","street":"17 Page Ave ","city":"Del Rio","state":"TX","zipCode":"78840-4146","phone":"(830) 775-4122","fax":"","webSite":""},{"name":"Herrero, Miguel Ivan","street":"27 Brakendale Pl ","city":"The Woodlands","state":"TX","zipCode":"77389-2025","phone":"(787) 644-0694","fax":"","webSite":""},{"name":"Herrin, Lewis Lary","street":"2410 W University Dr ","city":"Mckinney","state":"TX","zipCode":"75071-2810","phone":"(972) 542-2501","fax":"(972) 542-1155","webSite":""},{"name":"Herring, Cameron Brian","street":"3311 Preston Road Suite 10","city":"Frisco","state":"TX","zipCode":"75034-9025","phone":"(972) 668-7118","fax":"","webSite":""},{"name":"Herring, Carl","street":"306 N Hwy 95 ","city":"Elgin","state":"TX","zipCode":"78621","phone":"(512) 285-3322","fax":"","webSite":""},{"name":"Herring, Scott","street":"306 N Highway 95 ","city":"Elgin","state":"TX","zipCode":"78621-1519","phone":"(512) 285-3322","fax":"","webSite":""},{"name":"Herring, Tami Michelle","street":"164 S Union Ave ","city":"New Braunfels","state":"TX","zipCode":"78130-4456","phone":"(830) 620-0000","fax":"","webSite":""},{"name":"Herrington And Langley Restorative And Implant Dentistry, P.L.L.C.","street":"100 Medical Dr ","city":"Palestine","state":"TX","zipCode":"75801-4780","phone":"(903) 729-7286","fax":"(903) 729-6395","webSite":""},{"name":"Herrington, Carol Mattlage","street":"824 S Royall St ","city":"Palestine","state":"TX","zipCode":"75801-5000","phone":"(903) 723-4226","fax":"","webSite":""},{"name":"Herrington, Jay Steven","street":"100 Medical Dr ","city":"Palestine","state":"TX","zipCode":"75801-4780","phone":"(903) 729-7286","fax":"(903) 729-6395","webSite":""},{"name":"Herrington, Jerry W","street":"1005 Longmire Rd ","city":"Conroe","state":"TX","zipCode":"77304-1826","phone":"(936) 756-1444","fax":"","webSite":""},{"name":"Herron, Gary Robert","street":"6611 E Highway 290 ","city":"Austin","state":"TX","zipCode":"78723-1134","phone":"(512) 459-3821","fax":"","webSite":""},{"name":"Hervas, Christine","street":"8015 Shoal Creek Blvd Ste 108 ","city":"Austin","state":"TX","zipCode":"78757-8051","phone":"(512) 454-5219","fax":"","webSite":""},{"name":"Herwig, Larry D.","street":"8411 Preston Rd #850 ","city":"Dallas","state":"TX","zipCode":"75225","phone":"(214) 361-1845","fax":"","webSite":""},{"name":"Herzik, Alan Louis","street":"717 Upton Ave ","city":"Schulenburg","state":"TX","zipCode":"78956-1565","phone":"(979) 743-4138","fax":"(979) 743-2648","webSite":""},{"name":"Floss","street":"143 S Denton Tap Rd Suite 200","city":"Coppell","state":"TX","zipCode":"75019-3204","phone":"(469) 635-0100","fax":"(469) 635-0101","webSite":""},{"name":"Floss Dental","street":"4020 Oaklawn ","city":"Dallas","state":"TX","zipCode":"75219","phone":"(214) 978-0101","fax":"(214) 978-0121","webSite":""},{"name":"Floss Uptown","street":"2305 Cedar Springs Rd Suite 110","city":"Dallas","state":"TX","zipCode":"75201-1854","phone":"(214) 969-1000","fax":"(214) 969-1001","webSite":""},{"name":"Herzog, Clint F","street":"2828 Routh 310","city":"Dallas","state":"TX","zipCode":"75201","phone":"(214) 969-1000","fax":"","webSite":""},{"name":"Hess, Jessica Audrey","street":"10615 Perrin Beitel Rd Ste 601 ","city":"San Antonio","state":"TX","zipCode":"78217-3142","phone":"(210) 375-9502","fax":"(210) 375-9502","webSite":""},{"name":"Heuszel, Harold Kaiser","street":"11326 Westheimer Rd Suite B","city":"Houston","state":"TX","zipCode":"77077-6865","phone":"(281) 558-2792","fax":"(281) 597-0277","webSite":""},{"name":"Hevrin, Kathy S","street":"1788 Highway 157 N Ste 101 ","city":"Mansfield","state":"TX","zipCode":"76063-3929","phone":"(817) 477-4185","fax":"","webSite":""},{"name":"Heyde, Francis Louis","street":"2806 N Navarro St Suite F","city":"Victoria","state":"TX","zipCode":"77901-3918","phone":"(361) 573-9923","fax":"","webSite":""},{"name":"Heyen, Don W.","street":"4501 Call Field Rd ","city":"Wichita Falls","state":"TX","zipCode":"76308-2447","phone":"(940) 692-8411","fax":"","webSite":""},{"name":"Heyne, Edward Fred","street":"1800 Bering Dr Ste 650 ","city":"Houston","state":"TX","zipCode":"77057-3170","phone":"(713) 784-2952","fax":"(713) 784-3331","webSite":""},{"name":"Blu Dental","street":"2810 E Trinity Mills Rd Suite 170","city":"Carrollton","state":"TX","zipCode":"75006-2545","phone":"(972) 416-2700","fax":"(972) 416-2722","webSite":""},{"name":"1St Smile Dental Care Of Irving","street":"3626 N Macarthur Blvd Suite #235","city":"Irving","state":"TX","zipCode":"75062-3643","phone":"(214) 736-3777","fax":"(972) 416-2722","webSite":""},{"name":"Hickerson, Ronald Dale","street":"5701 Woodway Dr 250","city":"Houston","state":"TX","zipCode":"77057-1515","phone":"(713) 782-3123","fax":"(713) 278-1596","webSite":""},{"name":"Hickey, Daniel H","street":"200 Hudson Ln ","city":"Dripping Springs","state":"TX","zipCode":"78620-5112","phone":"(512) 264-9667","fax":"","webSite":""},{"name":"Hickey, Gregory Scott","street":"16000 Stuebner Airline Rd Suite 115","city":"Spring","state":"TX","zipCode":"77379-7363","phone":"(281) 376-4406","fax":"(281) 346-4489","webSite":""},{"name":"Hickey, Kim M","street":"1113 Memorial Dr ","city":"Denison","state":"TX","zipCode":"75020","phone":"(903) 465-9555","fax":"(903) 465-9243","webSite":""},{"name":"Hickory Creek Dental Group And Orthodontics","street":"5017 Teasley Ln Suite 165","city":"Denton","state":"TX","zipCode":"76210-3839","phone":"(940) 387-4597","fax":"(940) 898-1870","webSite":""},{"name":"Hicks, Amy Huynh","street":"339 W Parkwood Ave ","city":"Friendswood","state":"TX","zipCode":"77546-5424","phone":"(281) 993-1299","fax":"","webSite":""},{"name":"Hicks, Donald Brent","street":"1550 W Rosedale St Suite 504","city":"Ft Worth","state":"TX","zipCode":"76104-7438","phone":"(817) 332-6211","fax":"","webSite":""},{"name":"Hicks, Matthew Thomas","street":"1310 34Th St N ","city":"Texas City","state":"TX","zipCode":"77590-6570","phone":"(409) 948-1384","fax":"","webSite":""},{"name":"Hidalgo, Joseph H.","street":"3105 W 15Th St Suite A-2","city":"Plano","state":"TX","zipCode":"75075-7700","phone":"(972) 596-3903","fax":"","webSite":""},{"name":"Hidalgo, Ricardo","street":"1930 W 18Th St ","city":"Houston","state":"TX","zipCode":"77008-1275","phone":"(713) 868-1900","fax":"","webSite":""},{"name":"Hidlebaugh, Jerry Harold","street":"202 East Weaver St. ","city":"Alvarado","state":"TX","zipCode":"76009","phone":"(817) 783-2173","fax":"(817) 783-2632","webSite":""},{"name":"Katy Dental","street":"2427 N Fry Rd ","city":"Katy","state":"TX","zipCode":"77449-6220","phone":"(281) 599-1755","fax":"","webSite":""},{"name":"Pioneer Dental","street":"1100 W Pioneer Dr ","city":"Irving","state":"TX","zipCode":"75061-7213","phone":"(972) 870-5282","fax":"","webSite":""},{"name":"Higgins, Kenneth Welby","street":"2631 Faudree Rd Unit B ","city":"Odessa","state":"TX","zipCode":"79765-8530","phone":"(432) 563-1760","fax":"(432) 563-1763","webSite":""},{"name":"Higgins, Mary E","street":"16905 Blanco Rd ","city":"San Antonio","state":"TX","zipCode":"78232","phone":"(210) 764-1155","fax":"(210) 764-1358","webSite":""},{"name":"Higgins, Michael Drake","street":"333 N Rivershire Dr Suite 280","city":"Conroe","state":"TX","zipCode":"77304-0001","phone":"(936) 756-9884","fax":"(936) 756-9310","webSite":""},{"name":"Higgins, Nick","street":"1218 Sw Military Dr ","city":"San Antonio","state":"TX","zipCode":"78221-1535","phone":"(210) 927-1000","fax":"","webSite":""},{"name":"Higgs, Stanley","street":"13125 Highway 6 ","city":"Santa Fe","state":"TX","zipCode":"77510-7681","phone":"(409) 925-3549","fax":"","webSite":""},{"name":"Highberger, Zachary H.","street":"4431 68Th St ","city":"Fort Hood","state":"TX","zipCode":"76544-5042","phone":"(254) 286-7436","fax":"","webSite":""},{"name":"Malcolm R. Berg, Dmd","street":"3630 Se Military Dr ","city":"San Antonio","state":"TX","zipCode":"78223-4050","phone":"(210) 337-6834","fax":"","webSite":""},{"name":"Highland Oaks Family Dentistry","street":"700 N Tarrant Pkwy Ste. 102","city":"Keller","state":"TX","zipCode":"76248-5693","phone":"(817) 757-4225","fax":"(817) 520-5256","webSite":""},{"name":"Highland Oaks Molina Pllc","street":"700 N Tarrant Pkwy ","city":"Keller","state":"TX","zipCode":"76248-5693","phone":"(817) 756-8809","fax":"","webSite":""},{"name":"Highnote, Joe T","street":"500 W 3Rd Ave Suite 1","city":"Corsicana","state":"TX","zipCode":"75110-4502","phone":"(903) 872-3041","fax":"(903) 874-4571","webSite":""},{"name":"Kool Smiles","street":"2200 S W S Young Dr ","city":"Killeen","state":"TX","zipCode":"76543-5318","phone":"(800) 920-9947","fax":"","webSite":""},{"name":"Resolution Dental","street":"3150 S 31St St ","city":"Temple","state":"TX","zipCode":"76502-1803","phone":"(800) 920-9947","fax":"","webSite":""},{"name":"Resolution Dental","street":"3864 Hwy 64 W ","city":"Tyler","state":"TX","zipCode":"75704-6924","phone":"(770) 916-9000","fax":"","webSite":""},{"name":"Resolution Dental","street":"5707 4Th St Suite 1","city":"Lubbock","state":"TX","zipCode":"79416-4243","phone":"(800) 920-9947","fax":"","webSite":""},{"name":"Resolution Dental","street":"1784 State Highway 351 ","city":"Abilene","state":"TX","zipCode":"79601-4748","phone":"(770) 916-9000","fax":"","webSite":""},{"name":"Resolution Dental","street":"4901 E 42Nd St ","city":"Odessa","state":"TX","zipCode":"79762-7241","phone":"(770) 916-9000","fax":"","webSite":""},{"name":"Kool Smiles","street":"1784 State Highway 351 ","city":"Abilene","state":"TX","zipCode":"79601-4748","phone":"(678) 904-5665","fax":"(678) 904-5666","webSite":""},{"name":"Hildinger, Michael Dene","street":"4402 Broadway Blvd Ste 12","city":"Garland","state":"TX","zipCode":"75043-3400","phone":"(972) 240-1781","fax":"","webSite":""},{"name":"Hill Country Dental Associates, Pa","street":"715 Hill Country Dr Ste. 5","city":"Kerrville","state":"TX","zipCode":"78028-5965","phone":"(830) 257-7444","fax":"(830) 896-7977","webSite":""},{"name":"Buttercup Dental","street":"901 Cypress Creek Rd 203","city":"Cedar Park","state":"TX","zipCode":"78613-3998","phone":"(512) 335-8121","fax":"(512) 335-8121","webSite":""},{"name":"Hill Family Dental","street":"900 Corsicana Hwy ","city":"Hillsboro","state":"TX","zipCode":"76645-2928","phone":"(254) 582-8191","fax":"","webSite":""},{"name":"Hill Dental Group","street":"16000 Stuebner Airline Rd Ste 190 ","city":"Spring","state":"TX","zipCode":"77379-7392","phone":"(281) 376-0911","fax":"","webSite":""},{"name":"Hill, Anthony L.","street":"16000 Stuebner Airline Rd Suite 190","city":"Spring","state":"TX","zipCode":"77379-7363","phone":"(281) 376-0911","fax":"(281) 378-5082","webSite":""},{"name":"Hill, Benjamin T","street":"1127 S Austin Ave ","city":"Denison","state":"TX","zipCode":"75020-6350","phone":"(903) 463-3443","fax":"","webSite":""},{"name":"Hill, Brian Keith","street":"5999 De Zavala Rd Ste 122 ","city":"San Antonio","state":"TX","zipCode":"78249-2236","phone":"(432) 770-5174","fax":"","webSite":""},{"name":"Hill, Danielle Renee","street":"7506 N Navarro St ","city":"Victoria","state":"TX","zipCode":"77904-2654","phone":"(361) 489-3304","fax":"","webSite":""},{"name":"Hill, Kenyon Bevan","street":"2504 Ridge Rd Suite 207","city":"Rockwall","state":"TX","zipCode":"75087-2569","phone":"(972) 771-9196","fax":"(972) 771-9154","webSite":""},{"name":"Hill, Logan Benjamin","street":"612 W University Dr ","city":"Denton","state":"TX","zipCode":"76201-1889","phone":"(940) 484-1200","fax":"","webSite":""},{"name":"Hill, Ron","street":"10645 Broadway St Suite 102","city":"Pearland","state":"TX","zipCode":"77584-8007","phone":"(713) 436-9416","fax":"","webSite":""},{"name":"Hill, Stephen","street":"333 N Allen Dr ","city":"Allen","state":"TX","zipCode":"75013-2539","phone":"(972) 727-1900","fax":"(972) 727-2320","webSite":""},{"name":"Hill-Davis Dental Group","street":"3234 64Th St ","city":"Lubbock","state":"TX","zipCode":"79413-5760","phone":"(806) 793-0651","fax":"(806) 793-1338","webSite":""},{"name":"Hillcroft Dental Center","street":"3838 Hillcroft St Ste 325 ","city":"Houston","state":"TX","zipCode":"77057-7736","phone":"(713) 266-0366","fax":"(713) 780-2222","webSite":""},{"name":"Hillcroft Dental Clinic And Associates Pc","street":"6655 Hillcroft Street Suite 206","city":"Houston","state":"TX","zipCode":"77081-4815","phone":"(713) 272-9196","fax":"(713) 272-9198","webSite":""},{"name":"Hiller, Mark Terrell","street":"2626 Westheimer Rd Ste 214 ","city":"Houston","state":"TX","zipCode":"77098-1294","phone":"(713) 524-7303","fax":"","webSite":""},{"name":"Hilliard, Russell R","street":"4910 Willowbend Blvd Suite C","city":"Houston","state":"TX","zipCode":"77035-3222","phone":"(713) 729-1813","fax":"(713) 729-6080","webSite":""},{"name":"Hillin, John Bruce","street":"109 Richardson Dr ","city":"Henderson","state":"TX","zipCode":"75654-3989","phone":"(903) 657-2266","fax":"(903) 657-1090","webSite":""},{"name":"Hillsboro Dental Pllc","street":"1320 Corsicana Hwy Ste 160 ","city":"Hillsboro","state":"TX","zipCode":"76645-2653","phone":"(254) 582-2515","fax":"","webSite":""},{"name":"Hilsher, Gary Anthony","street":"1111 Hwy 6 Suite 140","city":"Sugar Land","state":"TX","zipCode":"77478","phone":"(281) 265-3567","fax":"(281) 265-8339","webSite":""},{"name":"Hilton, Phillip Lee","street":"3803 Spring Dr ","city":"Huntsville","state":"TX","zipCode":"77340","phone":"(936) 291-2063","fax":"(936) 291-2149","webSite":""},{"name":"Himes, Karen M","street":"8400 Blanco Rd Ste. 208","city":"San Antonio","state":"TX","zipCode":"78216-3055","phone":"(210) 349-5867","fax":"(210) 349-5869","webSite":""},{"name":"Hinckley, Daniel","street":"2141 Hamilton Way Ste 104","city":"San Angelo","state":"TX","zipCode":"76904-6831","phone":"(325) 949-6656","fax":"","webSite":""},{"name":"Hinckley, Steven D","street":"10951 Stone Canyon Rd Apt 223 ","city":"Dallas","state":"TX","zipCode":"75230-4343","phone":"(469) 569-2331","fax":"","webSite":""},{"name":"Hiner, Brian Charles","street":"4222 98Th St ","city":"Lubbock","state":"TX","zipCode":"79423-3957","phone":"(806) 794-4180","fax":"(806) 794-7690","webSite":""},{"name":"Hines, Corbin","street":"8700 N Tarrant Pkwy Suite 107","city":"North Richland Hills","state":"TX","zipCode":"76180-1464","phone":"(817) 605-1595","fax":"(817) 605-1259","webSite":""},{"name":"Hines, Robert","street":"9733 Westheimer Rd ","city":"Houston","state":"TX","zipCode":"77042-3960","phone":"(713) 952-6161","fax":"","webSite":""},{"name":"Hines-Caesar, Vilma","street":"3800 S New Braunfels Ave ","city":"San Antonio","state":"TX","zipCode":"78223-1710","phone":"(210) 533-9900","fax":"","webSite":""},{"name":"Hinkle, Curt","street":"3456 Bluebonnet Circle ","city":"Fort Worth","state":"TX","zipCode":"76109","phone":"(817) 923-5000","fax":"(817) 923-5007","webSite":""},{"name":"Hinkle, Roth Wyatt","street":"600 E Southlake Blvd Suite 100","city":"Southlake","state":"TX","zipCode":"76092-6254","phone":"(817) 488-2273","fax":"(817) 488-1953","webSite":""},{"name":"Ryan M Hinkle                                                                        ","street":"805 Turtle Creek Dr Tyler, TX 75701-1937"},{"name":"Hino, Dorothy","street":"3110 Webb Ave Ste 300 ","city":"Dallas","state":"TX","zipCode":"75205-3445","phone":"(214) 528-7870","fax":"","webSite":""},{"name":"Hinson, James P","street":"5851 San Felipe St Ste 750 ","city":"Houston","state":"TX","zipCode":"77057-8014","phone":"(713) 952-6266","fax":"","webSite":""},{"name":"Hinson, Phillip Gordon","street":"350 Westpark Way Ste 200 ","city":"Euless","state":"TX","zipCode":"76040-3965","phone":"(817) 283-5376","fax":"(817) 283-7853","webSite":""},{"name":"Hintze, Seth","street":"320 Singleton Blvd Apt 1114 ","city":"Dallas","state":"TX","zipCode":"75212-4155","phone":"(320) 420-7480","fax":"","webSite":""},{"name":"Hinze, Michael Ray","street":"111 West 4Th St. ","city":"Hale Center","state":"TX","zipCode":"79041","phone":"(806) 839-2484","fax":"","webSite":""},{"name":"Hirani, Farida","street":"838 S Carrier Pkwy ","city":"Grand Prairie","state":"TX","zipCode":"75051-1517","phone":"(214) 247-7255","fax":"","webSite":""},{"name":"Park Row Dental","street":"1930 E Park Row Dr ","city":"Arlington","state":"TX","zipCode":"76010-4744","phone":"(817) 801-9500","fax":"","webSite":""},{"name":"Hirji, Rafiq","street":"1005 Sumac Dr ","city":"Keller","state":"TX","zipCode":"76262-8834","phone":"(805) 680-8490","fax":"","webSite":""},{"name":"Hirpara, Juhi Dilipkumar","street":"19450 Mcdonald St Ste 101 ","city":"Lytle","state":"TX","zipCode":"78052-3649","phone":"(830) 321-0390","fax":"(832) 572-5393","webSite":""},{"name":"Hirsch, Dwight Emery","street":"4444 Carter Creek Pkwy Suite 100","city":"Bryan","state":"TX","zipCode":"77802-4467","phone":"(979) 846-4759","fax":"","webSite":""},{"name":"Hitchcock, Georgia Wyatt","street":"7500 Beechnut St Suite 374","city":"Houston","state":"TX","zipCode":"77074-4335","phone":"(713) 995-5242","fax":"","webSite":""},{"name":"Hitech Dental Houston Pllc","street":"10515 Bellaire Blvd Ste K ","city":"Houston","state":"TX","zipCode":"77072-5235","phone":"(281) 495-4444","fax":"(281) 530-5382","webSite":""},{"name":"Hittson, Suzanne L","street":"3301 North Goliad Suite 107","city":"Rockwall","state":"TX","zipCode":"75087","phone":"(972) 771-3753","fax":"(972) 543-1230","webSite":""},{"name":"Hitzfield, John","street":"507 W Stan Schlueter Loop Ste 400 ","city":"Killeen","state":"TX","zipCode":"76542-3986","phone":"(254) 870-9209","fax":"","webSite":""},{"name":"Rock Point Family Dentistry","street":"115 S Lakeline Blvd ","city":"Cedar Park","state":"TX","zipCode":"78613","phone":"(210) 326-5744","fax":"","webSite":""},{"name":"Hkdds Smile, Pllc","street":"13048 Research Blvd Ste B","city":"Austin","state":"TX","zipCode":"78750-3205","phone":"(512) 257-2828","fax":"(512) 257-2831","webSite":""},{"name":"Spring Park Dentistry","street":"19380 I-45 Suite #110","city":"Spring","state":"TX","zipCode":"77373","phone":"(832) 230-3122","fax":"","webSite":""},{"name":"Whitewood Dental","street":"17194 Preston Rd Ste 224 ","city":"Dallas","state":"TX","zipCode":"75248-1225","phone":"(972) 233-9399","fax":"","webSite":""},{"name":"Ho, Charles","street":"6918 Corporate Dr Ste B6 ","city":"Houston","state":"TX","zipCode":"77036-5114","phone":"(713) 272-8883","fax":"(713) 272-8881","webSite":""},{"name":"Ho, Christina","street":"28602 Tomball Parkway Ste B","city":"Tomball","state":"TX","zipCode":"77375","phone":"(281) 256-7554","fax":"","webSite":""},{"name":"Ho, Duyen","street":"1860 Texas Ave ","city":"Bridge City","state":"TX","zipCode":"77611-2808","phone":"(409) 735-8146","fax":"","webSite":""},{"name":"Ho, Edward","street":"2921 Boca Chica Blvd #15","city":"Brownsville","state":"TX","zipCode":"78521-3500","phone":"(956) 544-6034","fax":"","webSite":""},{"name":"Ho, Hsin Ryan","street":"18640 Fm 1488 Rd Ste D ","city":"Magnolia","state":"TX","zipCode":"77354-8517","phone":"(512) 466-1477","fax":"","webSite":""},{"name":"Ho, Kim D.","street":"10806 W Bellfort St ","city":"Houston","state":"TX","zipCode":"77099-4751","phone":"(281) 498-0288","fax":"(281) 498-1677","webSite":""},{"name":"Ho, Lam Chi","street":"10245 Kempwood Dr Ste C ","city":"Houston","state":"TX","zipCode":"77043-1840","phone":"(713) 690-8585","fax":"(713) 690-8586","webSite":""},{"name":"Ho, Langley Eugene","street":"3950 Fry Rd Ste 600 ","city":"Katy","state":"TX","zipCode":"77449-6743","phone":"(281) 578-3300","fax":"(832) 565-8213","webSite":""},{"name":"Ho, Thien Thanh Vu","street":"10527 Gulf Fwy ","city":"Houston","state":"TX","zipCode":"77034-1805","phone":"(281) 501-6440","fax":"","webSite":""},{"name":"Ho, You Hwan","street":"7919 N Glen Dr Apt 2031 ","city":"Irving","state":"TX","zipCode":"75063-8004","phone":"(917) 703-6277","fax":"","webSite":""},{"name":"Hoang, Amy Anhtien","street":"7070 Bissonnet ","city":"Houston","state":"TX","zipCode":"77074","phone":"(713) 270-8884","fax":"(713) 270-8886","webSite":""},{"name":"Hoang, An Ngoc","street":"11102 S Highway 6 104","city":"Sugar Land","state":"TX","zipCode":"77478-4971","phone":"(281) 988-8955","fax":"(281) 988-8559","webSite":""},{"name":"Hoang, Andy D","street":"11400 Gulf Fwy Suite H","city":"Houston","state":"TX","zipCode":"77034-3549","phone":"(713) 946-2488","fax":"(713) 946-1369","webSite":""},{"name":"Hoang, Anthony","street":"6619 Forest Hill Dr Ste 55 ","city":"Forest Hill","state":"TX","zipCode":"76140-1260","phone":"(817) 572-5580","fax":"","webSite":""},{"name":"Hoang, Austin Minh","street":"7620 N Macarthur Blvd ","city":"Irving","state":"TX","zipCode":"75063-7512","phone":"(214) 414-3742","fax":"","webSite":""},{"name":"Hoang, Bao","street":"5005 N. Piedras Usa Dentac","city":"El Paso","state":"TX","zipCode":"79920-5001","phone":"(915) 742-3303","fax":"(915) 742-7462","webSite":""},{"name":"Hoang, Bao N","street":"1420 W. Mockingbird Lane Suite 500","city":"Dallas","state":"TX","zipCode":"75247","phone":"(214) 630-7080","fax":"(214) 630-7085","webSite":""},{"name":"Hoang, Dan","street":"1205 Clear Lake City Blvd ","city":"Houston","state":"TX","zipCode":"77062-8105","phone":"(281) 488-1477","fax":"(281) 286-2149","webSite":""},{"name":"Hoang, Jennifer Ngoc","street":"201 E Central Texas Expy Ste 500 ","city":"Harker Heights","state":"TX","zipCode":"76548-2782","phone":"(254) 831-4168","fax":"","webSite":""},{"name":"Hoang, Leena Ngoc-Uyen","street":"2521 Brookwood Ln ","city":"Garland","state":"TX","zipCode":"75044-4687","phone":"(214) 929-7046","fax":"","webSite":""},{"name":"Hoang, Linda Sue","street":"2840 Commercial Center Blvd Ste 102 ","city":"Katy","state":"TX","zipCode":"77494-6412","phone":"(281) 693-2880","fax":"(281) 693-2883","webSite":""},{"name":"Hoang, Nguyet Thi","street":"3901 Broadway St ","city":"Galveston","state":"TX","zipCode":"77550-3821","phone":"(409) 765-7500","fax":"(409) 765-7501","webSite":""},{"name":"Hoang, Philip Son","street":"7008 Lyons Ave ","city":"Houston","state":"TX","zipCode":"77020-5359","phone":"(713) 674-0811","fax":"","webSite":""},{"name":"Hoang, Phuonghanh","street":"2750 Holly Hall St Apt 910 ","city":"Houston","state":"TX","zipCode":"77054-4150","phone":"(832) 248-6963","fax":"","webSite":""},{"name":"Hoang, Tay Nguyen","street":"2415 San Conero Dr ","city":"Pearland","state":"TX","zipCode":"77581-1613","phone":"(281) 468-4065","fax":"","webSite":""},{"name":"Hoang, Thuc D","street":"305 Las Colinas Blvd E ","city":"Irving","state":"TX","zipCode":"75039-5556","phone":"(972) 556-2277","fax":"(972) 402-9370","webSite":""},{"name":"Hoang, Thuong Dominic","street":"6800 Alma Dr Suite #101","city":"Plano","state":"TX","zipCode":"75023-2006","phone":"(469) 467-8007","fax":"(469) 467-8011","webSite":""},{"name":"Hoang, Tuan Anh","street":"13480 Veterans Memorial Dr Suite B","city":"Houston","state":"TX","zipCode":"77014-1606","phone":"(281) 583-2650","fax":"(281) 583-2651","webSite":""},{"name":"Hoang, Uyen","street":"1632 Spencer Hwy ","city":"South Houston","state":"TX","zipCode":"77587-3752","phone":"(713) 910-1002","fax":"","webSite":""},{"name":"Hoang, Vi Linh","street":"16427 W Little York Rd Ste H ","city":"Houston","state":"TX","zipCode":"77084-7097","phone":"(281) 653-6446","fax":"","webSite":""},{"name":"Hoang-Ho, Giang L","street":"12338 Ashford Meadows Dr ","city":"Sugar Land","state":"TX","zipCode":"77478-6137","phone":"(713) 505-3855","fax":"","webSite":""},{"name":"Hobbs, Kelly Blake","street":"11615 Angus Rd Ste 116 ","city":"Austin","state":"TX","zipCode":"78759-4065","phone":"(512) 345-9995","fax":"(512) 795-0209","webSite":""},{"name":"Hobock, Jennifer Miller","street":"2300 Woodforest Pkwy N Ste 700","city":"Montgomery","state":"TX","zipCode":"77316","phone":"(936) 249-6300","fax":"(936) 249-6300","webSite":""},{"name":"Hobson, Christina Pakola","street":"6836 Bee Caves Road, Ste 300 ","city":"Austin","state":"TX","zipCode":"78746","phone":"(512) 347-0044","fax":"","webSite":""},{"name":"Hockley, Andrew Badeo","street":"19906 Wild Crst ","city":"San Antonio","state":"TX","zipCode":"78266-2251","phone":"(210) 464-2016","fax":"","webSite":""},{"name":"Hodges, Dain J","street":"6516 John Freeman St ","city":"Houston","state":"TX","zipCode":"77030-3402","phone":"(713) 500-4210","fax":"","webSite":""},{"name":"Hodges, Elmer Terrell","street":"4849 Greenville Ave Suite 173","city":"Dallas","state":"TX","zipCode":"75206-4130","phone":"(214) 369-9966","fax":"(214) 368-0809","webSite":""},{"name":"Hodges, Paul C.","street":"200 River North Blvd ","city":"Stephenville","state":"TX","zipCode":"76401-1805","phone":"(254) 968-4200","fax":"","webSite":""},{"name":"Hoefer, Barry Lynn","street":"2150 S Danville Dr ","city":"Abilene","state":"TX","zipCode":"79605-4718","phone":"(325) 690-0598","fax":"","webSite":""},{"name":"Hoeppner, Michael Edward","street":"25 Fm 3351 S ","city":"Boerne","state":"TX","zipCode":"78006-5710","phone":"(830) 229-5581","fax":"","webSite":""},{"name":"Hoermann, Arlon James","street":"1721 Cimarron Trail Suite 2","city":"Hurst","state":"TX","zipCode":"76054-3400","phone":"(817) 268-3163","fax":"(817) 284-2424","webSite":""},{"name":"Hoerster, Zachary Dan","street":"205 N Milam St ","city":"Fredericksburg","state":"TX","zipCode":"78624-3820","phone":"(830) 990-2690","fax":"","webSite":""},{"name":"Hoffman Hernandez, Haley Erin","street":"1439 N Highway 77 Ste 101 ","city":"Waxahachie","state":"TX","zipCode":"75165-5120","phone":"(972) 923-0900","fax":"","webSite":""},{"name":"Hoffman, Courtney Leeann","street":"827 S. Magnolia Blvd. Suite 1","city":"Magnolia","state":"TX","zipCode":"77355","phone":"(281) 356-3721","fax":"","webSite":""},{"name":"Hoffman, Jameson Everett","street":"2133 Pepperrell Street Bldg 3352","city":"Jbsa-Lackland","state":"TX","zipCode":"78236-5313","phone":"(210) 292-6258","fax":"(210) 292-2618","webSite":""},{"name":"Hoffman, Jeffrey Stewart","street":"711 Navarro St 260","city":"San Antonio","state":"TX","zipCode":"78205-1711","phone":"(210) 227-4512","fax":"(210) 227-8536","webSite":""},{"name":"Hoffman, Katherine Fairleigh","street":"2211 Golden Pond Dr ","city":"Kingwood","state":"TX","zipCode":"77345-1645","phone":"(281) 455-9259","fax":"","webSite":""},{"name":"Hoffman, Terry","street":"7860 Culebra Rd ","city":"San Antonio","state":"TX","zipCode":"78251-1440","phone":"(210) 647-3151","fax":"","webSite":""},{"name":"Hoffman, Trever","street":"500 N Zaragoza Rd Ste K ","city":"El Paso","state":"TX","zipCode":"79907-4737","phone":"(915) 730-6386","fax":"","webSite":""},{"name":"Hoffman, Veronique Eileen","street":"7703 Floyd Curl Dr ","city":"San Antonio","state":"TX","zipCode":"78229-3901","phone":"(210) 567-7000","fax":"","webSite":""},{"name":"Hoffpauir, Christopher S","street":"2101 Highway 35 Byp N Ste 106 ","city":"Alvin","state":"TX","zipCode":"77511-9654","phone":"(281) 756-9990","fax":"(281) 715-5464","webSite":""},{"name":"Hofheinz, Paulus","street":"1214 Dixieland Rd Suite # 4","city":"Harlingen","state":"TX","zipCode":"78552-3351","phone":"(956) 428-5322","fax":"(956) 428-7986","webSite":""},{"name":"Hofmann, Peter N.","street":"15615 Coit Rd Ste 107 ","city":"Dallas","state":"TX","zipCode":"75248-4475","phone":"(972) 960-1913","fax":"(972) 960-1914","webSite":""},{"name":"Hogan, Katherine Raben","street":"115 N Dixie Dr Ste 320 ","city":"Lake Jackson","state":"TX","zipCode":"77566-5958","phone":"(979) 297-3234","fax":"(979) 297-5999","webSite":""},{"name":"Hogan, Tim C","street":"402 S William St Hogan Dental Clinic","city":"Atlanta","state":"TX","zipCode":"75551","phone":"(903) 796-3821","fax":"","webSite":""},{"name":"Hogue, David Carson","street":"4927 Fm 2920 Rd ","city":"Spring","state":"TX","zipCode":"77388-3115","phone":"(281) 350-0797","fax":"(281) 350-0798","webSite":""},{"name":"Hoikka, Mark David","street":"1615 Truemper St ","city":"Lackland A F B","state":"TX","zipCode":"78236-5511","phone":"(210) 671-9613","fax":"","webSite":""},{"name":"Hojas, Michael Glenn","street":"101 N Fm 548 Suite 105","city":"Forney","state":"TX","zipCode":"75126-5685","phone":"(972) 552-1224","fax":"(972) 692-5433","webSite":""},{"name":"Holcomb, Joseph Henderson","street":"1050 E Loop 304 Suite #120","city":"Crockett","state":"TX","zipCode":"75835-1814","phone":"(936) 544-3554","fax":"(936) 546-0355","webSite":""},{"name":"Holder, Zachary","street":"8300 Broadway St ","city":"Houston","state":"TX","zipCode":"77061-1802","phone":"(713) 641-3777","fax":"","webSite":""},{"name":"Hole, Jennifer Cecile","street":"109 E Avenue J ","city":"Robstown","state":"TX","zipCode":"78380-2347","phone":"(361) 387-1531","fax":"(361) 767-8802","webSite":""},{"name":"Holland, Christopher J","street":"7902 Jones Maltsberger Rd ","city":"San Antonio","state":"TX","zipCode":"78216-6920","phone":"(210) 804-1558","fax":"(210) 824-2183","webSite":""},{"name":"Holland, Lawrence Talmadge","street":"8285 Willow Place Dr S ","city":"Houston","state":"TX","zipCode":"77070-5616","phone":"(281) 469-3024","fax":"(281) 469-3037","webSite":""},{"name":"Holland, Taylor H","street":"518 S Spring Ave ","city":"Tyler","state":"TX","zipCode":"75702-8140","phone":"(903) 592-0741","fax":"","webSite":""},{"name":"Hollar, Gail Ann","street":"2700 Western Center Blvd. #128","city":"Fort Worth","state":"TX","zipCode":"76131","phone":"(817) 847-1131","fax":"(817) 847-1168","webSite":""},{"name":"Holleman, Sidney Anthony","street":"1116 S Henderson St ","city":"Fort Worth","state":"TX","zipCode":"76104-4430","phone":"(817) 336-6048","fax":"(817) 334-0621","webSite":""},{"name":"Holleron, Barry Weyman","street":"2635 Nacogdoches Rd ","city":"San Antonio","state":"TX","zipCode":"78217-6039","phone":"(210) 829-7651","fax":"(210) 829-4604","webSite":""},{"name":"Holley, Mandy Lee","street":"3613 Williams Dr. Suite 1001","city":"Georgetown","state":"TX","zipCode":"78628","phone":"(512) 819-9100","fax":"(512) 819-9128","webSite":""},{"name":"Holly Dental Pllc","street":"1050 E Broadway Ave Suite 102","city":"Gladewater","state":"TX","zipCode":"75647","phone":"(903) 707-8941","fax":"(903) 765-5309","webSite":""},{"name":"Hollywood Dentist Four","street":"12620 Woodforest Blvd Ste 420A ","city":"Houston","state":"TX","zipCode":"77015-3643","phone":"(713) 637-8000","fax":"(713) 637-6558","webSite":""},{"name":"Hollywood Dentists Llc","street":"12001 Richmond Ave Suite 1","city":"Houston","state":"TX","zipCode":"77082-7673","phone":"(281) 589-1111","fax":"(281) 589-2214","webSite":""},{"name":"Hollywood Dentists One","street":"12620 Woodforest Blvd Ste 420A ","city":"Houston","state":"TX","zipCode":"77015-3643","phone":"(713) 637-8000","fax":"(713) 637-6558","webSite":""},{"name":"Hollywood Dentists Two","street":"12001 Richmond Ave Ste 1 ","city":"Houston","state":"TX","zipCode":"77082-7682","phone":"(281) 589-1111","fax":"","webSite":""},{"name":"Holman Dental Pllc","street":"8741 N Lamar Blvd ","city":"Austin","state":"TX","zipCode":"78753-5423","phone":"(512) 835-2345","fax":"","webSite":""},{"name":"Holman Dental Pllc","street":"10000 Harwin Dr Suite A","city":"Houston","state":"TX","zipCode":"77036-1670","phone":"(281) 657-1500","fax":"","webSite":""},{"name":"Holman Dental Pllc","street":"820 Holman St ","city":"Houston","state":"TX","zipCode":"77002-9520","phone":"(713) 521-0525","fax":"","webSite":""},{"name":"Holman, James Allen","street":"3001 W Illinois Ave Suite 6A","city":"Midland","state":"TX","zipCode":"79701-3180","phone":"(432) 682-6842","fax":"(432) 684-7972","webSite":""},{"name":"Holmes, Darin Wade","street":"707 S Adams St ","city":"Fredericksburg","state":"TX","zipCode":"78624-4444","phone":"(830) 997-9505","fax":"(830) 997-4865","webSite":""},{"name":"Holmes, Douglas C.","street":"1100 Wilford Hall Loop Bldg 4554 ","city":"Jbsa Lackland","state":"TX","zipCode":"78236-5638","phone":"(210) 292-0747","fax":"","webSite":""},{"name":"Holmes, Joseph Philip","street":"13221 Nw Military Hwy ","city":"San Antonio","state":"TX","zipCode":"78231-1840","phone":"(210) 341-3366","fax":"(210) 341-7481","webSite":""},{"name":"Holmes, Kimber Lee","street":"3602 Vista Rd ","city":"Pasadena","state":"TX","zipCode":"77504-1942","phone":"(713) 946-5171","fax":"(713) 946-0047","webSite":""},{"name":"Holmes, Michael Edwin","street":"6130 Highway 6 ","city":"Missouri City","state":"TX","zipCode":"77459-3802","phone":"(281) 208-2446","fax":"(281) 208-2447","webSite":""},{"name":"Holmes, Miner Jerome","street":"9815 Fm 1960 Rd W ","city":"Humble","state":"TX","zipCode":"77338-5702","phone":"(281) 548-3384","fax":"(281) 548-7336","webSite":""},{"name":"Holmes, Thomas H","street":"2202 Universal City Blvd ","city":"Universal City","state":"TX","zipCode":"78148","phone":"(210) 658-4941","fax":"(210) 945-4558","webSite":""},{"name":"Holmes, Tracy H","street":"2202 Universal City Blvd ","city":"Universal City","state":"TX","zipCode":"78148","phone":"(218) 658-4941","fax":"(210) 945-4558","webSite":""},{"name":"Holmes, Valerie E.","street":"Chaffee Rd Bldg 128 ","city":"Fort Bliss","state":"TX","zipCode":"79916-7011","phone":"(915) 568-5935","fax":"","webSite":""},{"name":"Holovnia, Andrew","street":"445 S Denton Tap Rd Ste 110 ","city":"Coppell","state":"TX","zipCode":"75019-3368","phone":"(727) 849-4246","fax":"(972) 393-6876","webSite":""},{"name":"Holt, Gerald H.","street":"102 Flag Lake Dr Suite A","city":"Lake Jackson","state":"TX","zipCode":"77566-6214","phone":"(979) 297-6762","fax":"","webSite":""},{"name":"Holt, Kyra","street":"8866 Gulf Fwy Suite 160","city":"Houston","state":"TX","zipCode":"77017-6514","phone":"(713) 644-9209","fax":"","webSite":""},{"name":"Holt, Ray","street":"1812 E Broadway ","city":"Pearland","state":"TX","zipCode":"77581","phone":"(281) 993-9900","fax":"","webSite":""},{"name":"Holt, Stacie Lynn","street":"1939 Lawrence Rd ","city":"Kemah","state":"TX","zipCode":"77565-3122","phone":"(281) 538-9300","fax":"(281) 538-9031","webSite":""},{"name":"Holtzclaw, Danny Jack","street":"4010 Sandy Brook Dr Ste 204 ","city":"Round Rock","state":"TX","zipCode":"78665-1518","phone":"(512) 375-0500","fax":"(512) 682-9009","webSite":""},{"name":"Holubec, Theodore John","street":"7000 Fannin St Suite 1840","city":"Houston","state":"TX","zipCode":"77030-5400","phone":"(713) 799-9100","fax":"","webSite":""},{"name":"Holur Yamanna, Chitra","street":"4828 Columbia Ave Suite 100","city":"Dallas","state":"TX","zipCode":"75226-1011","phone":"(214) 823-0202","fax":"(214) 824-6464","webSite":""},{"name":"Home Town Dental Alliance","street":"8901 Tehama Suite 119","city":"Forth Worth","state":"TX","zipCode":"76177","phone":"(817) 834-2600","fax":"","webSite":""},{"name":"Home Town Dental At Belknap,Pc","street":"3825 Yucca Ave 101","city":"Fort Worth","state":"TX","zipCode":"76111","phone":"(817) 831-9300","fax":"","webSite":""},{"name":"Home Town Dental Of Arlington Pc","street":"1030 W Arkansas Ln Suite 210","city":"Arlington","state":"TX","zipCode":"76013-6377","phone":"(817) 543-2222","fax":"(817) 543-2299","webSite":""},{"name":"Home Town Dental Of Dallas,P.C","street":"8620 Skillman St ","city":"Dallas","state":"TX","zipCode":"75243-8216","phone":"(214) 341-0900","fax":"","webSite":""},{"name":"Home Town Dental Of Fort Worth Pc","street":"3515 Sycamore School Rd Ste 170 ","city":"Fort Worth","state":"TX","zipCode":"76133-7823","phone":"(817) 927-8500","fax":"(817) 927-8508","webSite":""},{"name":"Home Town Dental Of Lake Worth Pc","street":"6332 Lake Worth Blvd ","city":"Lake Worth","state":"TX","zipCode":"76135-3602","phone":"(817) 237-3222","fax":"(817) 237-0101","webSite":""},{"name":"Home Town Dental Of Mesquite Pc","street":"4224 Gus Thomasson Rd 4224 Gus Thomason","city":"Mesquite","state":"TX","zipCode":"75150-2197","phone":"(972) 698-6685","fax":"(972) 698-6688","webSite":""},{"name":"Home Town Dental Of Sherman Pc","street":"4800 Texoma Pkwy Ste 1018 4800 N Texoma Pkwy Ste 1018","city":"Sherman","state":"TX","zipCode":"75090-2092","phone":"(903) 813-4867","fax":"(903) 686-2032","webSite":""},{"name":"Home Town Dental,Pa","street":"6332 Lake Worth Blvd ","city":"Lake Worth","state":"TX","zipCode":"76135-3602","phone":"(817) 237-3222","fax":"","webSite":""},{"name":"Homerstad, Kyne Arlen","street":"2521 Southmore Ave ","city":"Pasadena","state":"TX","zipCode":"77502-1451","phone":"(713) 477-1414","fax":"","webSite":""},{"name":"Hometown Dental At Ridgemar","street":"2374 Mall Cir ","city":"Fort Worth","state":"TX","zipCode":"76116-1543","phone":"(817) 543-2222","fax":"(817) 543-2299","webSite":""},{"name":"Homsi, Moetaz","street":"6909 Custer Rd Apt 2806 ","city":"Plano","state":"TX","zipCode":"75023-1744","phone":"(954) 661-1240","fax":"","webSite":""},{"name":"Fiesta Dental","street":"166 Menefee St Ste C ","city":"Hondo","state":"TX","zipCode":"78861-3713","phone":"(830) 426-2255","fax":"","webSite":""},{"name":"Honest Family Dental","street":"421 W 3Rd St Apt 503","city":"Austin","state":"TX","zipCode":"78701-4052","phone":"(317) 340-0044","fax":"","webSite":""},{"name":"Honeycutt, Theresa A","street":"4932 Beechnut St ","city":"Houston","state":"TX","zipCode":"77096-1605","phone":"(713) 661-4500","fax":"(713) 661-4547","webSite":""},{"name":"Hong, Jihee","street":"3711 Gregory St ","city":"Wichita Falls","state":"TX","zipCode":"76308-1614","phone":"(940) 228-0963","fax":"","webSite":""},{"name":"Hong, Joan Ji-Young","street":"5005 N Piedras St ","city":"El Paso","state":"TX","zipCode":"79920-5002","phone":"(915) 742-4173","fax":"","webSite":""},{"name":"Hong, Jungmin","street":"1072 Federal Road ","city":"Houston","state":"TX","zipCode":"77015-4804","phone":"(281) 661-6090","fax":"","webSite":""},{"name":"Hong, Kristy","street":"2921 Lackland Rd Ste 201 ","city":"Fort Worth","state":"TX","zipCode":"76116-4173","phone":"(817) 732-2821","fax":"","webSite":""},{"name":"Hong, Marry Lee","street":"13901 Midway Rd Ste 106A","city":"Farmers Branch","state":"TX","zipCode":"75244-4359","phone":"(972) 239-4777","fax":"(972) 239-5542","webSite":""},{"name":"Hong, Song Hun","street":"1583 E Common St Ste 205","city":"New Braunfels","state":"TX","zipCode":"78130-3173","phone":"(830) 625-2111","fax":"(830) 620-1373","webSite":""},{"name":"Hong, Soomin","street":"620 N Coppell Rd Apt 3206 ","city":"Coppell","state":"TX","zipCode":"75019-2053","phone":"(415) 690-0611","fax":"","webSite":""},{"name":"Hong, Sunhee Camille","street":"12801 Midway Rd Ste 401 ","city":"Dallas","state":"TX","zipCode":"75244-6829","phone":"(972) 241-6862","fax":"(972) 241-6863","webSite":""},{"name":"Honnlee, Young Jason","street":"59 Dg Af Postgraduate Dental School 2133 Pepperrell Street, Building 3352","city":"Jbsa-Lackland","state":"TX","zipCode":"78236-5313","phone":"(210) 292-6258","fax":"(210) 292-2618","webSite":""},{"name":"Hooks Family Dentistry","street":"3975 Highway 6 S #1200","city":"College Station","state":"TX","zipCode":"77845-5895","phone":"(979) 694-1200","fax":"(866) 847-0096","webSite":""},{"name":"Hooks, Roy Bolden","street":"3401 Royal Vista Blvd Ste A100 ","city":"Round Rock","state":"TX","zipCode":"78681","phone":"(909) 357-0869","fax":"","webSite":""},{"name":"Hooks, Ryan Matthew","street":"3975 Highway 6 S #1200","city":"College Station","state":"TX","zipCode":"77845-5895","phone":"(979) 694-1200","fax":"(866) 847-0096","webSite":""},{"name":"Hooper, Chelsea","street":"5925 Convair Dr ","city":"Fort Worth","state":"TX","zipCode":"76109-1275","phone":"(817) 778-0418","fax":"","webSite":""},{"name":"Hooper, James William","street":"1420 W Southwest Loop 323 Suite # 4","city":"Tyler","state":"TX","zipCode":"75701-9347","phone":"(903) 561-5611","fax":"(903) 561-5354","webSite":""},{"name":"Hooper, Kirk Chilton","street":"5805 Coit Rd Suite 404","city":"Plano","state":"TX","zipCode":"75093-6989","phone":"(972) 867-5185","fax":"(972) 867-5185","webSite":""},{"name":"Hooper, Raymon Allen","street":"1420 W Southwest Loop 323 Suite #4","city":"Tyler","state":"TX","zipCode":"75701-9347","phone":"(903) 561-9535","fax":"(903) 561-5354","webSite":""},{"name":"Hoopes, Wyeth Lee","street":"1100 Wilford Hall Loop Bldg 4554 ","city":"Jbsa Lackland","state":"TX","zipCode":"78236-5638","phone":"(210) 671-7990","fax":"","webSite":""},{"name":"Hoopingarner, Charles Roy","street":"2929 Fountainview ","city":"Houston","state":"TX","zipCode":"77057","phone":"(713) 784-8235","fax":"(713) 974-0850","webSite":""},{"name":"Hoot, Joseph Homer","street":"501 S Trade Days Blvd ","city":"Canton","state":"TX","zipCode":"75103-1824","phone":"(903) 567-2666","fax":"(903) 567-7527","webSite":""},{"name":"Hoover, Amanda G","street":"6455 S Shore Blvd Ste 100 ","city":"League City","state":"TX","zipCode":"77573-5525","phone":"(281) 334-5354","fax":"(281) 334-5344","webSite":""},{"name":"Hoover, John Edward","street":"405 Inwood Rd ","city":"Azle","state":"TX","zipCode":"76020-4825","phone":"(940) 210-1016","fax":"(817) 444-9685","webSite":""},{"name":"Hillcroft Dental","street":"3838 Hillcroft Street Suite 325","city":"Houston","state":"TX","zipCode":"77057","phone":"(713) 266-0366","fax":"(713) 780-2222","webSite":""},{"name":"Hopkins, Ashley Morgan","street":"2907 Duval St ","city":"Austin","state":"TX","zipCode":"78705-3820","phone":"(512) 472-5633","fax":"","webSite":""},{"name":"Hoppe, Christopher Albert","street":"2000 Sun Chase Blvd ","city":"Cedar Park","state":"TX","zipCode":"78613","phone":"(512) 219-1811","fax":"(512) 219-1803","webSite":""},{"name":"Hoppe, Joanne Gay","street":"6333 E Mockingbird Ln Ste 255","city":"Dallas","state":"TX","zipCode":"75214-2367","phone":"(214) 821-5200","fax":"(214) 821-5227","webSite":""},{"name":"Hopps, Sarah Elizabeth","street":"1510 Piedmont Dr ","city":"Mansfield","state":"TX","zipCode":"76063-6046","phone":"(817) 773-7303","fax":"","webSite":""},{"name":"Hopson, Jerry Joe","street":"220 W Sam Rayburn Dr ","city":"Bonham","state":"TX","zipCode":"75418-4326","phone":"(903) 583-5715","fax":"(903) 640-8264","webSite":""},{"name":"Horizon Associates Llc","street":"16453 Highway 62 S ","city":"Orange","state":"TX","zipCode":"77630-1986","phone":"(409) 882-9304","fax":"(409) 670-1039","webSite":""},{"name":"Hornberger, Jacob","street":"6500 E Mockingbird Ln Ste 115 ","city":"Dallas","state":"TX","zipCode":"75214-2483","phone":"(214) 324-0233","fax":"","webSite":""},{"name":"Hornberger, Sierra Victoria Gartin","street":"4616 Us Hwy 75 Ste 201 ","city":"Denison","state":"TX","zipCode":"75020-4582","phone":"(903) 416-8585","fax":"","webSite":""},{"name":"Horne, Matthew Watson","street":"3345 Bee Caves Rd Ste 102B ","city":"West Lake Hills","state":"TX","zipCode":"78746-5463","phone":"(512) 329-5250","fax":"(512) 329-5068","webSite":""},{"name":"Horner, Andrew T","street":"9205 Skillman St #126","city":"Dallas","state":"TX","zipCode":"75243-9031","phone":"(214) 343-6040","fax":"(214) 221-4735","webSite":""},{"name":"Horner, John Ellis","street":"2802 W Walker St ","city":"Breckenridge","state":"TX","zipCode":"76424-4000","phone":"(254) 559-7215","fax":"(254) 559-5725","webSite":""},{"name":"Horner, Sandra Tiffany","street":"8528 Davis Boulevard Ste 100","city":"North Richland Hills","state":"TX","zipCode":"76180","phone":"(817) 605-0290","fax":"(817) 605-0280","webSite":""},{"name":"Horrigan, Glenn W","street":"1530 Austin Hwy ","city":"San Antonio","state":"TX","zipCode":"78218-6060","phone":"(210) 824-7900","fax":"","webSite":""},{"name":"Horsley-Teny, Aaron Schmieder","street":"1704 W Audie Murphy Pkwy ","city":"Farmersville","state":"TX","zipCode":"75442-2753","phone":"(469) 812-7100","fax":"(469) 519-0610","webSite":""},{"name":"Horwitz, W Kenneth","street":"8811 Frankway Dr Suite F","city":"Houston","state":"TX","zipCode":"77096-1900","phone":"(713) 666-2333","fax":"(713) 666-2485","webSite":""},{"name":"Hossain, Fariah","street":"711 W Bay Area Blvd Suite 604","city":"Webster","state":"TX","zipCode":"77598-4043","phone":"(281) 338-1235","fax":"","webSite":""},{"name":"Hosseini, Iran","street":"3234 Prince George Dr ","city":"Friendswood","state":"TX","zipCode":"77546-4183","phone":"(832) 932-5091","fax":"(832) 932-5091","webSite":""},{"name":"House, Donald Scott","street":"121 Eastgate Plz ","city":"Bellmead","state":"TX","zipCode":"76705-2868","phone":"(254) 799-4867","fax":"","webSite":""},{"name":"House, Franklin Richard","street":"5610 E Central Texas Expwy #3","city":"Killeen","state":"TX","zipCode":"76543","phone":"(254) 680-4450","fax":"(254) 680-4088","webSite":""},{"name":"Houser, Paul Joseph","street":"15825 Hope Village Rd Ste H ","city":"Friendswood","state":"TX","zipCode":"77546-2480","phone":"(281) 996-8392","fax":"(281) 996-5153","webSite":""},{"name":"Houshiar, Mona","street":"3000 Sage Street Apt # 1441","city":"Houston","state":"TX","zipCode":"77056","phone":"(310) 994-7567","fax":"","webSite":""},{"name":"Houska, Brad A","street":"1005 W Jefferson Blvd Ste 401 ","city":"Dallas","state":"TX","zipCode":"75208-5093","phone":"(214) 941-0039","fax":"","webSite":""},{"name":"Denver Harbor Dental Clinic","street":"424 Hahlo St ","city":"Houston","state":"TX","zipCode":"77020-3022","phone":"(713) 674-3326","fax":"(713) 674-5100","webSite":""},{"name":"Prio Dental","street":"1632 Spencer Hwy ","city":"South Houston","state":"TX","zipCode":"77587-3752","phone":"(713) 910-1002","fax":"(713) 583-7580","webSite":""},{"name":"Prio Dental","street":"6808 Harrisburg Blvd ","city":"Houston","state":"TX","zipCode":"77011-4626","phone":"(713) 928-6600","fax":"(713) 583-7571","webSite":""},{"name":"Houston Dental Clinic Llc","street":"9644 Court Glen Dr ","city":"Houston","state":"TX","zipCode":"77099-2541","phone":"(832) 283-6264","fax":"(281) 530-3603","webSite":""},{"name":"Houston Dental Clinic, Pa","street":"12121 Westheimer Rd Ste 207 ","city":"Houston","state":"TX","zipCode":"77077-6654","phone":"(281) 372-8836","fax":"","webSite":""},{"name":"Houston Dental Sleep Center Pllc","street":"1001 Medical Plaza Dr Ste 200 ","city":"The Woodlands","state":"TX","zipCode":"77380-3257","phone":"(281) 296-6797","fax":"(281) 296-6887","webSite":""},{"name":"Houston Dental Sleep Therapy","street":"2493 S Braeswood Blvd Ste C ","city":"Houston","state":"TX","zipCode":"77030-4332","phone":"(713) 218-0500","fax":"(713) 218-0533","webSite":""},{"name":"Prio Dental","street":"6808 Harrisburg Blvd ","city":"Houston","state":"TX","zipCode":"77011-4626","phone":"(713) 928-6600","fax":"(713) 583-7571","webSite":""},{"name":"Emergency Dental Care Usa","street":"5959 West Loop S Ste. 520","city":"Bellaire","state":"TX","zipCode":"77401-2421","phone":"(713) 750-9159","fax":"","webSite":""},{"name":"Houston I-10 East Management Llc","street":"13247 East Fwy ","city":"Houston","state":"TX","zipCode":"77015-5812","phone":"(832) 900-9009","fax":"","webSite":""},{"name":"Houston Mint Dentistry, Pllc","street":"19073 Interstate 45 N Suite 185 ","city":"Shenandoah","state":"TX","zipCode":"77385","phone":"(214) 821-6468","fax":"","webSite":""},{"name":"Houston Mint Dentistry, Pllc","street":"12568 Broadway St Ste 140 ","city":"Pearland","state":"TX","zipCode":"77584","phone":"(214) 821-6468","fax":"","webSite":""},{"name":"Houston Mint Dentistry, Pllc","street":"9509 Fm 1960 Ste 200 ","city":"Humble","state":"TX","zipCode":"77338","phone":"(281) 588-0068","fax":"","webSite":""},{"name":"Houston Mint Dentistry, Pllc","street":"3846 W Davis St Ste 300 ","city":"Conroe","state":"TX","zipCode":"77304-1975","phone":"(214) 821-6468","fax":"","webSite":""},{"name":"Katy Mint Dentistry","street":"1443 Fm 1463 Rd Ste 400 ","city":"Katy","state":"TX","zipCode":"77494-5438","phone":"(713) 568-5616","fax":"","webSite":""},{"name":"Houston Mint Dentistry, Pllc","street":"19222 Gulf Fwy Ste A-1 ","city":"Friendswood","state":"TX","zipCode":"77546-2831","phone":"(281) 747-9022","fax":"","webSite":""},{"name":"Houston Mint Dentistry, Pllc","street":"6610 Seawall Blvd ","city":"Galveston","state":"TX","zipCode":"77551","phone":"(281) 317-0620","fax":"","webSite":""},{"name":"Houston Mint Dentistry, Pllc","street":"3800 Southwest Fwy Ste 118 ","city":"Houston","state":"TX","zipCode":"77027-7617","phone":"(281) 317-0620","fax":"","webSite":""},{"name":"Houston Mint Dentistry, Pllc","street":"6640 Cypresswood Dr Ste 103 ","city":"Spring","state":"TX","zipCode":"77379-7738","phone":"(214) 821-6468","fax":"","webSite":""},{"name":"La Porte Mint Dentistry","street":"1309 W Fairmont Pkwy Ste C ","city":"La Porte","state":"TX","zipCode":"77571-6123","phone":"(214) 821-6468","fax":"","webSite":""},{"name":"Houston Smile Center Pa","street":"4429A Griggs Road ","city":"Houston","state":"TX","zipCode":"77021","phone":"(713) 842-2500","fax":"(713) 842-4224","webSite":""},{"name":"Apex Dental","street":"2030 Gessner Rd Ste A ","city":"Houston","state":"TX","zipCode":"77080-6342","phone":"(713) 702-1672","fax":"","webSite":""},{"name":"Emergency Dental Care Usa","street":"7906 Gulf Fwy ","city":"Houston","state":"TX","zipCode":"77017-3018","phone":"(713) 396-3844","fax":"","webSite":""},{"name":"Houston, Clifford Lee","street":"1813 Holly Hill Dr ","city":"Austin","state":"TX","zipCode":"78746-7646","phone":"(512) 627-6957","fax":"","webSite":""},{"name":"Houston, James Henry","street":"14739 Main St. ","city":"Lytle","state":"TX","zipCode":"78052","phone":"(830) 772-4567","fax":"","webSite":""},{"name":"Houston, Jared Taylor","street":"3503 S Soncy Rd Houston, Vlosich, And Short Dds","city":"Amarillo","state":"TX","zipCode":"79119-6401","phone":"(806) 374-8011","fax":"","webSite":""},{"name":"Houston, Vlosich & Short Dds Inc.","street":"3503 S Soncy Rd ","city":"Amarillo","state":"TX","zipCode":"79119-6401","phone":"(806) 374-8011","fax":"(806) 356-0281","webSite":""},{"name":"Houstonian Dental Pa","street":"4101 Greenbriar St Suite 155","city":"Houston","state":"TX","zipCode":"77098-5294","phone":"(713) 523-9655","fax":"(713) 523-0698","webSite":""},{"name":"Hovel, William George","street":"7505 North Loop Rd ","city":"El Paso","state":"TX","zipCode":"79915","phone":"(915) 598-7264","fax":"(915) 598-7274","webSite":""},{"name":"Howard Lufburrow, Dds, Pllc","street":"2004B S 57Th St ","city":"Temple","state":"TX","zipCode":"76504-6948","phone":"(254) 773-2197","fax":"","webSite":""},{"name":"Howard, Jeffrey","street":"7010 Preston Rd Suite 160","city":"Frisco","state":"TX","zipCode":"75034-5869","phone":"(972) 712-5530","fax":"(972) 712-5532","webSite":""},{"name":"Howard, Meilin","street":"4900 Overton Ridge Blvd Ste 109 ","city":"Fort Worth","state":"TX","zipCode":"76132-1911","phone":"(817) 292-6090","fax":"","webSite":""},{"name":"Howard, Raanaa Davis","street":"7031 Highway 6 N ","city":"Houston","state":"TX","zipCode":"77095-2505","phone":"(281) 859-1425","fax":"","webSite":""},{"name":"Howe, Nathan","street":"910 N Earl Rudder Fwy Ste 100 ","city":"Bryan","state":"TX","zipCode":"77802-2930","phone":"(979) 774-9999","fax":"","webSite":""},{"name":"Howell, Maria Lopez","street":"19295 Fm 2252 ","city":"Garden Ridge","state":"TX","zipCode":"78266-2516","phone":"(210) 651-5100","fax":"(210) 651-4816","webSite":""},{"name":"Howell, Mark P","street":"19295 Fm 2252 ","city":"Garden Ridge","state":"TX","zipCode":"78266-2516","phone":"(210) 651-5100","fax":"(210) 651-4816","webSite":""},{"name":"Howell, Wilson Frank","street":"5501 Independence Pkwy Ste 200","city":"Plano","state":"TX","zipCode":"75023","phone":"(972) 867-8882","fax":"(972) 867-9321","webSite":""},{"name":"Howes, Daniel Ollie","street":"3351 Westpark Dr ","city":"Houston","state":"TX","zipCode":"77005-4262","phone":"(713) 668-7316","fax":"(713) 668-2713","webSite":""},{"name":"Howze, Garrett","street":"509 N Hampton Rd Ste 101 ","city":"Desoto","state":"TX","zipCode":"75115-4970","phone":"(972) 230-3333","fax":"","webSite":""},{"name":"Howze, Shanna","street":"1750 E Broad St ","city":"Mansfield","state":"TX","zipCode":"76063-3400","phone":"(817) 473-6857","fax":"(817) 473-3256","webSite":""},{"name":"Hoyt, Spencer Salazar","street":"2572 Gus Thomasson Rd ","city":"Dallas","state":"TX","zipCode":"75228-3017","phone":"(214) 484-2479","fax":"(214) 484-3320","webSite":""},{"name":"Hp Dental Clinic, P.A.","street":"8436 Denton Hwy Ste 218","city":"Watauga","state":"TX","zipCode":"76148-2472","phone":"(817) 605-3551","fax":"","webSite":""},{"name":"Hrynyshyn, Lauren","street":"833 Landa St ","city":"New Braunfels","state":"TX","zipCode":"78130-6115","phone":"(830) 629-7494","fax":"","webSite":""},{"name":"Hs Providers Inc","street":"4515 Yoakum Blvd ","city":"Houston","state":"TX","zipCode":"77006-5821","phone":"(713) 850-0049","fax":"(713) 627-7302","webSite":""},{"name":"Hsia, Sean S","street":"913 W. Stacy Road 180","city":"Allen","state":"TX","zipCode":"75013-3021","phone":"(214) 383-5562","fax":"","webSite":""},{"name":"Hsieh, Kenneth Cherngguang","street":"7758 W Tidwell Rd Ste 126 ","city":"Houston","state":"TX","zipCode":"77040-5790","phone":"(713) 690-2555","fax":"","webSite":""},{"name":"Hsiung, Han Hsiang","street":"1512 E Exchange Pkwy #500","city":"Allen","state":"TX","zipCode":"75002-1680","phone":"(972) 390-0228","fax":"(972) 390-1356","webSite":""},{"name":"Playa Dental","street":"3701 W Northwest Hwy Suite #306","city":"Dallas","state":"TX","zipCode":"75220-4955","phone":"(714) 357-2575","fax":"","webSite":""},{"name":"Hsu, Allan","street":"3720 Gattis School Rd Ste 500","city":"Round Rock","state":"TX","zipCode":"78664-4652","phone":"(408) 316-8340","fax":"","webSite":""},{"name":"Hsu, David","street":"8300 N Fm 620 Rd Ste 100 ","city":"Austin","state":"TX","zipCode":"78726-4007","phone":"(512) 331-0359","fax":"","webSite":""},{"name":"Hsu, Vincent Tzuhsiang","street":"2427 Fry Rd ","city":"Katy","state":"TX","zipCode":"77449-6220","phone":"(281) 599-1755","fax":"","webSite":""},{"name":"Hsu, Wayne C","street":"14426 Bellaire Blvd ","city":"Houston","state":"TX","zipCode":"77083-7520","phone":"(281) 530-6868","fax":"","webSite":""},{"name":"Ht Dental Pllc","street":"8000 Coit Rd Ste 200 ","city":"Plano","state":"TX","zipCode":"75025-6820","phone":"(469) 362-8088","fax":"","webSite":""},{"name":"V Family Dentistry","street":"16427 W Little York Rd Ste H ","city":"Houston","state":"TX","zipCode":"77084-7097","phone":"(281) 201-6440","fax":"(281) 819-7448","webSite":""},{"name":"Htun, William Than","street":"5563 De Zavala Rd Suite 160","city":"San Antonio","state":"TX","zipCode":"78249-1734","phone":"(210) 696-7885","fax":"(210) 696-4557","webSite":""},{"name":"Hu, Carlus Jia-Hwa","street":"1700 Cedar Springs Rd #1511","city":"Dallas","state":"TX","zipCode":"75202-1203","phone":"(562) 569-3327","fax":"","webSite":""},{"name":"Hu, Kenpan","street":"4817 San Dario Avenue ","city":"Laredo","state":"TX","zipCode":"78401","phone":"(956) 728-7412","fax":"(956) 728-7682","webSite":""},{"name":"Hua, Hao","street":"306 Highway 377 N Ste A ","city":"Argyle","state":"TX","zipCode":"76226-3958","phone":"(940) 464-2444","fax":"","webSite":""},{"name":"Hua, Vicky V","street":"7071 Lawndale St Ste D ","city":"Houston","state":"TX","zipCode":"77023-4244","phone":"(713) 351-9437","fax":"","webSite":""},{"name":"Huang, Andy K","street":"9025 Research Blvd Suite 250","city":"Austin","state":"TX","zipCode":"78758-7010","phone":"(512) 836-7576","fax":"(512) 836-3181","webSite":""},{"name":"Huang, Geoffrey","street":"105 E Belt Line Rd Ste 900 ","city":"Cedar Hill","state":"TX","zipCode":"75104-2230","phone":"(469) 454-3045","fax":"","webSite":""},{"name":"Huang, Ke","street":"1180 N Preston Rd Ste 20 ","city":"Prosper","state":"TX","zipCode":"75078-9291","phone":"(972) 426-8770","fax":"","webSite":""},{"name":"Huang, Nga Thieu","street":"310 E Main St Ste 102 ","city":"Richardson","state":"TX","zipCode":"75081-6060","phone":"(972) 479-9304","fax":"","webSite":""},{"name":"Huang, Su-Mei Kuo","street":"1515 S Buckner Blvd Ste 223 ","city":"Dallas","state":"TX","zipCode":"75217-1766","phone":"(214) 391-6869","fax":"(214) 391-6874","webSite":""},{"name":"Hubbard, Jeffrey Wayne","street":"4131 N Central Expy Ste 600 ","city":"Dallas","state":"TX","zipCode":"75204-2174","phone":"(214) 528-3770","fax":"(214) 526-7436","webSite":""},{"name":"Hubbell, David Allen","street":"3805 Main St Suite 114","city":"The Colony","state":"TX","zipCode":"75056-2836","phone":"(972) 624-0068","fax":"(972) 624-8066","webSite":""},{"name":"Hubbell, Valerie","street":"1650 W Northwest Hwy Ste 201 ","city":"Grapevine","state":"TX","zipCode":"76051-8122","phone":"(817) 488-2211","fax":"","webSite":""},{"name":"Hubble, Cheryl E","street":"2950 Thousand Oaks Dr #16","city":"San Antonio","state":"TX","zipCode":"78247-3361","phone":"(210) 496-5422","fax":"(210) 490-2388","webSite":""},{"name":"Hubenak, Katherine","street":"20770 Us Highway 281 N Ste 110 ","city":"San Antonio","state":"TX","zipCode":"78258-7500","phone":"(210) 494-4455","fax":"(210) 496-1641","webSite":""},{"name":"Huber, Jayson Hamblin","street":"1710 Doolittle Ave ","city":"Fort Worth","state":"TX","zipCode":"76127-1134","phone":"(817) 782-5905","fax":"","webSite":""},{"name":"Huckabay, Paul Brent","street":"2000 W Cuthbert Ave ","city":"Midland","state":"TX","zipCode":"79701-5729","phone":"(432) 684-6672","fax":"(432) 685-5036","webSite":""},{"name":"Huckabee, Timothy Michael","street":"505 W Southlake Blvd ","city":"Southlake","state":"TX","zipCode":"76092-6145","phone":"(817) 329-4746","fax":"(817) 488-3611","webSite":""},{"name":"Huckaby, Melvyn Everette","street":"5230 Griggs Rd ","city":"Houston","state":"TX","zipCode":"77021-3760","phone":"(713) 454-5016","fax":"(713) 454-5018","webSite":""},{"name":"Huckin, William Price","street":"6012 Sherry Ln ","city":"Dallas","state":"TX","zipCode":"75225-6401","phone":"(214) 361-6120","fax":"(214) 369-5307","webSite":""},{"name":"Hucklebridge, John M","street":"6001 Windhaven Pkwy Suite 200","city":"Plano","state":"TX","zipCode":"75093-8045","phone":"(972) 398-2550","fax":"(972) 608-0542","webSite":""},{"name":"Hudgins, Jerry L","street":"414 Tyler St ","city":"Livingston","state":"TX","zipCode":"77351-2956","phone":"(936) 327-5757","fax":"(936) 327-3317","webSite":""},{"name":"Hudson, Amber M","street":"755 W Round Bunch Rd ","city":"Bridge City","state":"TX","zipCode":"77611-2435","phone":"(409) 735-4902","fax":"(409) 735-7595","webSite":""},{"name":"Hudson, John H","street":"104 W Cedar St ","city":"Seguin","state":"TX","zipCode":"78155-3748","phone":"(830) 379-9310","fax":"","webSite":""},{"name":"Hudson, John I","street":"221 3Rd St W 12Th Medical Group","city":"Randolph A F B","state":"TX","zipCode":"78150-4800","phone":"(210) 652-1846","fax":"","webSite":""},{"name":"Hudson, Keith C","street":"5232 Colleyville Blvd ","city":"Colleyville","state":"TX","zipCode":"76034-1227","phone":"(817) 281-3444","fax":"(817) 281-5022","webSite":""},{"name":"Hudson, Martha Jo","street":"3865 Phelan Blvd ","city":"Beaumont","state":"TX","zipCode":"77707-2243","phone":"(409) 833-5437","fax":"(409) 833-5441","webSite":""},{"name":"Hue Dental Pllc","street":"5814 N Jupiter Rd Suite 199","city":"Garland","state":"TX","zipCode":"75044","phone":"(972) 904-2886","fax":"","webSite":""},{"name":"Huet, Jennine Kirsten","street":"3115 College Park Dr Ste 105 ","city":"The Woodlands","state":"TX","zipCode":"77384-4001","phone":"(936) 321-8888","fax":"","webSite":""},{"name":"Huettner, James R","street":"3360 W Fm 544 Ste 930 ","city":"Wylie","state":"TX","zipCode":"75098-9429","phone":"(972) 915-0484","fax":"","webSite":""},{"name":"Huey, Gwin Estes","street":"14800 Webb Chapel Rd ","city":"Dallas","state":"TX","zipCode":"75234-2330","phone":"(972) 620-8280","fax":"(972) 620-8305","webSite":""},{"name":"Huff, Carolyn","street":"801 W 1St St ","city":"San Juan","state":"TX","zipCode":"78589","phone":"(956) 787-8915","fax":"","webSite":""},{"name":"Huff, Matthew P","street":"321 W Water St Suite 115","city":"Kerrville","state":"TX","zipCode":"78028","phone":"(830) 896-8343","fax":"(406) 265-3021","webSite":""},{"name":"Huffman Family Dentistry Pllc","street":"11441 Fm 1960 ","city":"Huffman","state":"TX","zipCode":"77336-4466","phone":"(713) 504-5538","fax":"","webSite":""},{"name":"Huffman Smiles Pllc","street":"24110 Fm 2100 Rd ","city":"Huffman","state":"TX","zipCode":"77336-2636","phone":"(832) 369-6775","fax":"","webSite":""},{"name":"Huffman, Damon S","street":"7157 Atascocita Rd ","city":"Humble","state":"TX","zipCode":"77346-5014","phone":"(281) 852-7874","fax":"(281) 852-2889","webSite":""},{"name":"Huffman, David S","street":"7157 Atascocita Rd ","city":"Humble","state":"TX","zipCode":"77346-5014","phone":"(281) 852-7874","fax":"(281) 852-2889","webSite":""},{"name":"Huffman, Robert Lee","street":"902 North Main ","city":"Cleburne","state":"TX","zipCode":"76033-3852","phone":"(817) 645-6674","fax":"(817) 645-6674","webSite":""},{"name":"Huffstetler, Don R.","street":"508 Highway 37 S ","city":"Mount Vernon","state":"TX","zipCode":"75457","phone":"(903) 537-2047","fax":"","webSite":""},{"name":"Huffstutler, Steven M","street":"4968 Overton Ridge Blvd ","city":"Fort Worth","state":"TX","zipCode":"76132-1909","phone":"(817) 263-0181","fax":"(817) 292-8232","webSite":""},{"name":"Huggins, John Olen","street":"1105 Kinwest Pkwy Suite 102","city":"Irving","state":"TX","zipCode":"75063-3409","phone":"(972) 401-2054","fax":"(972) 401-2351","webSite":""},{"name":"Hughen, William Mark","street":"4519 N Garfield St # 16A ","city":"Midland","state":"TX","zipCode":"79705-3415","phone":"(432) 570-7080","fax":"(432) 570-7088","webSite":""},{"name":"Huh, Jun Hyuk","street":"1500 S Main St ","city":"Fort Worth","state":"TX","zipCode":"76104-4917","phone":"(817) 702-6936","fax":"","webSite":""},{"name":"Huicochea Martinez, Carlos Miguel","street":"427 W Wheatland Rd ","city":"Duncanville","state":"TX","zipCode":"75116-4619","phone":"(972) 298-2027","fax":"(724) 768-6269","webSite":""},{"name":"Hujar, Thomas Christopher","street":"510 E. Main ","city":"Tomball","state":"TX","zipCode":"77375","phone":"(281) 255-6160","fax":"","webSite":""},{"name":"Hulen Modern Dentistry","street":"4833 S Hulen St Ste 101 ","city":"Fort Worth","state":"TX","zipCode":"76132-1427","phone":"(817) 294-4600","fax":"(817) 292-0077","webSite":""},{"name":"Hulings, Greg Scott","street":"1701 Legacy Dr Suite 120","city":"Frisco","state":"TX","zipCode":"75034-5987","phone":"(214) 618-5950","fax":"(214) 618-5952","webSite":""},{"name":"Hull, Jeff Michael","street":"2300 Columbus Ave ","city":"Waco","state":"TX","zipCode":"76701-1041","phone":"(254) 754-3505","fax":"(254) 754-0108","webSite":""},{"name":"Cypress Dental Care","street":"11803 Grant Rd Suite 202","city":"Cypress","state":"TX","zipCode":"77429-4032","phone":"(281) 374-9255","fax":"(281) 758-8130","webSite":""},{"name":"Humble 9701, Pllc","street":"9701 N Sam Houston Pkwy E ","city":"Humble","state":"TX","zipCode":"77396-4636","phone":"(832) 461-0805","fax":"(832) 827-6813","webSite":""},{"name":"Humble Dental Arts, Pllc","street":"6818 Atascocita Rd ","city":"Humble","state":"TX","zipCode":"77346-2817","phone":"(281) 668-9990","fax":"","webSite":""},{"name":"Hume, Ted R.","street":"8335 Walnut Hill Ln Suite 110","city":"Dallas","state":"TX","zipCode":"75231-4216","phone":"(214) 361-7335","fax":"(214) 361-7337","webSite":""},{"name":"Westoaks Dentistry","street":"2703 S Hwy 6 Ste 147","city":"Houston","state":"TX","zipCode":"77082","phone":"(281) 752-5200","fax":"(281) 752-5211","webSite":""},{"name":"Humphrey, Virginia Potter","street":"2603 Se Military Drive 103","city":"San Antonio","state":"TX","zipCode":"78223","phone":"(210) 333-6911","fax":"","webSite":""},{"name":"Humphries, Christina Beth","street":"2711 4Th St ","city":"Bay City","state":"TX","zipCode":"77414-6309","phone":"(979) 245-6541","fax":"","webSite":""},{"name":"Humphries, James Wallace","street":"2711 4Th St ","city":"Bay City","state":"TX","zipCode":"77414-6309","phone":"(979) 245-6541","fax":"(979) 245-0118","webSite":""},{"name":"Huneycutt, Jayson B","street":"25827 Sarah Springs Ct ","city":"Spring","state":"TX","zipCode":"77373-4980","phone":"(832) 498-0943","fax":"","webSite":""},{"name":"Hunsaker, Elizabeth Anne","street":"2518 Dorrington St ","city":"Houston","state":"TX","zipCode":"77030-1929","phone":"(713) 661-3583","fax":"(713) 218-0724","webSite":""},{"name":"Hunsaker, Harry Stephen","street":"4635 Everhart Rd ","city":"Corpus Christi","state":"TX","zipCode":"78411-2741","phone":"(361) 851-1506","fax":"(361) 851-1345","webSite":""},{"name":"Hunsaker, Keely","street":"350 Dolphin Pl ","city":"Corpus Christi","state":"TX","zipCode":"78411-1512","phone":"(361) 854-7505","fax":"","webSite":""},{"name":"Hunsucker, Bob Cullen","street":"6305 Preston Rd Suite 1100","city":"Plano","state":"TX","zipCode":"75024-2606","phone":"(972) 781-1500","fax":"","webSite":""},{"name":"Hunt, David Alan","street":"8951 Ruthby St Ste 13","city":"Houston","state":"TX","zipCode":"77061-3141","phone":"(713) 645-3580","fax":"(713) 645-0534","webSite":""},{"name":"Hunt, David Harry","street":"204 Wesley Dr Medical Arts Plaza","city":"Kerrville","state":"TX","zipCode":"78028-5809","phone":"(830) 896-6414","fax":"(830) 896-6488","webSite":""},{"name":"Hunt, Dominique C","street":"2110 Eldorado Pkwy Ste 100 ","city":"Mckinney","state":"TX","zipCode":"75070-7508","phone":"(469) 907-5008","fax":"","webSite":""},{"name":"Hunt, Gregory Allen","street":"906 W Abram ","city":"Arlington","state":"TX","zipCode":"76013","phone":"(817) 261-9392","fax":"(817) 275-7138","webSite":""},{"name":"Hunt, Jason","street":"209 Us Highway 90 W Suite 3","city":"Castroville","state":"TX","zipCode":"78009-4555","phone":"(830) 931-9117","fax":"","webSite":""},{"name":"Hunt, John Milton","street":"609 South Main ","city":"Shamrock","state":"TX","zipCode":"79079","phone":"(806) 256-3655","fax":"","webSite":""},{"name":"Huntsville Dental Pllc","street":"3011 Highway 30 W ","city":"Huntsville","state":"TX","zipCode":"77340-3534","phone":"(936) 294-0400","fax":"","webSite":""},{"name":"Huque, Meherun Nessa","street":"2019 Shaver St ","city":"Pasadena","state":"TX","zipCode":"77502-3635","phone":"(713) 477-2900","fax":"(713) 477-2995","webSite":""},{"name":"Hur, Ju Ri","street":"808 Ne Mall Blvd ","city":"Hurst","state":"TX","zipCode":"76053-4653","phone":"(817) 595-9675","fax":"","webSite":""},{"name":"Huriega, John Roland","street":"8235 Fredericksburg Rd ","city":"San Antonio","state":"TX","zipCode":"78229","phone":"(210) 616-0858","fax":"(210) 615-6767","webSite":""},{"name":"Hurley, Donald Lee","street":"1440 N Macarthur Blvd Suite #104","city":"Irving","state":"TX","zipCode":"75061-4409","phone":"(972) 721-0488","fax":"","webSite":""},{"name":"Hurley, Jason C","street":"101 W. River ","city":"Meridian","state":"TX","zipCode":"76665","phone":"(254) 435-6002","fax":"","webSite":""},{"name":"Hurley, Kristen","street":"1600 Providence Dr ","city":"Waco","state":"TX","zipCode":"76707-2261","phone":"(254) 313-4200","fax":"(254) 313-4326","webSite":""},{"name":"Hurme, Risto Edward","street":"1017 Shook Ave ","city":"San Antonio","state":"TX","zipCode":"78212-2508","phone":"(210) 826-4441","fax":"(210) 826-0609","webSite":""},{"name":"Hurr, John Raymond","street":"7912 Bayway Drive ","city":"Baytown","state":"TX","zipCode":"77520","phone":"(281) 424-5502","fax":"(281) 424-5502","webSite":""},{"name":"Hurst, Eric Michael","street":"216 I45 South ","city":"League City","state":"TX","zipCode":"77573","phone":"(281) 338-6559","fax":"(281) 338-4953","webSite":""},{"name":"Hurtado, Roxana","street":"1300 S Gregg St ","city":"Big Spring","state":"TX","zipCode":"79720-4325","phone":"(432) 203-9484","fax":"","webSite":""},{"name":"Husain, Mehtab","street":"2410 Stanley Rd Dentac Suite 200J","city":"Fort Sam Houston","state":"TX","zipCode":"78234-7529","phone":"(210) 295-2743","fax":"(210) 295-2602","webSite":""},{"name":"Huselton & Osina Dentistry","street":"1601 Main St Ste 307 ","city":"Richmond","state":"TX","zipCode":"77469-3230","phone":"(281) 342-5022","fax":"(281) 342-5777","webSite":""},{"name":"Huselton, Charles N.","street":"1601 Main St Ste 307 ","city":"Richmond","state":"TX","zipCode":"77469-3230","phone":"(281) 342-5022","fax":"(281) 342-5777","webSite":""},{"name":"Hussain, Erum","street":"5858 S Padre Island Dr Suite 54 A","city":"Corpus Christi","state":"TX","zipCode":"78412-3932","phone":"(361) 994-4867","fax":"","webSite":""},{"name":"Hussain, Hanif","street":"14465 Webb Chapel Rd Suite 203","city":"Farmers Branch","state":"TX","zipCode":"75234-3659","phone":"(972) 247-8162","fax":"(972) 247-2309","webSite":""},{"name":"Hussain, Insiya Abid","street":"5110 Avenue H Ste M05 ","city":"Rosenberg","state":"TX","zipCode":"77471-2014","phone":"(832) 595-0022","fax":"","webSite":""},{"name":"Hussain, Jayesha","street":"14510 Josey Lane Suite 206 ","city":"Farmers Branch","state":"TX","zipCode":"75234","phone":"(972) 243-3739","fax":"(972) 243-5443","webSite":""},{"name":"Hussamy, Abir","street":"18700 W Lake Houston Pkwy Ste A107 ","city":"Humble","state":"TX","zipCode":"77346-3350","phone":"(281) 964-1001","fax":"(281) 852-6770","webSite":""},{"name":"Prio Dental","street":"1632 Spencer Hwy ","city":"South Houston","state":"TX","zipCode":"77587-3752","phone":"(713) 910-1002","fax":"(713) 583-7580","webSite":""},{"name":"Hutchings, Stephen Brian","street":"602 E Highway 190 ","city":"Copperas Cove","state":"TX","zipCode":"76522-2956","phone":"(254) 547-5226","fax":"","webSite":""},{"name":"Hutchins, Joe Keith","street":"4820 Bissonnet St ","city":"Bellaire","state":"TX","zipCode":"77401-4029","phone":"(713) 668-0551","fax":"(713) 668-8940","webSite":""},{"name":"Hutchison, Clifford Ross","street":"6025 Harris Pkwy ","city":"Fort Worth","state":"TX","zipCode":"76132-4103","phone":"(817) 361-5620","fax":"(817) 361-7060","webSite":""},{"name":"Hutchison, Stanley Buck","street":"3630 Sw 45Th Ave ","city":"Amarillo","state":"TX","zipCode":"79109-5689","phone":"(806) 661-8006","fax":"(806) 331-7650","webSite":""},{"name":"Hutchison, Thomas L","street":"8118 Shoal Creek Blvd ","city":"Austin","state":"TX","zipCode":"78757-8041","phone":"(512) 453-7244","fax":"","webSite":""},{"name":"Hutto Premier Dentistry","street":"123 Ed Schmidt Blvd 100","city":"Hutto","state":"TX","zipCode":"78634-5585","phone":"(512) 846-2646","fax":"(512) 846-1258","webSite":""},{"name":"Hutto, Dean Vinson","street":"3800 N Main St ","city":"Baytown","state":"TX","zipCode":"77521-3306","phone":"(281) 422-8248","fax":"(281) 428-8084","webSite":""},{"name":"Huu, Hoa Kim","street":"3703 Fm 2765 Rd Suite H","city":"El Campo","state":"TX","zipCode":"77437-6399","phone":"(979) 543-2229","fax":"","webSite":""},{"name":"Huvar, Jared Lyn","street":"501 Dance Dr ","city":"West Columbia","state":"TX","zipCode":"77486-4019","phone":"(979) 345-3621","fax":"(979) 345-1294","webSite":""},{"name":"Town Square Dental","street":"916 Harris Ave ","city":"Pasadena","state":"TX","zipCode":"77506-4708","phone":"(713) 534-8800","fax":"(713) 534-8800","webSite":""},{"name":"Huy Quach Dds Pc","street":"15634 Wallisville Rd 900","city":"Houston","state":"TX","zipCode":"77049-4635","phone":"(832) 549-7402","fax":"","webSite":""},{"name":"Huynh&Assoc.,Inc","street":"1001 Long Prairie Rd Ste. 100","city":"Flower Mound","state":"TX","zipCode":"75022-4202","phone":"(972) 899-7991","fax":"","webSite":""},{"name":"Huynh, Angela","street":"4125 Richmond Pkwy Ste 110 ","city":"Richmond","state":"TX","zipCode":"77469-2504","phone":"(281) 560-3001","fax":"","webSite":""},{"name":"Huynh, Carolyn P.","street":"6516 M D Anderson Blvd Suite 1.072","city":"Houston","state":"TX","zipCode":"77030-3402","phone":"(713) 500-4191","fax":"(713) 500-0412","webSite":""},{"name":"Huynh, Chi Hue","street":"3302 N Buckner Blvd Ste 119","city":"Dallas","state":"TX","zipCode":"75228","phone":"(214) 320-3466","fax":"(214) 320-3444","webSite":""},{"name":"Huynh, Duc Phu","street":"3209 Lester Dr ","city":"Richardson","state":"TX","zipCode":"75082-3771","phone":"(214) 701-3969","fax":"","webSite":""},{"name":"Huynh, Dung","street":"5020 Fm 1960 Rd W ","city":"Houston","state":"TX","zipCode":"77069-4519","phone":"(281) 580-9058","fax":"","webSite":""},{"name":"Huynh, Duyen My","street":"22094 Westheimer Pkwy ","city":"Katy","state":"TX","zipCode":"77450-8291","phone":"(281) 828-8889","fax":"(281) 828-9080","webSite":""},{"name":"Huynh, Eric Ngoc","street":"1401 W Berry St ","city":"Fort Worth","state":"TX","zipCode":"76110-3814","phone":"(817) 921-9616","fax":"(817) 921-9599","webSite":""},{"name":"Huynh, Hai Andrew","street":"11281 Fondren Rd B","city":"Houston","state":"TX","zipCode":"77096","phone":"(713) 484-8889","fax":"(713) 774-9080","webSite":""},{"name":"Huynh, Hieu Quang","street":"2427 N Fry Rd ","city":"Katy","state":"TX","zipCode":"77449-6220","phone":"(281) 599-1755","fax":"","webSite":""},{"name":"Huynh, Lee Tan","street":"12168 Bellaire Blvd Ste 100 ","city":"Houston","state":"TX","zipCode":"77072-2642","phone":"(281) 400-1111","fax":"","webSite":""},{"name":"Huynh, Lianne P","street":"3420 W Orem Dr Ste. E","city":"Houston","state":"TX","zipCode":"77045-4634","phone":"(713) 433-6825","fax":"(713) 433-9919","webSite":""},{"name":"Huynh, Quyen Tu","street":"9759 Forest Ln Suite 450A","city":"Dallas","state":"TX","zipCode":"75243-7775","phone":"(214) 575-3900","fax":"(214) 575-3902","webSite":""},{"name":"Huynh, Steve","street":"12227 Lake June Rd ","city":"Balch Springs","state":"TX","zipCode":"75180-4855","phone":"(972) 216-8880","fax":"","webSite":""},{"name":"Huynh, Thang Alex","street":"2323 Wirt Rd Suite F","city":"Houston","state":"TX","zipCode":"77055-1232","phone":"(713) 464-1000","fax":"","webSite":""},{"name":"Huynh, Thanh","street":"9612 Hwy 6 Ste 100 ","city":"Missouri City","state":"TX","zipCode":"77459-5509","phone":"(281) 747-9988","fax":"","webSite":""},{"name":"Huynh, Thi","street":"1001 Long Prairie Rd Ste.100","city":"Flower Mound","state":"TX","zipCode":"75022-4202","phone":"(972) 899-7990","fax":"(972) 899-7993","webSite":""},{"name":"Huynh, Tho","street":"510 Highway 6 #110","city":"Sugar Land","state":"TX","zipCode":"77478-4945","phone":"(281) 565-0077","fax":"(281) 565-1022","webSite":""},{"name":"Tung T Huynh                                                                        ","street":"4407d Fm 1960 West Houston, TX 77068"},{"name":"Huynh, Tuyet Thi Anh","street":"810 W Arapaho Rd Suite 96","city":"Richardson","state":"TX","zipCode":"75080-4063","phone":"(972) 238-9999","fax":"(972) 238-9974","webSite":""},{"name":"Huynh, Vi G","street":"9211 West Road, #151 ","city":"Houston","state":"TX","zipCode":"77064","phone":"(281) 894-7210","fax":"(281) 894-7215","webSite":""},{"name":"Huynh-Tran, Amy D","street":"11302 Broadway St Suite 104","city":"Pearland","state":"TX","zipCode":"77584-9795","phone":"(281) 416-5844","fax":"(281) 506-8333","webSite":""},{"name":"Hwang, Adrienne Yoon","street":"908 Town And Country Blvd Ste 220","city":"Houston","state":"TX","zipCode":"77024-2221","phone":"(713) 465-6665","fax":"(713) 465-6477","webSite":""},{"name":"Hwang, Eojin","street":"7010 S Zarzamora St 113","city":"San Antonio","state":"TX","zipCode":"78224-1142","phone":"(210) 921-0603","fax":"","webSite":""},{"name":"Hwang, Jungsun","street":"6407 Colleyville Blvd Ste A ","city":"Colleyville","state":"TX","zipCode":"76034-6279","phone":"(817) 421-1104","fax":"(817) 421-2006","webSite":""},{"name":"Hwy 30 Dental Clinic P A","street":"1204 Woodhaven Blvd ","city":"Fort Worth","state":"TX","zipCode":"76112","phone":"(817) 654-9760","fax":"(817) 451-8389","webSite":""},{"name":"Hyatt, Clinton Yardley","street":"8711 Bedford Euless Rd ","city":"Hurst","state":"TX","zipCode":"76053-3851","phone":"(817) 589-0496","fax":"","webSite":""},{"name":"Hyatt, Steven Richard","street":"7124 Woodway Dr ","city":"Waco","state":"TX","zipCode":"76712-6102","phone":"(254) 231-4277","fax":"","webSite":""},{"name":"Hyde, Ray H","street":"4245 Kemp Blvd Suite 500","city":"Wichita Falls","state":"TX","zipCode":"76308-2824","phone":"(940) 692-5112","fax":"(940) 692-5342","webSite":""},{"name":"Hyde, Ryan Douglass","street":"4525 Van Winkle Dr ","city":"Amarillo","state":"TX","zipCode":"79119-6423","phone":"(806) 655-7463","fax":"(806) 355-6014","webSite":""},{"name":"The Smile Center","street":"512 W Stassney Ln Suite #106","city":"Austin","state":"TX","zipCode":"78745-3178","phone":"(512) 445-2444","fax":"(512) 445-2224","webSite":""},{"name":"Southtown Dental Group","street":"930 S Alamo ","city":"San Antonio","state":"TX","zipCode":"78205-3419","phone":"(210) 227-0101","fax":"(210) 212-6125","webSite":""},{"name":"Hi Dental Care","street":"13319 East Fwy ","city":"Houston","state":"TX","zipCode":"77015-5801","phone":"(713) 451-3333","fax":"(713) 429-4005","webSite":""},{"name":"Ibarra, Randolph A","street":"8744 Grissom Rd ","city":"San Antonio","state":"TX","zipCode":"78251-4819","phone":"(210) 523-0000","fax":"(210) 523-0067","webSite":""},{"name":"Ibeto, Pamela Oluchi","street":"6410 Fannin St Ste 310 ","city":"Houston","state":"TX","zipCode":"77030-3004","phone":"(704) 906-4878","fax":"","webSite":""},{"name":"Ibn-Ahmed, Hussen H","street":"7703 Floyd Curl Drive Ut Health Science Center At San A Msc 7903, Advanced General Dentistry Clinic","city":"San Antonio","state":"TX","zipCode":"78229-3900","phone":"(210) 567-3456","fax":"(210) 567-3443","webSite":""},{"name":"Ibrahim, Kirolls","street":"1304 Junction Hwy Ste 750 ","city":"Kerrville","state":"TX","zipCode":"78028","phone":"(830) 895-3889","fax":"","webSite":""},{"name":"Ibrik, Taj","street":"1659 W State Highway 46 Suite 180","city":"New Braunfels","state":"TX","zipCode":"78132-4744","phone":"(830) 625-6600","fax":"","webSite":""},{"name":"Ibrite Dental Pllc","street":"1114 E Seminary Dr ","city":"Fort Worth","state":"TX","zipCode":"76115-2830","phone":"(817) 921-0883","fax":"(888) 600-6547","webSite":""},{"name":"Ibrush Family Dentistry, Pllc","street":"3513 Mccart Ave Ste B ","city":"Fort Worth","state":"TX","zipCode":"76110-4600","phone":"(817) 921-4646","fax":"(817) 921-4546","webSite":""},{"name":"Icare Dental","street":"13319 East Fwy ","city":"Houston","state":"TX","zipCode":"77015-5801","phone":"(713) 451-3333","fax":"(713) 451-3394","webSite":""},{"name":"Tin-Sheng Chen Dds Pa","street":"1807 W Slaughter Ln Ste 650 ","city":"Austin","state":"TX","zipCode":"78748-6211","phone":"(512) 282-4266","fax":"(512) 282-4269","webSite":""},{"name":"Ics Dental Pa","street":"2310 E Saunders St Ste 102","city":"Laredo","state":"TX","zipCode":"78041-5435","phone":"(956) 717-9300","fax":"(956) 717-9307","webSite":""},{"name":"Ideal Dental And Orthodontics","street":"3121 N George Bush Hwy Ste 113","city":"Garland","state":"TX","zipCode":"75040-2752","phone":"(469) 368-9889","fax":"(469) 368-9885","webSite":""},{"name":"Cornerstone Dental","street":"4020 Fm 2181 ","city":"Hickory Creek","state":"TX","zipCode":"75065-7526","phone":"(940) 321-2088","fax":"","webSite":""},{"name":"Parkside Dental","street":"3010 State Highway 121 300","city":"Euless","state":"TX","zipCode":"76039-5823","phone":"(817) 571-3368","fax":"","webSite":""},{"name":"Cornerstone Dental - Flower Mound","street":"2616 Long Prairie Rd Suite 105","city":"Flower Mound","state":"TX","zipCode":"75022-4839","phone":"(972) 899-3499","fax":"(972) 899-3498","webSite":""},{"name":"Ideal Dental Of Forney, Pllc","street":"724 East Us Highway 80 Suite 130","city":"Forney","state":"TX","zipCode":"75126","phone":"(972) 552-2373","fax":"","webSite":""},{"name":"Ideal Dental Of Fort Worth, Pllc","street":"12584 N Beach St Suite 150","city":"Fort Worth","state":"TX","zipCode":"76244-4249","phone":"(817) 337-0021","fax":"","webSite":""},{"name":"Ideal Dental Of Frisco, Pllc","street":"5570 Fm 423 Suite 400","city":"Frisco","state":"TX","zipCode":"75034","phone":"(972) 361-0600","fax":"","webSite":""},{"name":"Parkview Dental","street":"4949 Hedgcoxe Rd Suite 160","city":"Plano","state":"TX","zipCode":"75024-3898","phone":"(214) 387-8800","fax":"(214) 387-8825","webSite":""},{"name":"Ideal Dental Of Southlake, Pllc","street":"2645 E Southlake Blvd Suite 150","city":"Southlake","state":"TX","zipCode":"76092","phone":"(817) 734-9445","fax":"","webSite":""},{"name":"Ideal Dental Of University Park, Pllc","street":"8611 Hillcrest Ave Suite 250","city":"Dallas","state":"TX","zipCode":"75225-4207","phone":"(214) 361-3550","fax":"","webSite":""},{"name":"Ideal Dental Of Uptown","street":"4323 Lemmon Ave ","city":"Dallas","state":"TX","zipCode":"75219-2706","phone":"(214) 522-4444","fax":"","webSite":""},{"name":"Ideal Dental Of Wylie, Pllc","street":"805 Woodbridge Pkwy #400 ","city":"Wylie","state":"TX","zipCode":"75098","phone":"(972) 832-4994","fax":"","webSite":""},{"name":"Ideal Dentistry, Pllc","street":"1099 N Walnut Ave Suite D","city":"New Braunfels","state":"TX","zipCode":"78130-5322","phone":"(512) 293-5502","fax":"","webSite":""},{"name":"Ideal Smiles Of Mckinney Pllc","street":"5080 Virginia Pkwy Suite 100","city":"Mckinney","state":"TX","zipCode":"75071-5599","phone":"(972) 361-0600","fax":"","webSite":""},{"name":"Ismile Dental Center","street":"4429 Griggs Rd Ste A ","city":"Houston","state":"TX","zipCode":"77021-2852","phone":"(713) 842-2500","fax":"(713) 842-4224","webSite":""},{"name":"The Smile Designer","street":"7809 Louetta Rd ","city":"Spring","state":"TX","zipCode":"77379-7007","phone":"(281) 257-8815","fax":"(281) 257-6267","webSite":""},{"name":"Idtc Dental Hygiene Center","street":"838 S Carrier Pkwy ","city":"Grand Prairie","state":"TX","zipCode":"75051-1517","phone":"(469) 299-8974","fax":"(469) 480-4763","webSite":""},{"name":"Ifarajimi, Ayodele Oluropo","street":"103 E 28Th Ave ","city":"Pampa","state":"TX","zipCode":"79065-3016","phone":"(806) 669-1833","fax":"","webSite":""},{"name":"Iftikhar, Mussadiq","street":"8410 Fondren Road ","city":"Houston","state":"TX","zipCode":"77479-2308","phone":"(832) 924-2666","fax":"","webSite":""},{"name":"Ighani, Elham Ellie","street":"817 W Pioneer Pkwy Suite 150","city":"Grand Prairie","state":"TX","zipCode":"75051","phone":"(972) 602-2000","fax":"(972) 602-2062","webSite":""},{"name":"Ighodaro, Amenze","street":"2400 Richmond Rd ","city":"Texarkana","state":"TX","zipCode":"75503-2466","phone":"(870) 330-4604","fax":"","webSite":""},{"name":"Iglesias, Alan","street":"23896 Loop 494 ","city":"Porter","state":"TX","zipCode":"77365-4924","phone":"(281) 354-5482","fax":"(281) 354-6146","webSite":""},{"name":"Iglinsky, Patrick Joseph","street":"1517 Wilson Rd. ","city":"Conroe","state":"TX","zipCode":"77304-2123","phone":"(936) 539-2211","fax":"(936) 539-2862","webSite":""},{"name":"Igun, Adepeju Olubukola","street":"6918 W Military Dr ","city":"San Antonio","state":"TX","zipCode":"78227-3620","phone":"(210) 674-3700","fax":"","webSite":""},{"name":"Igun, Adetokunbo","street":"715 W Wheatland Rd ","city":"Duncanville","state":"TX","zipCode":"75116-4520","phone":"(972) 298-0347","fax":"","webSite":""},{"name":"Iheanacho, Eberechukwu","street":"2939 Regency Dr ","city":"Edinburg","state":"TX","zipCode":"78539-2216","phone":"(956) 630-4900","fax":"(956) 682-9806","webSite":""},{"name":"Ihionkhan, Omowumi Akhuini","street":"1499 E Marshall Ave ","city":"Longview","state":"TX","zipCode":"75601-5433","phone":"(903) 242-9778","fax":"(903) 242-9778","webSite":""},{"name":"Ilustre, Joseph Bryan","street":"3695 Kirby Dr Ste 129 ","city":"Pearland","state":"TX","zipCode":"77584-5544","phone":"(281) 941-5488","fax":"","webSite":""},{"name":"Im, Hong R","street":"11808 Ring Dr ","city":"Manor","state":"TX","zipCode":"78653-2111","phone":"(512) 649-3339","fax":"","webSite":""},{"name":"Imadomwanyi, Anita Oghogho","street":"1515 S Buckner Blvd Ste #223","city":"Dallas","state":"TX","zipCode":"75217-1760","phone":"(214) 391-6868","fax":"","webSite":""},{"name":"Imboden, Michael Chad","street":"2301 Eldorado Pkwy Suite 500","city":"Mckinney","state":"TX","zipCode":"75070-4362","phone":"(972) 542-3005","fax":"(972) 542-6776","webSite":""},{"name":"Immanuel Dental Center","street":"1147 Clear Lake City Blvd ","city":"Houston","state":"TX","zipCode":"77062-8102","phone":"(281) 286-5867","fax":"(281) 286-6551","webSite":""},{"name":"Imo, Kelvin Chukwuemeka","street":"2111 Limrick Dr ","city":"Pearland","state":"TX","zipCode":"77581-5143","phone":"(301) 404-9633","fax":"","webSite":""},{"name":"Vivid Dental","street":"11560 Fm 1960 Rd W Ste 200 ","city":"Houston","state":"TX","zipCode":"77065-4257","phone":"(281) 809-4903","fax":"","webSite":""},{"name":"Imperial, Arthur Patrick","street":"5114 Balcones Woods Dr Ste 308 ","city":"Austin","state":"TX","zipCode":"78759-5212","phone":"(512) 346-1900","fax":"(512) 346-2272","webSite":""},{"name":"Impink-Hernandez, Natasha","street":"11010 W Fm 471 Ste 104 ","city":"San Antonio","state":"TX","zipCode":"78253-4991","phone":"(210) 688-9386","fax":"","webSite":""},{"name":"Imran, Amna","street":"7004 Wind Row Dr ","city":"Mckinney","state":"TX","zipCode":"75070-8627","phone":"(832) 919-4271","fax":"","webSite":""},{"name":"Inampudi, Lavanya","street":"655 West Illinois Avenue Suite # 1065","city":"Dallas","state":"TX","zipCode":"75224","phone":"(214) 943-2484","fax":"","webSite":""},{"name":"Inapuri, Pavani","street":"817 W White St Ste 100 ","city":"Anna","state":"TX","zipCode":"75409-2613","phone":"(214) 631-9199","fax":"(877) 209-0956","webSite":""},{"name":"Incrapera, Frank Liborio","street":"624 Chadbourne Ct ","city":"Houston","state":"TX","zipCode":"77079-6428","phone":"(281) 597-9938","fax":"","webSite":""},{"name":"Planet Dental","street":"2438 Monarch Dr Ste A-135 ","city":"Laredo","state":"TX","zipCode":"78045-6600","phone":"(909) 648-6198","fax":"","webSite":""},{"name":"Indrakanti, Nagaraju Rashmi","street":"1715 S Mays St Suite E","city":"Round Rock","state":"TX","zipCode":"78664-6740","phone":"(512) 248-8888","fax":"(512) 733-0000","webSite":""},{"name":"Indus Dental Associates, P.C.","street":"10025 Lake June Rd ","city":"Dallas","state":"TX","zipCode":"75217-3041","phone":"(972) 362-2237","fax":"","webSite":""},{"name":"Indus Dental Associates, P.C.","street":"2701 S Hampton Rd Suite 201","city":"Dallas","state":"TX","zipCode":"75224-2367","phone":"(469) 608-8327","fax":"","webSite":""},{"name":"Indus Dental Associates, P.C.","street":"800 N Coit Rd Suite 2550","city":"Richardson","state":"TX","zipCode":"75080-5458","phone":"(972) 385-9331","fax":"","webSite":""},{"name":"Indus Dental Associates, P.C.","street":"512 W Rosedale St ","city":"Fort Worth","state":"TX","zipCode":"76104-4619","phone":"(972) 362-2235","fax":"","webSite":""},{"name":"Indus Dental Associates, P.C.","street":"7700 Fulton St Suite A","city":"Houston","state":"TX","zipCode":"77022-3638","phone":"(832) 460-3474","fax":"","webSite":""},{"name":"Indus Dental Associates, P.C.","street":"6047 Bissonnet St ","city":"Houston","state":"TX","zipCode":"77081-6903","phone":"(281) 407-3771","fax":"","webSite":""},{"name":"Infinity Dental Care, Pllc","street":"5716 Abrams Rd ","city":"Dallas","state":"TX","zipCode":"75214-1601","phone":"(214) 691-8400","fax":"(214) 691-8402","webSite":""},{"name":"Infinity Dental Group","street":"5706 Telephone Rd Ste C ","city":"Houston","state":"TX","zipCode":"77087-4420","phone":"(713) 645-4333","fax":"(713) 645-4928","webSite":""},{"name":"Infinity Dental Pllc","street":"3043 Old Denton Rd Suite 108","city":"Carrollton","state":"TX","zipCode":"75007-5003","phone":"(972) 839-2873","fax":"","webSite":""},{"name":"Frisco Smile Center Pllc","street":"755 E State Highway 121 Suite A200","city":"Lewisville","state":"TX","zipCode":"75057-4107","phone":"(817) 501-6507","fax":"","webSite":""},{"name":"Ingleside Dentistry","street":"2681 State Highway 361 ","city":"Ingleside","state":"TX","zipCode":"78362-4200","phone":"(361) 776-3535","fax":"(866) 766-2629","webSite":""},{"name":"Ingram Mall Fdcpa","street":"6301 Nw Loop 410 Ste L1A ","city":"San Antonio","state":"TX","zipCode":"78238-3829","phone":"(210) 354-4867","fax":"(210) 681-6985","webSite":""},{"name":"Inmon, Macy F","street":"41 West Side Square ","city":"Cooper","state":"TX","zipCode":"75460","phone":"(903) 395-2137","fax":"","webSite":""},{"name":"Inn Dental Pllc","street":"15534 Ranch Road 620 N Ste 300 ","city":"Austin","state":"TX","zipCode":"78717-5277","phone":"(512) 580-9200","fax":"","webSite":""},{"name":"Innovative Dentistry Of Fall Creek, Pllc","street":"8303 N Sam Houston Pkwy E Ste C ","city":"Humble","state":"TX","zipCode":"77396-4933","phone":"(346) 616-5350","fax":"(346) 616-5353","webSite":""},{"name":"Insight Dental Group","street":"1011 Augusta Dr Ste 209 ","city":"Houston","state":"TX","zipCode":"77057-2061","phone":"(713) 623-0700","fax":"(713) 799-1190","webSite":""},{"name":"Instasmiles Llc","street":"150 Brand Ste 800 ","city":"Murphy","state":"TX","zipCode":"75094-3734","phone":"(214) 901-0113","fax":"","webSite":""},{"name":"Introligator, Dale Robert","street":"2525 Green Oak Suite A","city":"Houston","state":"TX","zipCode":"77339","phone":"(281) 358-1005","fax":"(281) 358-0731","webSite":""},{"name":"Inwood Dental, P.C.","street":"12250 Inwood Rd Suite 4","city":"Dallas","state":"TX","zipCode":"75244-8033","phone":"(972) 233-2341","fax":"(972) 233-0209","webSite":""},{"name":"Inwood Family Dentistry Pllc","street":"2515 Inwood Rd Suite 101","city":"Dallas","state":"TX","zipCode":"75235-7434","phone":"(972) 512-0285","fax":"","webSite":""},{"name":"Ionescu, Alex","street":"415 S School St ","city":"Boerne","state":"TX","zipCode":"78006-2519","phone":"(830) 249-9888","fax":"","webSite":""},{"name":"Ionescu, Florin","street":"415 S School St ","city":"Boerne","state":"TX","zipCode":"78006-2519","phone":"(830) 249-9888","fax":"","webSite":""},{"name":"Ip, Aaron Kent","street":"3010 Lyndon B Johnson Fwy Ste 200","city":"Dallas","state":"TX","zipCode":"75234-7770","phone":"(972) 444-8888","fax":"(972) 488-1899","webSite":""},{"name":"Iq Dental Pllc","street":"15511 State Highway 71 West Suite # 120","city":"Bee Cave","state":"TX","zipCode":"78738","phone":"(512) 540-4644","fax":"(512) 540-4644","webSite":""},{"name":"Iqbal Dental Of Euless","street":"451 Westpark Way Ste 3 ","city":"Euless","state":"TX","zipCode":"76040-3743","phone":"(817) 283-2265","fax":"","webSite":""},{"name":"Iqbal, Mustafa","street":"1925 Park Lake Dr ","city":"Waco","state":"TX","zipCode":"76708-1682","phone":"(254) 221-0999","fax":"","webSite":""},{"name":"Iqbal, Sami Ahmed","street":"2316 S Zapata Hwy Suite 190","city":"Laredo","state":"TX","zipCode":"78046-6563","phone":"(956) 284-0600","fax":"","webSite":""},{"name":"Iqbal, Sidra","street":"3711 Gregory St ","city":"Wichita Falls","state":"TX","zipCode":"76308-1614","phone":"(978) 728-2351","fax":"","webSite":""},{"name":"Iranmehr, Bahar","street":"17390 Preston Rd Ste 242 ","city":"Dallas","state":"TX","zipCode":"75252-5781","phone":"(972) 447-9707","fax":"(972) 447-9779","webSite":""},{"name":"Iranmehr, Mehrnaz","street":"17000 Preston Rd Ste 170 ","city":"Dallas","state":"TX","zipCode":"75248-1224","phone":"(972) 447-9707","fax":"(972) 447-9779","webSite":""},{"name":"Irina Zaltsgendler Dds, Pllc","street":"1620 S Mason Rd ","city":"Katy","state":"TX","zipCode":"77450-4563","phone":"(281) 693-0253","fax":"","webSite":""},{"name":"Smiles-R-Us","street":"1114 Sw Military Dr Suite #112","city":"San Antonio","state":"TX","zipCode":"78221-1568","phone":"(210) 923-5422","fax":"(210) 923-2974","webSite":""},{"name":"Irvine, Tori Anne","street":"3626 N Macarthur Blvd 235","city":"Irving","state":"TX","zipCode":"75062-3637","phone":"(972) 594-0022","fax":"","webSite":""},{"name":"Dental Republic","street":"1015 E Irving Blvd ","city":"Irving","state":"TX","zipCode":"75060-4350","phone":"(972) 747-1400","fax":"","webSite":""},{"name":"Irving Dental","street":"807 N Belt Line Rd ","city":"Irving","state":"TX","zipCode":"75061-6317","phone":"(972) 313-2002","fax":"","webSite":""},{"name":"Irving Dental Care Pc","street":"1451 W Airport Fwy Ste 103 ","city":"Irving","state":"TX","zipCode":"75062-6223","phone":"(817) 676-1590","fax":"(817) 977-1110","webSite":""},{"name":"Irving Family Dentistry Pllc","street":"2421 W Airport Fwy ","city":"Irving","state":"TX","zipCode":"75062-6016","phone":"(469) 518-9905","fax":"","webSite":""},{"name":"Irwin, Scott","street":"1100 Wilford Hall Loop, Bldg 4554 Attn: 59 Mdw/Sghc","city":"Jbsa Lackland","state":"TX","zipCode":"78236-9909","phone":"(210) 292-6225","fax":"","webSite":""},{"name":"Irwin, William Michael","street":"316 Freeport St ","city":"Houston","state":"TX","zipCode":"77015-2311","phone":"(713) 453-7133","fax":"(713) 453-4699","webSite":""},{"name":"Isaac, George M.","street":"615 E Schuster Ave Ste 9-B ","city":"El Paso","state":"TX","zipCode":"79902-4360","phone":"(915) 532-3611","fax":"(915) 532-0713","webSite":""},{"name":"Isaland Dental","street":"6206 Antoine Dr ","city":"Houston","state":"TX","zipCode":"77091-2615","phone":"(713) 263-8900","fax":"","webSite":""},{"name":"Isgema Corp.","street":"2404 Commercial Ave Ste G","city":"San Antonio","state":"TX","zipCode":"78221-1703","phone":"(210) 928-7975","fax":"(210) 928-7977","webSite":""},{"name":"Isgrigg, Kiersten Marie","street":"6331 Garth Rd Ste 100 ","city":"Baytown","state":"TX","zipCode":"77521-5624","phone":"(281) 545-5165","fax":"","webSite":""},{"name":"Iskandar, Mounir","street":"2020 W Rochelle Rd ","city":"Irving","state":"TX","zipCode":"75062-5348","phone":"(972) 258-1702","fax":"","webSite":""},{"name":"Island Dental","street":"6821 Stewart Rd ","city":"Galveston","state":"TX","zipCode":"77551-1841","phone":"(409) 741-0202","fax":"(409) 741-0201","webSite":""},{"name":"Dental Distinction","street":"3455 N Belt Line Rd Suite 200","city":"Irving","state":"TX","zipCode":"75062-7860","phone":"(469) 226-9941","fax":"","webSite":""},{"name":"Ismile Dental At The Chisolm Trail Pllc","street":"5513 Sycamore School Rd ","city":"Fort Worth","state":"TX","zipCode":"76123","phone":"(817) 899-6311","fax":"","webSite":""},{"name":"Ismile Family Dental Pa","street":"825 West Royal Lane Ste 210","city":"Irving","state":"TX","zipCode":"75039","phone":"(214) 620-7445","fax":"","webSite":""},{"name":"Ismile Pc","street":"6434 Highway 6 N ","city":"Houston","state":"TX","zipCode":"77084-1310","phone":"(352) 682-1600","fax":"","webSite":""},{"name":"Issa Eid, Sharifah","street":"3306 W Camp Wisdom Rd Ste 100","city":"Dallas","state":"TX","zipCode":"75237-2596","phone":"(972) 709-4867","fax":"","webSite":""},{"name":"Issa-Abbas, Tam Ngoc","street":"6502 Bandera Rd Suite 201","city":"San Antonio","state":"TX","zipCode":"78238-1400","phone":"(210) 684-5040","fax":"(210) 682-7785","webSite":""},{"name":"Istre, Michael Shayne","street":"1144 Airport Blvd Ste 240 ","city":"Austin","state":"TX","zipCode":"78702-3165","phone":"(512) 929-7888","fax":"(512) 929-8091","webSite":""},{"name":"Istre, Todd L","street":"6300 West Loop S Ste 650 ","city":"Bellaire","state":"TX","zipCode":"77401-2997","phone":"(713) 663-7960","fax":"","webSite":""},{"name":"Itooth Dentistry, Pllc","street":"905 N Jupiter Rd Suite 180","city":"Richardson","state":"TX","zipCode":"75081-7712","phone":"(214) 924-3160","fax":"","webSite":""},{"name":"Ivey, Austin Yeager","street":"3302 Gaston Ave Dept. Of Oms","city":"Dallas","state":"TX","zipCode":"75246-2013","phone":"(214) 828-8101","fax":"","webSite":""},{"name":"Ivins, Joyce Roe","street":"301 Third Street ","city":"Farwell","state":"TX","zipCode":"79325-0800","phone":"(806) 481-3336","fax":"(805) 481-3339","webSite":""},{"name":"Legacy Park Dental","street":"1001 Ne Green Oaks Blvd 129","city":"Arlington","state":"TX","zipCode":"76006-2318","phone":"(817) 789-4480","fax":"","webSite":""},{"name":"North Star Dentistry","street":"2601 S Stemmons Fwy Ste # 160","city":"Lewisville","state":"TX","zipCode":"75067-4137","phone":"(214) 488-3368","fax":"(214) 466-8957","webSite":""},{"name":"Ivy Lane Dentistry","street":"1073 Ivy Ln ","city":"San Antonio","state":"TX","zipCode":"78209-6061","phone":"(210) 824-9566","fax":"(210) 824-9975","webSite":""},{"name":"Ivyrose Family Dentistry","street":"2131 N Collins St Ste 415","city":"Arlington","state":"TX","zipCode":"76011-2849","phone":"(682) 518-5655","fax":"","webSite":""},{"name":"Iwobho, Benjamin Odion","street":"2306 Guthrie Rd Ste 180 ","city":"Garland","state":"TX","zipCode":"75043-5952","phone":"(972) 226-1003","fax":"","webSite":""},{"name":"Iwuala, Gloria D","street":"310 W 19Th St ","city":"Houston","state":"TX","zipCode":"77008-3906","phone":"(713) 869-4085","fax":"(713) 869-6414","webSite":""},{"name":"Iyer, Radhika","street":"2020 W Rochelle Rd ","city":"Irving","state":"TX","zipCode":"75062-5348","phone":"(469) 706-9355","fax":"","webSite":""},{"name":"Iyer, Vaishnavi Ravindran","street":"838 S Carrier Pkwy ","city":"Grand Prairie","state":"TX","zipCode":"75051-1517","phone":"(217) 247-7255","fax":"","webSite":""},{"name":"Iyer, Varun","street":"8410 Datapoint Dr Fl 3 ","city":"San Antonio","state":"TX","zipCode":"78229-3220","phone":"(210) 617-5300","fax":"","webSite":""},{"name":"Iype, Sharon Kuriakose","street":"3108 S 31St St Ste 3108 ","city":"Temple","state":"TX","zipCode":"76502-1803","phone":"(254) 742-1800","fax":"","webSite":""},{"name":"Izaddoust, Amir H","street":"723 N Fielder Rd Suite E","city":"Arlington","state":"TX","zipCode":"76012-4697","phone":"(817) 462-0007","fax":"","webSite":""},{"name":"Izaddoust, Shiva","street":"2310 Sw Military Dr Suite 406","city":"San Antonio","state":"TX","zipCode":"78224-1407","phone":"(210) 927-1400","fax":"(210) 927-6330","webSite":""},{"name":"Izzard, William Rudy","street":"2141 Hamilton Way Suite 104","city":"San Angelo","state":"TX","zipCode":"76904-6831","phone":"(325) 949-6656","fax":"(325) 947-2423","webSite":""},{"name":"J & S Cabrera Pllc","street":"9815 Fm 1960 Rd W ","city":"Humble","state":"TX","zipCode":"77338-5702","phone":"(281) 548-3384","fax":"(281) 548-7336","webSite":""},{"name":"J B Porsch Dds Inc","street":"702 W Arapaho Suite 100","city":"Richardson","state":"TX","zipCode":"75080-4154","phone":"(972) 231-7214","fax":"(972) 231-5856","webSite":""},{"name":"J M Taylor Dds Inc","street":"409 W Tyler St ","city":"Gilmer","state":"TX","zipCode":"75644","phone":"(903) 843-2996","fax":"(903) 843-3616","webSite":""},{"name":"Dental Innovations","street":"900 Broadway St ","city":"Houston","state":"TX","zipCode":"77012-2127","phone":"(713) 928-3311","fax":"","webSite":""},{"name":"J Michael Adame Dds Pa","street":"201 N Main St Ste B ","city":"Donna","state":"TX","zipCode":"78537-2720","phone":"(956) 464-4448","fax":"(956) 464-9742","webSite":""},{"name":"Todays Dentistry League City","street":"1901 E Main St ","city":"League City","state":"TX","zipCode":"77573-4242","phone":"(281) 332-6323","fax":"","webSite":""},{"name":"Today'S Dentistry","street":"1801 Broadway St ","city":"Galveston","state":"TX","zipCode":"77550-4912","phone":"(409) 762-8443","fax":"(409) 762-0036","webSite":""},{"name":"J Tim Rainey, Dds, P.C.","street":"606 Osage St ","city":"Refugio","state":"TX","zipCode":"78377-3229","phone":"(361) 526-4695","fax":"(361) 526-4697","webSite":""},{"name":"Lifetime Dental","street":"1414 E Blanco Rd Suite 16","city":"Boerne","state":"TX","zipCode":"78006-1831","phone":"(830) 249-9300","fax":"(830) 249-9330","webSite":""},{"name":"J&A Dental Partners","street":"5940 Kyle Pkwy Ste 105 ","city":"Kyle","state":"TX","zipCode":"78640-2482","phone":"(847) 687-7496","fax":"","webSite":""},{"name":"Beverly Dental Center","street":"2138 N Josey Ln Suite 104","city":"Carrollton","state":"TX","zipCode":"75006-3034","phone":"(972) 242-4505","fax":"(972) 242-6420","webSite":""},{"name":"J. Carl Chilton Dds, Inc","street":"434 Weatherly St ","city":"Borger","state":"TX","zipCode":"79007-4220","phone":"(806) 274-5329","fax":"(806) 274-7115","webSite":""},{"name":"Round Rock Family Dental","street":"2000 S I H 35 Ste K1 ","city":"Round Rock","state":"TX","zipCode":"78681-6916","phone":"(512) 255-7839","fax":"(512) 255-7898","webSite":""},{"name":"J. Colby Smith, Dds, Pa","street":"3007 Williams Dr ","city":"Georgetown","state":"TX","zipCode":"78628-2778","phone":"(512) 869-2563","fax":"(512) 863-9372","webSite":""},{"name":"J. Craig Scasta, D.D.S., Pa","street":"1615 Barak Ln Ste 2 ","city":"Bryan","state":"TX","zipCode":"77802-3301","phone":"(979) 260-2626","fax":"(979) 260-2631","webSite":""},{"name":"J. Joel Lowry D.D.S., Inc.","street":"2122 Texas St ","city":"Vernon","state":"TX","zipCode":"76384-4452","phone":"(940) 552-5477","fax":"(940) 552-6677","webSite":""},{"name":"J. Steven Sollers, D.D.S., P.C.","street":"1402 S Clark Rd ","city":"Duncanville","state":"TX","zipCode":"75137-2811","phone":"(972) 296-9447","fax":"(972) 296-7909","webSite":""},{"name":"J. Walton Lawrence, Jr., D.D.S., Inc.","street":"2512 Horne St Ste C ","city":"Fort Worth","state":"TX","zipCode":"76107-4651","phone":"(817) 737-6601","fax":"(817) 737-6446","webSite":""},{"name":"Hudson Oaks Family Dentistry","street":"200 S Oakridge Dr Ste 106","city":"Hudson Oaks","state":"TX","zipCode":"76087-1794","phone":"(956) 245-0105","fax":"","webSite":""},{"name":"J.Perry Fikes D.D.S P.C.","street":"400 N Loop 1604 E Suite 205","city":"San Antonio","state":"TX","zipCode":"78232-1258","phone":"(210) 496-3869","fax":"","webSite":""},{"name":"Avenue Dental","street":"1720 W Anderson Ln ","city":"Austin","state":"TX","zipCode":"78757-1336","phone":"(512) 329-9900","fax":"","webSite":""},{"name":"J.W. Haltom D.D.S., Inc.","street":"320 E 8Th St ","city":"Littlefield","state":"TX","zipCode":"79339-3821","phone":"(806) 385-6935","fax":"(806) 385-6937","webSite":""},{"name":"Jabalie, William Edward","street":"2501 Mcrae Blvd ","city":"El Paso","state":"TX","zipCode":"79925-6034","phone":"(915) 598-8661","fax":"","webSite":""},{"name":"Jabbary, Armin","street":"1319 Strawberry Rd ","city":"Pasadena","state":"TX","zipCode":"77502-2601","phone":"(713) 472-6100","fax":"","webSite":""},{"name":"Jabbary, Iraj S","street":"1214 E Houston St Ste D ","city":"Cleveland","state":"TX","zipCode":"77327-4754","phone":"(281) 593-3300","fax":"(281) 593-1616","webSite":""},{"name":"Jabbour, George M","street":"5819 Highway 6 Ste 230 ","city":"Missouri City","state":"TX","zipCode":"77459-4070","phone":"(281) 499-3541","fax":"","webSite":""},{"name":"Jabbour, Ghias K","street":"6909 N Loop 1604 E Ste 1010 ","city":"San Antonio","state":"TX","zipCode":"78247-5305","phone":"(210) 653-4867","fax":"","webSite":""},{"name":"Jack, April N","street":"1420 W. Mockingbird Lane Suite 500","city":"Dallas","state":"TX","zipCode":"75247","phone":"(214) 630-7080","fax":"(214) 630-7085","webSite":""},{"name":"Jackson Creek Dental Center","street":"2105 Jackson Creek Ave. ","city":"Edinburg","state":"TX","zipCode":"78539","phone":"(956) 316-1600","fax":"","webSite":""},{"name":"Jackson, Ashley","street":"1827 E Park Row Dr ","city":"Arlington","state":"TX","zipCode":"76010-4638","phone":"(972) 223-9600","fax":"(972) 223-9607","webSite":""},{"name":"Jackson, Barry L","street":"4111 Call Field Rd ","city":"Wichita Falls","state":"TX","zipCode":"76308-2516","phone":"(940) 696-2225","fax":"(940) 696-9083","webSite":""},{"name":"Jackson, Chad M","street":"#5 Eureka Circle Suite A","city":"Wichita Falls","state":"TX","zipCode":"76308","phone":"(940) 691-6066","fax":"(940) 691-6068","webSite":""},{"name":"Jackson, Eric","street":"9631B Fm 1960 Rd W ","city":"Houston","state":"TX","zipCode":"77070-6110","phone":"(281) 469-0589","fax":"","webSite":""},{"name":"Jackson, Harry J.","street":"Hqs, Usa Dentac 4441 Service Drive","city":"Ft Hood","state":"TX","zipCode":"76544-5054","phone":"(254) 287-2705","fax":"(254) 287-1786","webSite":""},{"name":"Jackson, Maria O.","street":"5330 E Mockingbird Ln Ste 120 ","city":"Dallas","state":"TX","zipCode":"75206-0941","phone":"(214) 821-5011","fax":"","webSite":""},{"name":"Jackson, Mayra Karen","street":"6320 Us 287 Hwy Ste 128 ","city":"Arlington","state":"TX","zipCode":"76001-2868","phone":"(817) 561-2161","fax":"","webSite":""},{"name":"Jackson, Michael","street":"3501 Towne Crossing Blvd Suite 180","city":"Mesquite","state":"TX","zipCode":"75150-2783","phone":"(972) 270-6646","fax":"","webSite":""},{"name":"Jackson, Michael Roy","street":"6924 South Fwy ","city":"Ft Worth","state":"TX","zipCode":"76134-3800","phone":"(817) 293-7431","fax":"(817) 293-3848","webSite":""},{"name":"Jackson, Stephanie Elaine","street":"1706 Treasure Hills Blvd ","city":"Harlingen","state":"TX","zipCode":"78550-8911","phone":"(956) 365-6003","fax":"(956) 365-6780","webSite":""},{"name":"Jackson, Tracie","street":"1507 W League City Pkwy Ste 100 ","city":"League City","state":"TX","zipCode":"77573-7340","phone":"(281) 332-8400","fax":"(281) 476-6429","webSite":""},{"name":"Jackson-Taylor, Yolanda Juanitha","street":"3010 Lbj Fwy Ste 200 ","city":"Dallas","state":"TX","zipCode":"75234-2723","phone":"(972) 444-8888","fax":"","webSite":""},{"name":"Fundamental Dental","street":"11613 N Central Expy Ste 111A ","city":"Dallas","state":"TX","zipCode":"75243-3808","phone":"(972) 360-0096","fax":"","webSite":""},{"name":"Jacob, Linda","street":"1150 N Watters Rd Suite 104","city":"Allen","state":"TX","zipCode":"75013-5508","phone":"(972) 908-3773","fax":"","webSite":""},{"name":"Jacob, Lorraine Vinitha","street":"23219 Spruce Falls Ct ","city":"Katy","state":"TX","zipCode":"77494-3523","phone":"(832) 594-8291","fax":"","webSite":""},{"name":"Jacob, Maria","street":"4431 W Walnut St Ste A ","city":"Garland","state":"TX","zipCode":"75042-4108","phone":"(972) 998-5945","fax":"","webSite":""},{"name":"Jacob, Tiffany Tresa","street":"3555 Murphy Rd #103","city":"Richardson","state":"TX","zipCode":"75082-5215","phone":"(972) 424-3555","fax":"(972) 905-7414","webSite":""},{"name":"Jacobs, Dale Travers","street":"12225 Greenville Ave Suite 122","city":"Dallas","state":"TX","zipCode":"75243-2081","phone":"(972) 235-7060","fax":"(972) 235-1588","webSite":""},{"name":"Jacobs, Harmon Voss","street":"1010 W Mitchell Street ","city":"Arlington","state":"TX","zipCode":"76013-2543","phone":"(817) 265-0871","fax":"(817) 276-0489","webSite":""},{"name":"Jacobs, Jeffrey","street":"1402 Sw Military Dr ","city":"San Antonio","state":"TX","zipCode":"78221-1556","phone":"(210) 923-8066","fax":"(210) 923-8554","webSite":""},{"name":"Jacobs, Michelle Trunk","street":"264 Shoreline Dr ","city":"Azle","state":"TX","zipCode":"76020-4036","phone":"(817) 237-6457","fax":"","webSite":""},{"name":"Jacobs, Stacey Lee","street":"1313 Lorenzo #3","city":"Castroville","state":"TX","zipCode":"78009-4532","phone":"(830) 538-2236","fax":"(830) 931-2007","webSite":""},{"name":"Jacqueline Duong Dmd Pllc","street":"8282 Bellaire Blvd Ste 147 ","city":"Houston","state":"TX","zipCode":"77036-4031","phone":"(713) 778-0100","fax":"","webSite":""},{"name":"Jacques, Lionel M","street":"427 W 20Th St Suite 702","city":"Houston","state":"TX","zipCode":"77008-2441","phone":"(713) 868-2721","fax":"(713) 862-1199","webSite":""},{"name":"Jacques, Michael Joseph","street":"16000 Park Valley Dr Ste 100 ","city":"Round Rock","state":"TX","zipCode":"78681-4009","phone":"(512) 244-7995","fax":"(512) 310-0451","webSite":""},{"name":"Jae Dental Pllc","street":"201 S Rogers Rd ","city":"Irving","state":"TX","zipCode":"75060-2608","phone":"(817) 710-7443","fax":"(817) 710-1447","webSite":""},{"name":"Jaeckle, Hugo Michael","street":"515 W Beauregard Ave ","city":"San Angelo","state":"TX","zipCode":"76903-6360","phone":"(325) 655-0663","fax":"(325) 655-0665","webSite":""},{"name":"Jaetzold, Cory Bryan","street":"2131 N Collins Ste 415","city":"Arlington","state":"TX","zipCode":"76011","phone":"(817) 277-7800","fax":"(817) 274-0300","webSite":""},{"name":"Jafari, Haleh","street":"8535 West Bellfort ","city":"Houston","state":"TX","zipCode":"77071","phone":"(713) 777-8999","fax":"(713) 988-2422","webSite":""},{"name":"Jafari, Ramin Reza","street":"7301 State Highway 161 Ste 198 ","city":"Irving","state":"TX","zipCode":"75039-2880","phone":"(972) 869-3789","fax":"(972) 869-3791","webSite":""},{"name":"Jaffer, Nurin Shiraz","street":"12960 East Fwy ","city":"Houston","state":"TX","zipCode":"77015-5710","phone":"(713) 453-3559","fax":"(713) 453-5861","webSite":""},{"name":"Jafferally, Akbar H.","street":"19875 Southwest Fwy Ste 120 ","city":"Sugar Land","state":"TX","zipCode":"77479-3502","phone":"(281) 989-4259","fax":"","webSite":""},{"name":"Jaglal, Rajesh","street":"3120 S Alameda St ","city":"Corpus Christi","state":"TX","zipCode":"78404-2506","phone":"(361) 887-6200","fax":"","webSite":""},{"name":"Jahanbin, Ali Z.","street":"810 Caldwell St Building A, Suite 300","city":"Manor","state":"TX","zipCode":"78653-3360","phone":"(512) 272-8900","fax":"(512) 272-8915","webSite":""},{"name":"Jai V Patel Dds Pa","street":"3000 Silverlake Village Dr Ste 100 ","city":"Pearland","state":"TX","zipCode":"77584-8422","phone":"(713) 436-9959","fax":"(713) 436-9968","webSite":""},{"name":"Jaime Villarreal D.D.S. Pllc","street":"1530 Forest Ln Suite E","city":"Garland","state":"TX","zipCode":"75042","phone":"(972) 485-6100","fax":"(972) 485-6111","webSite":""},{"name":"Jain, Minal","street":"825 E Rundberg Ln Ste A1 ","city":"Austin","state":"TX","zipCode":"78753-4809","phone":"(408) 835-3726","fax":"","webSite":""},{"name":"Jain, Ruchi","street":"2726 E Business 190 Ste 112 ","city":"Copperas Cove","state":"TX","zipCode":"76522-2526","phone":"(254) 987-6311","fax":"","webSite":""},{"name":"Jaiswal, Nidhi","street":"4526 Burnhill Dr ","city":"Plano","state":"TX","zipCode":"75024-7359","phone":"(940) 230-0219","fax":"","webSite":""},{"name":"Jalali, Tina","street":"12757 Westheimer Rd ","city":"Houston","state":"TX","zipCode":"77077-5709","phone":"(281) 558-5057","fax":"","webSite":""},{"name":"Jamali, Saba","street":"6501 S Fry Rd Ste 800","city":"Katy","state":"TX","zipCode":"77494-3376","phone":"(281) 574-5005","fax":"","webSite":""},{"name":"Jamboree Dentistry Vi Pllc","street":"6715 Bissonnet St ","city":"Houston","state":"TX","zipCode":"77074-6129","phone":"(832) 930-7850","fax":"(832) 930-7851","webSite":""},{"name":"James B Wallace Jr Dds Inc","street":"6618 Fm 2100 ","city":"Crosby","state":"TX","zipCode":"77532","phone":"(281) 328-3569","fax":"","webSite":""},{"name":"James B. Wright, D.D.S., Inc.","street":"1801 Harwood Ct ","city":"Hurst","state":"TX","zipCode":"76054-3190","phone":"(817) 788-0573","fax":"","webSite":""},{"name":"James D Peck Dds Pa","street":"702 W Arapaho Suite 100","city":"Richardson","state":"TX","zipCode":"75080-4154","phone":"(972) 231-7214","fax":"(972) 231-5856","webSite":""},{"name":"Drs Cohlmia, Miller And Utter","street":"8335 Walnut Hill Lane Ste 200 ","city":"Dallas","state":"TX","zipCode":"75231","phone":"(214) 750-6925","fax":"(214) 363-6607","webSite":""},{"name":"Duncan Dental Studio","street":"240 Reliant Dr ","city":"Portland","state":"TX","zipCode":"78374-3317","phone":"(361) 643-3030","fax":"(361) 643-5050","webSite":""},{"name":"James Holt, Dds, Pa","street":"600 E Southlake Blvd #100","city":"Southlake","state":"TX","zipCode":"76092-6254","phone":"(817) 488-2273","fax":"","webSite":""},{"name":"Oasis Family Dental","street":"3820 Fm 3009 Ste. 172","city":"Schertz","state":"TX","zipCode":"78154-2724","phone":"(210) 878-9016","fax":"","webSite":""},{"name":"James R. Herbst Ll, D.D.S., P.C.","street":"2401 Fountain View Dr Ste 106 ","city":"Houston","state":"TX","zipCode":"77057-4819","phone":"(713) 266-2265","fax":"(713) 266-1560","webSite":""},{"name":"James S Moore, Dds,Inc","street":"1109 E James St ","city":"Baytown","state":"TX","zipCode":"77520-5821","phone":"(281) 422-3415","fax":"(281) 427-4264","webSite":""},{"name":"James S. Peterson, Dds, Pa","street":"598 S Denton Tap Rd Ste 103 ","city":"Coppell","state":"TX","zipCode":"75019-4004","phone":"(972) 462-1600","fax":"","webSite":""},{"name":"James, Amanda M","street":"2628 Matlock Rd ","city":"Arlington","state":"TX","zipCode":"76015-2525","phone":"(817) 468-3077","fax":"(817) 460-2876","webSite":""},{"name":"James, Angela Rosemarie","street":"1429 Hawthorne St ","city":"Houston","state":"TX","zipCode":"77006-3711","phone":"(713) 341-3794","fax":"","webSite":""},{"name":"James, Jeb Stuart","street":"2501 Ave I ","city":"Bay City","state":"TX","zipCode":"77414","phone":"(979) 245-1654","fax":"(979) 244-5116","webSite":""},{"name":"James, Leon Demont","street":"150 E Highway 67 Suite 180","city":"Duncanville","state":"TX","zipCode":"75137-4411","phone":"(972) 709-4800","fax":"(972) 709-7700","webSite":""},{"name":"James, Misti P","street":"7200 W Highway 71 Suite A","city":"Austin","state":"TX","zipCode":"78735-8315","phone":"(512) 288-2823","fax":"(512) 288-5435","webSite":""},{"name":"James, Rani","street":"2121 Northwest Hwy Ste 112 ","city":"Garland","state":"TX","zipCode":"75041-4851","phone":"(972) 864-0695","fax":"","webSite":""},{"name":"Twelve Oaks Dental Clinic","street":"401 Oak St ","city":"Graham","state":"TX","zipCode":"76450-2521","phone":"(940) 549-2183","fax":"(940) 549-4215","webSite":""},{"name":"Jamieson, Margaret L","street":"7036 Antoine Dr ","city":"Houston","state":"TX","zipCode":"77088-6613","phone":"(281) 260-8999","fax":"(281) 260-8866","webSite":""},{"name":"Jamil, Saadia Rasul","street":"1318 Edenderry Ln ","city":"Missouri City","state":"TX","zipCode":"77459-2754","phone":"(832) 466-1336","fax":"","webSite":""},{"name":"Jan, James John","street":"4441 Service Drive Hqs, Usa Dentac","city":"Ft Hood","state":"TX","zipCode":"76544-5054","phone":"(254) 287-2705","fax":"","webSite":""},{"name":"Janene E. Marrs, D.D.S., P.A.","street":"8811 Frankway Dr Suite C","city":"Houston","state":"TX","zipCode":"77096-1900","phone":"(713) 666-0864","fax":"(713) 661-9688","webSite":""},{"name":"Janice F Babin Dds, Fagd And Associates, Pa","street":"3807 Highway 6 S ","city":"Houston","state":"TX","zipCode":"77082-4317","phone":"(281) 497-0111","fax":"","webSite":""},{"name":"Jankowski, Daniel Todd","street":"6102 Scott St ","city":"Houston","state":"TX","zipCode":"77021","phone":"(817) 529-8151","fax":"","webSite":""},{"name":"Janos, Bryan M","street":"3932 Fort Blvd ","city":"El Paso","state":"TX","zipCode":"79930","phone":"(915) 566-9415","fax":"(915) 566-9415","webSite":""},{"name":"Jansa, Robert Frank","street":"2000 Ih 35 S Suite K-1","city":"Round Rock","state":"TX","zipCode":"78681-6900","phone":"(512) 255-7839","fax":"","webSite":""},{"name":"Janse, Cam Riddick","street":"9820 Braun Rd Suite 102","city":"San Antonio","state":"TX","zipCode":"78254","phone":"(210) 523-2400","fax":"(210) 523-2401","webSite":""},{"name":"Jansen Bean Dds Pllc","street":"9300 Wade Blvd Ste 250 ","city":"Frisco","state":"TX","zipCode":"75035-2174","phone":"(972) 668-5608","fax":"(972) 668-5611","webSite":""},{"name":"Jansen, Josee","street":"2030 N Belt Line Rd ","city":"Mesquite","state":"TX","zipCode":"75150-5815","phone":"(712) 301-4439","fax":"","webSite":""},{"name":"Janusz, Caitlin","street":"1100 Wilford Hall Loop Bldg 4554","city":"Jbsa Lackland","state":"TX","zipCode":"78236","phone":"(210) 292-6225","fax":"","webSite":""},{"name":"Jaramillo, Noe Luis","street":"317 S Market St ","city":"Goliad","state":"TX","zipCode":"77963-4167","phone":"(361) 645-2381","fax":"","webSite":""},{"name":"Jared Huvar Family And Cosmetic Dentistry","street":"907 S Columbia Dr ","city":"West Columbia","state":"TX","zipCode":"77486-3637","phone":"(979) 345-3621","fax":"(979) 345-3723","webSite":""},{"name":"Jarisch, Justin","street":"1811 Army Blvd ","city":"Fort Sam Houston","state":"TX","zipCode":"78234","phone":"(210) 221-0826","fax":"","webSite":""},{"name":"Jaroslav Dolezal D.D.S.,P.A.","street":"215 E 1St St ","city":"Alice","state":"TX","zipCode":"78332-4821","phone":"(361) 668-4208","fax":"(361) 668-1025","webSite":""},{"name":"Jarosz, Kenneth Earl","street":"4506 Kemp ","city":"Wichita Falls","state":"TX","zipCode":"76308","phone":"(940) 723-0435","fax":"(940) 766-4241","webSite":""},{"name":"Jarrell Family Dentistry, Pllc","street":"181 Town Center Blvd 100","city":"Jarrell","state":"TX","zipCode":"76537","phone":"(512) 868-5000","fax":"","webSite":""},{"name":"Jarrell, Walter M","street":"1305 Keefer Street ","city":"Tomball","state":"TX","zipCode":"77375","phone":"(281) 351-5403","fax":"(281) 255-3980","webSite":""},{"name":"Campbell Dental","street":"11901 W Parmer Ln Suite 100","city":"Cedar Park","state":"TX","zipCode":"78613-7651","phone":"(512) 259-9400","fax":"","webSite":""},{"name":"Jasmine Dental","street":"339 W Parkwood Ave ","city":"Friendswood","state":"TX","zipCode":"77546-5424","phone":"(281) 993-1299","fax":"(281) 993-1960","webSite":""},{"name":"Berry & Berry Dental Associates","street":"2600 James Road Ste #100","city":"Granbury","state":"TX","zipCode":"76049","phone":"(817) 326-4098","fax":"(817) 326-4470","webSite":""},{"name":"Jason A Burkett D.D.S.,P.A.","street":"4336 N Mccoll Rd ","city":"Mcallen","state":"TX","zipCode":"78504-2477","phone":"(956) 686-5577","fax":"(956) 686-1152","webSite":""},{"name":"Mustang Dental Care","street":"101 W. River St. ","city":"Meridian","state":"TX","zipCode":"76665","phone":"(254) 435-6002","fax":"(254) 435-2900","webSite":""},{"name":"Vasquez Dental Plaza","street":"501 Nueces Bay Blvd ","city":"Corpus Christi","state":"TX","zipCode":"78408-3227","phone":"(361) 331-2557","fax":"","webSite":""},{"name":"Jason M. Miller Dds, Pa","street":"200 E Main St Suite - C","city":"Crowley","state":"TX","zipCode":"76036-2680","phone":"(817) 297-2271","fax":"","webSite":""},{"name":"Rayburn General Dentistry","street":"3303 W Rr 255 ","city":"Brookeland","state":"TX","zipCode":"75931-6412","phone":"(409) 698-8800","fax":"","webSite":""},{"name":"Jassim, Marwa","street":"2121 El Paseo St Apt 1308 ","city":"Houston","state":"TX","zipCode":"77054-3224","phone":"(817) 609-2267","fax":"","webSite":""},{"name":"Jaswal, Harmohinderpal Singh","street":"24601 Southwest Fwy Suite 200","city":"Rosenberg","state":"TX","zipCode":"77471-6266","phone":"(210) 239-2010","fax":"","webSite":""},{"name":"Jauregui, Allan Rodrigo","street":"1507 E Court St Ste 107 ","city":"Seguin","state":"TX","zipCode":"78155-5265","phone":"(830) 372-9979","fax":"","webSite":""},{"name":"Javaid, Ali","street":"16535 Southwest Fwy 570","city":"Sugar Land","state":"TX","zipCode":"77479-2321","phone":"(954) 846-7171","fax":"","webSite":""},{"name":"Javarone, Julia","street":"21681 Kingsland Blvd ","city":"Katy","state":"TX","zipCode":"77450-2512","phone":"(281) 646-8888","fax":"","webSite":""},{"name":"Javidan-Nejad, Ehsan","street":"1111 W Airport Fwy Ste 121 ","city":"Irving","state":"TX","zipCode":"75062-6204","phone":"(214) 596-0003","fax":"(214) 596-0751","webSite":""},{"name":"Javier O. De La Garza, Dds, Pa","street":"901 E 6Th St Ste 2 ","city":"Weslaco","state":"TX","zipCode":"78596-6449","phone":"(956) 968-8713","fax":"(956) 973-9649","webSite":""},{"name":"Jay K. Doshi Dental Associates, Pa","street":"16000 Stuebner Airline Suite #230","city":"Spring","state":"TX","zipCode":"77379","phone":"(281) 376-9068","fax":"(281) 251-4350","webSite":""},{"name":"Jayachandran, Jayashree","street":"306 Shady Hill Dr ","city":"Richardson","state":"TX","zipCode":"75080-1942","phone":"(972) 835-2181","fax":"","webSite":""},{"name":"Jayaswal, Neerav Surendranath","street":"3010 Lbj Fwy Ste 200 ","city":"Dallas","state":"TX","zipCode":"75234-2723","phone":"(972) 444-8888","fax":"(972) 243-6059","webSite":""},{"name":"Jayendra Patel Dds, Pllc Dba Ranchview Family Dentistry","street":"8300 N Macarthur Blvd Suite 140","city":"Irving","state":"TX","zipCode":"75063","phone":"(972) 869-9090","fax":"","webSite":""},{"name":"Jayesh S. Patel","street":"1522 S New Rd ","city":"Waco","state":"TX","zipCode":"76711-1316","phone":"(254) 741-9324","fax":"","webSite":""},{"name":"Jayswal, Niki D","street":"1101 N Main St ","city":"Euless","state":"TX","zipCode":"76039-2730","phone":"(714) 571-3140","fax":"","webSite":""},{"name":"Jefferson Dental Clinics","street":"5334 Ross Ave Ste. 800","city":"Dallas","state":"TX","zipCode":"75206-7453","phone":"(214) 841-4200","fax":"(214) 823-8651","webSite":""},{"name":"Jdc Healthcare Oklahoma Pllc","street":"3030 Lbj Fwy Ste 1400 ","city":"Dallas","state":"TX","zipCode":"75234-2766","phone":"(972) 444-8888","fax":"","webSite":""},{"name":"Jdc Healthcare, Pllc","street":"3010 Lyndon B Johnson Fwy Suite 200","city":"Dallas","state":"TX","zipCode":"75234-7770","phone":"(972) 444-8888","fax":"(972) 488-1899","webSite":""},{"name":"Jean, Leslie","street":"19984 Southwest Fwy ","city":"Sugar Land","state":"TX","zipCode":"77479-6505","phone":"(832) 595-2100","fax":"","webSite":""},{"name":"Jean-Chataigne, Tamarra","street":"860 S 11Th St Ste 101 ","city":"Beaumont","state":"TX","zipCode":"77701-3737","phone":"(409) 777-4747","fax":"","webSite":""},{"name":"Jeanine Eaton, Dds, P.A.","street":"19012 Gulf Freeway ","city":"Friendswood","state":"TX","zipCode":"77546-2798","phone":"(281) 280-0905","fax":"","webSite":""},{"name":"Jeannie Orthodontics Pa","street":"5339 N Ih 35 Suite 100","city":"Austin","state":"TX","zipCode":"78723-2428","phone":"(512) 744-6000","fax":"(512) 892-7205","webSite":""},{"name":"Jeannie Orthodontics Pa","street":"2237 E Riverside Dr ","city":"Austin","state":"TX","zipCode":"78741-3051","phone":"(512) 744-6000","fax":"(512) 892-7205","webSite":""},{"name":"Jeannie Orthodontics Pa","street":"9411 N Lamar Blvd ","city":"Austin","state":"TX","zipCode":"78753-4178","phone":"(512) 744-6000","fax":"(512) 892-7205","webSite":""},{"name":"Jeannie Orthodontics, Pa","street":"730 W Stassney Ln Suite 110","city":"Austin","state":"TX","zipCode":"78745-2982","phone":"(512) 744-6000","fax":"(512) 892-7205","webSite":""},{"name":"Jeannie Orthodontics, Pa","street":"7112 Ed Bluestei N Blvd Suite 100","city":"Austin","state":"TX","zipCode":"78723","phone":"(512) 744-6000","fax":"(512) 892-7205","webSite":""},{"name":"Jeannie Orthodontics, Pa","street":"6425 S Ih 35 Suite 100","city":"Austin","state":"TX","zipCode":"78744-4271","phone":"(512) 744-6000","fax":"(512) 892-7205","webSite":""},{"name":"Jeboda, Oluleke S","street":"3616 S Lancaster Rd ","city":"Dallas","state":"TX","zipCode":"75216-5629","phone":"(214) 374-7100","fax":"","webSite":""},{"name":"Jebraeili, Shadzi","street":"8210 Floyd Curl Dr ","city":"San Antonio","state":"TX","zipCode":"78229-3923","phone":"(210) 450-3500","fax":"","webSite":""},{"name":"Woodhaven General And Cosmetic Dentistry","street":"5109 Brentwood Stair Rd ","city":"Ft Worth","state":"TX","zipCode":"76112-2809","phone":"(817) 457-4078","fax":"(817) 446-5888","webSite":""},{"name":"Jeff Kosoris Dds Pc","street":"131 Mark Trl ","city":"Waxahachie","state":"TX","zipCode":"75165-1359","phone":"(972) 938-1845","fax":"(972) 938-7718","webSite":""},{"name":"Jeff M Webb, Dds, Pllc","street":"1109 N Judge Ely Blvd ","city":"Abilene","state":"TX","zipCode":"79601-3851","phone":"(325) 672-2794","fax":"","webSite":""},{"name":"Jeffalone, David Malcolm","street":"Dentac 2410 Stanley Road Suite 200J","city":"Fort Sam Houston","state":"TX","zipCode":"78234-6230","phone":"(210) 295-2743","fax":"(210) 295-2602","webSite":""},{"name":"Jefferson, Bethaniel","street":"15531 Kuykendahl Rd 180","city":"Houston","state":"TX","zipCode":"77090-3645","phone":"(281) 895-7787","fax":"","webSite":""},{"name":"Jefferson, Kristen","street":"1403 N Loop 336 W Ste C ","city":"Conroe","state":"TX","zipCode":"77304-3672","phone":"(936) 539-4867","fax":"","webSite":""},{"name":"Advanced Family Dentistry","street":"3415A El Salido Pkwy ","city":"Cedar Park","state":"TX","zipCode":"78613-5521","phone":"(512) 257-2483","fax":"(512) 249-1057","webSite":""},{"name":"24Th Street Dental Care","street":"323 Nw 24Th St ","city":"San Antonio","state":"TX","zipCode":"78207-3209","phone":"(210) 436-6261","fax":"(210) 436-7126","webSite":""},{"name":"Jeffrey A. Henry Estate","street":"11722 Marsh Ln Suite 374","city":"Dallas","state":"TX","zipCode":"75229-2600","phone":"(214) 357-9066","fax":"","webSite":""},{"name":"Jeffrey A. Lewis, D.D.S., P.C.","street":"6060 Richmond Ave Suite 340","city":"Houston","state":"TX","zipCode":"77057-6227","phone":"(713) 781-1733","fax":"","webSite":""},{"name":"Jeffrey V Jones Dds","street":"712 N Washington Ave Suite 400","city":"Dallas","state":"TX","zipCode":"75246-1619","phone":"(214) 824-2130","fax":"","webSite":""},{"name":"North Star Dental","street":"4011 E. Renner Road Suite #107","city":"Richardson","state":"TX","zipCode":"75082-2917","phone":"(972) 238-5665","fax":"(972) 238-5765","webSite":""},{"name":"Jeffries, Leon Radcliffe","street":"6434 Highway 6 N ","city":"Houston","state":"TX","zipCode":"77084-1310","phone":"(281) 463-3003","fax":"","webSite":""},{"name":"Jemelka, Joe","street":"5760 W Pleasant Ridge Rd Suite 110","city":"Arlington","state":"TX","zipCode":"76016-4481","phone":"(817) 561-9199","fax":"","webSite":""},{"name":"Jenke, Ralph Kenneth","street":"414 Tyler St ","city":"Livingston","state":"TX","zipCode":"77351-2956","phone":"(936) 327-5757","fax":"(936) 327-3317","webSite":""},{"name":"Jenkins, Jeff C","street":"5109 Brentwood Stair Rd ","city":"Ft Worth","state":"TX","zipCode":"76112-2809","phone":"(817) 457-4078","fax":"(817) 446-5888","webSite":""},{"name":"Nacogdoches Pediatric Dentistry","street":"1602 E Starr Ave Suite 203","city":"Nacogdoches","state":"TX","zipCode":"75961-4312","phone":"(936) 559-7200","fax":"","webSite":""}]